{"type":"FeatureCollection","features":[{"type":"Feature","id":1,"geometry":{"type":"MultiLineString","coordinates":[[[-65.037189254880161,-21.373565105045543],[-65.033206000156724,-21.374124999569005],[-65.029520000147841,-21.374821000188945],[-65.02658999992849,-21.37537399961036],[-65.023887000284788,-21.375793000046883],[-65.01903200032649,-21.376607999859289],[-65.012891999566079,-21.377558999648045],[-65.008978999880924,-21.378280999668334],[-65.00386999990053,-21.379222999941476],[-64.998427999852254,-21.380225000283474],[-64.993047999965199,-21.381217000164384],[-64.988718999981813,-21.381237000187355],[-64.985539939716432,-21.381251932530631]],[[-64.948509888620436,-21.382024424987151],[-64.94714300004938,-21.382217000414187],[-64.944092999692145,-21.382646000412535],[-64.940555000213067,-21.383146000087777],[-64.934310000006462,-21.384028000291949],[-64.929399000163698,-21.384721999920316],[-64.924748999766507,-21.385378999641091],[-64.923129999749676,-21.38560700026278],[-64.921335999756536,-21.385579999917013],[-64.913371000271411,-21.38553200040144],[-64.910586000443516,-21.385514999617499],[-64.90413699982264,-21.385412000263557],[-64.901283999556881,-21.385420999779285],[-64.897411999963765,-21.385433000332682],[-64.893095999680611,-21.385441999848354],[-64.888657000020487,-21.385378999641091],[-64.881341999933284,-21.385243999710781],[-64.878439000059757,-21.385181000402781],[-64.872513000174763,-21.385050999803752],[-64.871317999925736,-21.385025000403402],[-64.867958999708037,-21.38495099968884],[-64.867024999803846,-21.384929999619715],[-64.864652000089677,-21.384877999919695],[-64.858577999674878,-21.384745000081637],[-64.853852000269569,-21.384640999782278],[-64.852536999882602,-21.384612000243578],[-64.846729000043297,-21.384485999828996],[-64.842533999944123,-21.385352000194587],[-64.839134999680425,-21.386055000238002],[-64.834089753539274,-21.387096484415167]]]},"properties":{"OBJECTID":1,"empresa":"Empresa Nacional de Electricidad (ENDE)","nivel_volt":"230","tipo_condu":" ","material_c":" ","linea":"Las Carreras - Tarija","sistema":"STI","codigo":" ","AP_NOMBRE":"Cordillera de Sama; El Cardon"}},{"type":"Feature","id":2,"geometry":{"type":"LineString","coordinates":[[-66.222336000106282,-17.316721999920333],[-66.223236000241172,-17.317062000311012],[-66.223968999869385,-17.317125999665109],[-66.224676000097304,-17.317187999826274],[-66.225314999887303,-17.317247999895244],[-66.226368999929377,-17.317349000056254],[-66.227049788516865,-17.317417006789412]]},"properties":{"OBJECTID":2,"empresa":"SYNERGIA","nivel_volt":"24,9","tipo_condu":"PARTRIDGE","material_c":"PARTRIDGE","linea":"LT1 Kanata - Quillacollo en 24.9 kV","sistema":"SI","codigo":"KAN-QUI024","AP_NOMBRE":"Tunari"}},{"type":"Feature","id":3,"geometry":{"type":"LineString","coordinates":[[-66.263142999649688,-17.314117000299291],[-66.263595999855454,-17.3136369997477],[-66.262620999859223,-17.312447999775316],[-66.26159500020907,-17.312553000120829],[-66.260055000238026,-17.314467000251796],[-66.259977427416288,-17.314560600791026]]},"properties":{"OBJECTID":3,"empresa":"ENDE G","nivel_volt":"115","tipo_condu":"RAIL","material_c":"954 MCM","linea":"LT1 Misicuni - Colcapirhua en 115 kV","sistema":"NO","codigo":"MIS-COL115","AP_NOMBRE":"Tunari"}},{"type":"Feature","id":4,"geometry":{"type":"LineString","coordinates":[[-65.786317000029499,-17.169400999656375],[-65.785470999686822,-17.170068999884393],[-65.783600999786245,-17.169474000324783],[-65.782882999950459,-17.169245999703094],[-65.77979699973173,-17.16866099970531],[-65.778694126932351,-17.166672149000419]]},"properties":{"OBJECTID":4,"empresa":"ENDE CORANI","nivel_volt":"230","tipo_condu":"ACSR PARAKEET","material_c":"2x556.5MCM","linea":"LT1 San José I - Miguelito en 230 kV","sistema":"NO","codigo":"SJS-MGO23001","AP_NOMBRE":"Carrasco"}},{"type":"Feature","id":5,"geometry":{"type":"LineString","coordinates":[[-67.834967000226811,-16.285882999800549],[-67.834216999814657,-16.283400000409642],[-67.832817000004525,-16.278316999829656],[-67.832217000214371,-16.274449999567764],[-67.832317000329283,-16.272183000245207],[-67.832282999660663,-16.269983000415095],[-67.835132999788073,-16.263367000186861],[-67.836266999922088,-16.256666999682238],[-67.836499999875059,-16.253766999947061],[-67.834733000227743,-16.249182999895481],[-67.834199999930036,-16.247832999693117],[-67.833066999842117,-16.245383000025413],[-67.82991700026929,-16.238899999635237],[-67.826866999912056,-16.23266699998203],[-67.820366999637258,-16.228717000389224],[-67.81664999999748,-16.226949999842589],[-67.810932999858039,-16.223900000384674],[-67.8055669997172,-16.221183000095323],[-67.798417000044481,-16.217283000110342],[-67.794432999783055,-16.215599999840094],[-67.792616999674749,-16.214599999590291],[-67.786649999697715,-16.212716999989539],[-67.783066999942037,-16.211867000361735],[-67.781966999577321,-16.211300000294727],[-67.778767000396726,-16.209732999977916],[-67.775049999857572,-16.20788300010031],[-67.773132999588199,-16.207183000195243],[-67.76713299988802,-16.205133000087812],[-67.761483000140288,-16.202917000419177],[-67.759249999687711,-16.202082999730635],[-67.755950000392147,-16.199466999602294],[-67.75028020926419,-16.195461516335854]]},"properties":{"OBJECTID":5,"empresa":"ENDE TRANSMISIÓN S.A.","nivel_volt":"115","tipo_condu":"Ibis (397) T4","material_c":"ACSR (Alu*","linea":"Caranavi - Chuspipata","sistema":"STI","codigo":"CRN-CHS115","AP_NOMBRE":"Cotapata"}},{"type":"Feature","id":6,"geometry":{"type":"MultiLineString","coordinates":[[[-65.917152403760383,-17.280470725743328],[-65.919402000302057,-17.28250000007489],[-65.920268999814425,-17.284582999905467],[-65.921551999625024,-17.287633000262701],[-65.922651999989796,-17.29013300043755],[-65.921269000064285,-17.293967000076918],[-65.919402000302057,-17.299382999825525],[-65.918218999707051,-17.302783000135321],[-65.917219000356567,-17.305050000357198],[-65.918602000282021,-17.308300000044937],[-65.919601999632562,-17.310632999713107],[-65.920037933403876,-17.311622544444845]],[[-65.986905430541128,-17.385290206777597],[-65.988935999896455,-17.386749999812594],[-65.991135999726566,-17.388300000244783],[-65.994351999645005,-17.390666999682253],[-65.995851999570107,-17.391717000439201],[-65.997801999562569,-17.393032999972945],[-66.001218999756986,-17.393032999972945],[-66.004152000114686,-17.392832999743121],[-66.006219000106739,-17.392716999789684],[-66.0088190003965,-17.392533000297703],[-66.012269000314063,-17.392333000067879],[-66.015768999839452,-17.391383000325163],[-66.018518999851949,-17.390666999682253],[-66.021136000026331,-17.390000000399652],[-66.024401999552595,-17.389132999987908],[-66.027552000024741,-17.388283000360161],[-66.029748816254823,-17.387678819621783]]]},"properties":{"OBJECTID":6,"empresa":"ENDE TRANSMISIÓN S.A.","nivel_volt":"115","tipo_condu":"Ibis (397) T2","material_c":" ","linea":"Corani - Arocagua","sistema":"STI","codigo":" ","AP_NOMBRE":"Tunari"}},{"type":"Feature","id":7,"geometry":{"type":"MultiLineString","coordinates":[[[-65.780931558344719,-17.166601004532708],[-65.780289999983495,-17.166661000105023],[-65.774003188496295,-17.167973953634998]],[[-65.73424101321217,-17.157920802103263],[-65.729858999992814,-17.15317699971871],[-65.727183999841657,-17.149922999846524],[-65.720460000028936,-17.142547999690407],[-65.7193029997336,-17.141464000063479],[-65.71626599997586,-17.139294999864319],[-65.71370000035472,-17.135716000293144],[-65.712431058746347,-17.134279066225872]],[[-65.456119430966908,-17.052019558056088],[-65.453085999719065,-17.053219000056743],[-65.450296934955531,-17.054453992257891]]]},"properties":{"OBJECTID":7,"empresa":"ENDE TRANSMISIÓN S.A.","nivel_volt":"230","tipo_condu":"Rail (954)  H1","material_c":"ACSR (Alu*","linea":"Carrasco - Santivañez","sistema":"STI","codigo":" ","AP_NOMBRE":"Carrasco"}},{"type":"Feature","id":8,"geometry":{"type":"LineString","coordinates":[[-65.7686074037087,-17.173245235379284],[-65.770632999813074,-17.172283000360153],[-65.775466999702246,-17.170000000299751],[-65.77776699964727,-17.169983000415073],[-65.782300000044927,-17.170082999630665],[-65.785999999800083,-17.171449999717652],[-65.789182999995433,-17.173066999642288],[-65.79473433961806,-17.17567305596674]]},"properties":{"OBJECTID":8,"empresa":"ENDE TRANSMISIÓN S.A.","nivel_volt":"230","tipo_condu":"Rail (954) H1","material_c":" ","linea":"San Jose - Valle Hermoso","sistema":"STI","codigo":" ","AP_NOMBRE":"Carrasco"}},{"type":"Feature","id":9,"geometry":{"type":"LineString","coordinates":[[-65.740626187148791,-17.173120500310802],[-65.737233000102833,-17.168916999819658],[-65.736366999737186,-17.166966999827139],[-65.734316999629812,-17.164532999997903],[-65.732599999590263,-17.162433000282704],[-65.730317000429181,-17.159866999762187],[-65.727683000370121,-17.156700000304738],[-65.724700000404653,-17.152866999812147],[-65.721566999817128,-17.149549999732642],[-65.71776699994706,-17.145017000234304],[-65.715049999657708,-17.14181700015439],[-65.714013924003325,-17.140594430288672]]},"properties":{"OBJECTID":9,"empresa":"ENDE TRANSMISIÓN S.A.","nivel_volt":"230","tipo_condu":"Rail (954) H1","material_c":" ","linea":"Chimore - San Jose","sistema":"STI","codigo":" ","AP_NOMBRE":"Carrasco"}},{"type":"Feature","id":10,"geometry":{"type":"LineString","coordinates":[[-65.781551413366969,-17.166951408280795],[-65.780550000282233,-17.167082999780575],[-65.775050000257238,-17.169366999887075],[-65.771866597165683,-17.170712024140528]]},"properties":{"OBJECTID":10,"empresa":"ENDE TRANSMISIÓN S.A.","nivel_volt":"115","tipo_condu":"Ibis (397) H1","material_c":" ","linea":"Santa Isabel-San Jose","sistema":"STI","codigo":" ","AP_NOMBRE":"Carrasco"}},{"type":"Feature","id":11,"geometry":{"type":"LineString","coordinates":[[-65.986288152975817,-17.383095156816012],[-65.988332999967952,-17.383950000192328],[-65.993367000086948,-17.386833000042884],[-65.994916999619818,-17.387666999832106],[-65.996450000167329,-17.388550000082375],[-66.000166999807163,-17.387967000176843],[-66.001632999962965,-17.387666999832106],[-66.006366999737224,-17.386783000435059],[-66.009116999749722,-17.386450000367176],[-66.012617000174373,-17.386033000022906],[-66.01455000028227,-17.385533000347664],[-66.020200000029945,-17.384617000374249],[-66.022966999927064,-17.384167000306775],[-66.024616999574846,-17.383882999800562],[-66.029832999992891,-17.383033000172759],[-66.032382999775564,-17.38263299971311],[-66.03408299993049,-17.382367000036993],[-66.036100735960133,-17.382037998354917]]},"properties":{"OBJECTID":11,"empresa":"ENDE TRANSMISIÓN S.A.","nivel_volt":"115","tipo_condu":"Ibis (397) T2","material_c":"ACSR","linea":"Sacaba - Arocahua","sistema":"STI","codigo":" ","AP_NOMBRE":"Tunari"}},{"type":"Feature","id":12,"geometry":{"type":"LineString","coordinates":[[-63.600718959912058,-21.658209002443471],[-63.601778999800956,-21.657567999863261],[-63.604853000365608,-21.65531600033313],[-63.608917999865753,-21.652329000183158],[-63.616029000438004,-21.647126000364608],[-63.620811999773935,-21.644804000304305],[-63.624981999619536,-21.643776999708734],[-63.635300999741332,-21.643340000240755],[-63.636992000380474,-21.643288999687513],[-63.638024000307325,-21.642787999966174],[-63.641322000409957,-21.641220999649363],[-63.648165000314464,-21.637156000149218],[-63.652362999652667,-21.633896000000334],[-63.660511000382314,-21.628036999607787],[-63.668961999796409,-21.627208000049109],[-63.671405000040693,-21.626736999912566],[-63.673771000331385,-21.626583000005382],[-63.677335000110133,-21.626342999729616],[-63.681555999609657,-21.626054999938276],[-63.68582599957017,-21.625766000100782],[-63.691389999848582,-21.625390999894705],[-63.693738766430897,-21.625235576360694]]},"properties":{"OBJECTID":12,"empresa":"Empresa Nacional de Electricidad (ENDE)","nivel_volt":"230","tipo_condu":"Rail (954) MCM","material_c":"ACSR","linea":"Tarija - Yaguacua","sistema":"STI","codigo":" ","AP_NOMBRE":"Serranía del Aguarague"}},{"type":"Feature","id":13,"geometry":{"type":"MultiLineString","coordinates":[[[-66.350439649270356,-17.484845935191686],[-66.351879999862092,-17.483330000179308],[-66.354867000012007,-17.48018599998386],[-66.357818000300426,-17.477079999742159],[-66.361169000149175,-17.473550999778752],[-66.361267576637317,-17.473447277369928]],[[-66.375747142716421,-17.458153108079443],[-66.376927000180899,-17.456861999981243],[-66.378418014080069,-17.455230315926315]],[[-66.380495903962753,-17.452956393622628],[-66.381696999816654,-17.451642000278071],[-66.384114999807366,-17.44899699971171],[-66.38715699979565,-17.445670000070379],[-66.389976232317224,-17.44375453764178]],[[-66.390179441328087,-17.44361647102329],[-66.390996999711717,-17.44306100026489],[-66.394038999700058,-17.43997800018451],[-66.397592999916981,-17.438451999959796],[-66.397848496410916,-17.438328099462183]],[[-66.40109656255629,-17.436752986361171],[-66.401277999879767,-17.436665000289508],[-66.405040999842242,-17.434950000342212],[-66.406864000273345,-17.433643000324139],[-66.4106379998438,-17.43089899968902],[-66.412896999696727,-17.429037000157393],[-66.41449200040546,-17.427616000278135],[-66.418138000368401,-17.42523900037952],[-66.422249000191186,-17.424610000151347],[-66.428457999636919,-17.423669999970457],[-66.431084000226406,-17.421797999977684],[-66.435340999587424,-17.418865999666082],[-66.43867000022027,-17.416376999998533],[-66.442371000021581,-17.413722999916445],[-66.447038000303451,-17.413452000009727],[-66.449746000177754,-17.410441999698492],[-66.454935000250032,-17.404680000181827],[-66.455624999693953,-17.403578999770957],[-66.459523999632836,-17.397489999563788],[-66.461656999970558,-17.393879000315565],[-66.464287999891269,-17.392726000204675],[-66.468301999737434,-17.390975000395883],[-66.469840999662381,-17.390304000029516],[-66.471717999885755,-17.389034999965247],[-66.474674999551553,-17.387089000157175],[-66.476468000397858,-17.385812999770053],[-66.4803499995528,-17.383573999940097],[-66.482241000421766,-17.382481999944275],[-66.486968999919384,-17.379646999609292],[-66.492711000312397,-17.37722899961858],[-66.496090999699845,-17.375731999831885],[-66.499010000311216,-17.374413000159791],[-66.50035500028298,-17.373071000326377],[-66.502426999606314,-17.37067799968986],[-66.50441200031355,-17.368525000228544],[-66.507078000049603,-17.365889000077232],[-66.509558000201537,-17.362915999673589],[-66.512121999730482,-17.360150999868722],[-66.513341000186983,-17.35839199969098],[-66.516075000360956,-17.355820999839239],[-66.518281999614544,-17.353417999640953],[-66.522041000291892,-17.349324999748887],[-66.524414000006061,-17.346742000243069],[-66.526384000021551,-17.344810000181326],[-66.530950000142354,-17.340333999714289],[-66.532883000250195,-17.338405999836993],[-66.53585499970842,-17.335440999802245],[-66.54152600042454,-17.33050999993651],[-66.543511000232456,-17.328889999873525],[-66.546561999736468,-17.326275999837492],[-66.550774999766361,-17.322598000197502],[-66.551282999810553,-17.321718000085582],[-66.553206000356568,-17.31864400042025],[-66.55627599983751,-17.313222000394944],[-66.557594000362769,-17.311069000034252],[-66.560852999566237,-17.307469000394008],[-66.564538000428342,-17.304066999992017],[-66.56747500007117,-17.301023999957579],[-66.569508000293922,-17.298876999873585],[-66.572319000421487,-17.295744000185437],[-66.57276400025836,-17.293911000192452],[-66.573030999980631,-17.292049999807602],[-66.573918999562125,-17.287168000402858],[-66.574746999974025,-17.281219000356543],[-66.574856999650763,-17.277077000003487],[-66.575177000018471,-17.274569000359008],[-66.576031999876875,-17.271347000163871],[-66.57667799998967,-17.268910000196286],[-66.577443000194251,-17.266028000391884],[-66.581503000363114,-17.262070999576906],[-66.584117000399203,-17.259517999655941],[-66.587281999764457,-17.256469000244124],[-66.594846999689253,-17.250560000243752],[-66.60369100013952,-17.247007000072927],[-66.612938000288466,-17.24525400017194],[-66.615617999770848,-17.244742999989398],[-66.626027999592452,-17.240423999567895],[-66.629642999924442,-17.23892399964285],[-66.631637000147407,-17.236895999650642],[-66.633877000023517,-17.234586000143736],[-66.636401999552618,-17.231979999577277],[-66.638896000350087,-17.229181000003109],[-66.642174999576525,-17.225836999577837],[-66.644483999936597,-17.223433000232717],[-66.64678700001997,-17.220935000150064],[-66.650765000004697,-17.216798000027609],[-66.655742000193129,-17.211190999564906],[-66.659569000409022,-17.2074650004094],[-66.661910000446142,-17.20501199970397],[-66.665067000341764,-17.201670000270269],[-66.668624999843814,-17.197898999938843],[-66.671137999718894,-17.195354000386772],[-66.67385700010044,-17.193112999565244],[-66.677966999877128,-17.189621999555584],[-66.681893000161779,-17.186352999890971],[-66.684138000268433,-17.184453999552375],[-66.686678999636058,-17.182368999629603],[-66.689601000385835,-17.179935999846464],[-66.693777522114942,-17.172778801100719]]]},"properties":{"OBJECTID":13,"empresa":"Empresa Nacional de Electricidad (ENDE)","nivel_volt":"230","tipo_condu":"Rail 954 MCM","material_c":"ACSR 954","linea":"Santivañez - Palca","sistema":"STI","codigo":" ","AP_NOMBRE":"Tunari"}},{"type":"Feature","id":14,"geometry":{"type":"MultiLineString","coordinates":[[[-68.031661950838327,-16.325764000708034],[-68.031267000071978,-16.325283000110346],[-68.031196266594407,-16.325251308001441]],[[-68.016640433509167,-16.3213352596145],[-68.014183000045364,-16.321283000010396],[-68.011582999755603,-16.3221329996382],[-68.007082999980412,-16.323650000347186],[-68.002299999745162,-16.325199999880056],[-67.999416999894606,-16.326232999853005],[-67.997395293358068,-16.326827955345834]],[[-67.985629951361148,-16.328822584194882],[-67.983683000070357,-16.329132999588239],[-67.980583000105355,-16.329750000162335],[-67.974833000242711,-16.330832999743109],[-67.97253518025434,-16.33092445539927]],[[-67.906992878218716,-16.309338230674769],[-67.906682999720601,-16.309032999873011],[-67.902449999667738,-16.305650000347214],[-67.901350000202285,-16.304083000030403],[-67.900450000067394,-16.302900000334716],[-67.897166999757189,-16.298066999592322],[-67.893866999562363,-16.293267000371713],[-67.892633000212754,-16.29159999993999],[-67.886932999957935,-16.288333000367629],[-67.882333000067831,-16.286400000259732],[-67.877299999994989,-16.286249999637732],[-67.875183000395111,-16.286682999820528],[-67.87053299999792,-16.288066999792136],[-67.868200000329693,-16.28874999981258],[-67.86459999979013,-16.289799999670208],[-67.862350000352194,-16.289532999947937],[-67.857716999839624,-16.289050000157317],[-67.853900000084877,-16.287067000441652],[-67.850800000119875,-16.285500000124841],[-67.845950000392179,-16.285133000287715],[-67.84376700044669,-16.284966999827134],[-67.842768668439248,-16.284832011588037]],[[-67.838437144058901,-16.285414708422024],[-67.83691700021933,-16.285999999800083],[-67.835949999692673,-16.285967000076937],[-67.835675551785243,-16.286076779419773]]]},"properties":{"OBJECTID":14,"empresa":"ENDE TRANSMISIÓN S.A.","nivel_volt":"115","tipo_condu":"Ibis (397) H1","material_c":"ACSR (Alu*","linea":"Chuspipata -  Cumbre","sistema":"STI","codigo":"CHS-TCH115","AP_NOMBRE":"Cotapata"}},{"type":"Feature","id":15,"geometry":{"type":"MultiLineString","coordinates":[[[-67.157155368325562,-14.78462887032606],[-67.158676999643774,-14.782126999561342],[-67.15951200037847,-14.780756000189228],[-67.16044100005206,-14.779411000217465],[-67.162908318863799,-14.775840158396534]],[[-67.163794384902928,-14.774557614542232],[-67.16415726584512,-14.774032223408312]],[[-67.164928975891485,-14.772914917389471],[-67.16551251089362,-14.772070055588529]],[[-67.166384753453542,-14.770807893069787],[-67.166634468206098,-14.770446566156068]],[[-67.168780992548704,-14.767340265540781],[-67.169069999580756,-14.766921999850354],[-67.170300042812698,-14.76514123517984]],[[-67.170334065064992,-14.765091979311364],[-67.170727978013758,-14.764521702114791]],[[-67.171540662971154,-14.763345110088721],[-67.17190345937712,-14.762819829571413]],[[-67.492696074064554,-14.4445964044005],[-67.494205999806979,-14.444393000236744],[-67.497209999841573,-14.443863000077329],[-67.501037000057465,-14.443185000287485],[-67.504536000436019,-14.442565999621138],[-67.507734000423739,-14.441999999600228],[-67.512546000197688,-14.443652000239581],[-67.518313999991051,-14.445796000185226],[-67.52144000025578,-14.447436000271125],[-67.524843999850646,-14.448762000266072],[-67.529653000385622,-14.448850999873684],[-67.529939547771846,-14.448790658961684]],[[-67.53174783799227,-14.448409870718933],[-67.532033699195836,-14.44834967459775]],[[-67.532053815231336,-14.448345438790909],[-67.532397113435991,-14.448273147687587]]]},"properties":{"OBJECTID":15,"empresa":"Empresa Nacional de Electricidad (ENDE)","nivel_volt":"115","tipo_condu":"Ibis 397.5 MCM","material_c":"ACSR (Alu*","linea":"Yucumo - San Buenaventura","sistema":"STI","codigo":"YUC-SBU115","AP_NOMBRE":"Pilón Lajas"}},{"type":"Feature","id":16,"geometry":{"type":"LineString","coordinates":[[-63.859939689465079,-17.400166601407477],[-63.859512999825029,-17.400343999875645],[-63.855188000026146,-17.401715000147078],[-63.849611714109301,-17.398452311924586]]},"properties":{"OBJECTID":16,"empresa":"ENDE TRANSMISIÓN S.A.","nivel_volt":"230","tipo_condu":"Rail (954)  H1","material_c":"ACSR (Alu*","linea":"Yapacani - Bélgica","sistema":"STI","codigo":"CAR-WAR230","AP_NOMBRE":"Amboró"}},{"type":"Feature","id":17,"geometry":{"type":"MultiLineString","coordinates":[[[-67.834115188465148,-16.286165662115593],[-67.832599999890022,-16.286083000030374],[-67.831662903620042,-16.286569437929188]],[[-67.829588172156377,-16.287646412052254],[-67.828200000229799,-16.288367000136873],[-67.825933000007922,-16.292099999615232],[-67.825246782213185,-16.293365731543247]]]},"properties":{"OBJECTID":17,"empresa":"ENDE TRANSMISIÓN S.A.","nivel_volt":"115","tipo_condu":"Ibis (397) H1","material_c":"ACSR (Alu*","linea":"Chuspipata-Pichu","sistema":"NO","codigo":"CHS-PIC115","AP_NOMBRE":"Cotapata"}},{"type":"Feature","id":18,"geometry":{"type":"MultiLineString","coordinates":[[[-67.162627615272186,-15.445891873111407],[-67.162544484640193,-15.445768466341576]],[[-67.15919417097416,-15.440794962717291],[-67.159143000449092,-15.440718999682019],[-67.156711999858885,-15.437177000018494],[-67.155450000117355,-15.435392999587236],[-67.154950852999434,-15.434658538560655]],[[-67.152207438722257,-15.430613995039778],[-67.151160000133871,-15.429054999588516],[-67.149749046581178,-15.42695470309701]],[[-67.074250716197582,-15.320031259035318],[-67.073335000409884,-15.317876999623763],[-67.071846000092762,-15.313491999755911],[-67.070124999868824,-15.309101999657514],[-67.06988240325029,-15.308567514579067]],[[-67.074937724496351,-15.278427007800133],[-67.075344999572053,-15.276532999598203],[-67.07594100007708,-15.273544000255356],[-67.077028488174165,-15.267743850598208]],[[-67.072451140407736,-15.241606010408987],[-67.072075771479604,-15.24104078380509]],[[-67.039075459265007,-15.201199897157494],[-67.038945000011722,-15.201088999957335],[-67.034082999730629,-15.196944000365306],[-67.033423999917602,-15.192093999738233],[-67.032765000104632,-15.187124999918751],[-67.032412000013778,-15.185498999579124],[-67.031373836133582,-15.179705593038648]]]},"properties":{"OBJECTID":18,"empresa":"Empresa Nacional de Electricidad (ENDE)","nivel_volt":"115","tipo_condu":"Ibis (397)","material_c":"ACSR (Alu*","linea":"Caranavi-Yucumo","sistema":"STI","codigo":"CRN-YUC115","AP_NOMBRE":"Pilón Lajas"}},{"type":"Feature","id":19,"geometry":{"type":"LineString","coordinates":[[-64.89764307087097,-21.73349298841066],[-64.905467000002034,-21.73353800037836],[-64.90801699978465,-21.733552000124689],[-64.918433999929107,-21.736233999699266],[-64.920531000405276,-21.737337000202331],[-64.922454000052028,-21.738349000106211],[-64.927003000288209,-21.740743999935603],[-64.931230000064431,-21.741773999770203],[-64.93494399956586,-21.739050000057432],[-64.942160999630403,-21.737121000133982],[-64.946089000007305,-21.736072000322508],[-64.951136999872631,-21.73726799971837],[-64.956549000336054,-21.73855000038219],[-64.960083999676783,-21.739387000309762],[-64.963117000149396,-21.739285000102655],[-64.96594600020768,-21.739189000172189],[-64.977725000208579,-21.735338999794976],[-64.981185999734066,-21.73420799979931],[-64.986754000196925,-21.73371000021632],[-64.991100000064932,-21.73730200038699],[-64.992789999758656,-21.73870000010487],[-64.997435999971401,-21.741047000418689],[-65.002472000182649,-21.743590999924663],[-65.00690400041924,-21.745214000125941],[-65.012551000028566,-21.747280000071896],[-65.017981000422765,-21.7524500001673],[-65.023752000354477,-21.760662000251045],[-65.026921999950275,-21.76517299963416],[-65.030677000443177,-21.78466500008966],[-65.032785999674104,-21.795613000439573],[-65.034241000221925,-21.798685000012711],[-65.036656000074288,-21.803784000431222],[-65.038376000252185,-21.811152000264542],[-65.042399999660233,-21.816205000360412],[-65.045618999717021,-21.820244999606984],[-65.050745999628134,-21.823898999938876],[-65.056167999653439,-21.831444999886799],[-65.063968999669555,-21.831416000348099],[-65.091075999657619,-21.831313000094838],[-65.099807000292799,-21.83519200001075]]},"properties":{"OBJECTID":19,"empresa":"ENDE GUARACACHI S.A.","nivel_volt":"24,9","tipo_condu":"300 MCM","material_c":" ","linea":"Tablada - Yunchara","sistema":"NO","codigo":"LTA-YUN02401","AP_NOMBRE":"Cordillera de Sama"}},{"type":"Feature","id":20,"geometry":{"type":"LineString","coordinates":[[-64.948090389959475,-21.378246415339731],[-64.917143999795712,-21.380190999614911],[-64.898599999890052,-21.383834000338823],[-64.844873999935089,-21.381896000000381],[-64.83403532836769,-21.384034220902549]]},"properties":{"OBJECTID":20,"empresa":"ENDE TRANSMISIÓN S.A.","nivel_volt":"230","tipo_condu":"2xFlint 780.8 MCM","material_c":"AAAC","linea":"Las Carreras - Tarija","sistema":"STI","codigo":" ","AP_NOMBRE":"Cordillera de Sama"}},{"type":"Feature","id":21,"geometry":{"type":"LineString","coordinates":[[-63.865060033493705,-17.391728392151549],[-63.862827999812282,-17.392034999815337],[-63.857615999578684,-17.390628999728506],[-63.854731692113887,-17.389840183677507]]},"properties":{"OBJECTID":21,"empresa":"Interconexión Eléctrica - ISA BOLIVIA S.A. (ISA)","nivel_volt":"230","tipo_condu":"Acard (700)","material_c":" ","linea":"Carrasco - Arboleda","sistema":"STI","codigo":" ","AP_NOMBRE":"Amboró"}}]}