{"type":"FeatureCollection","features":[{"type":"Feature","id":1,"geometry":{"type":"Point","coordinates":[-65.101632999962931,-21.837875999677578]},"properties":{"OBJECTID":1,"empresa":"ENDE Guaracachi S.A.","planta":"Yunchara","tecnologia":"Fotovoltaica","nivel_volt":" ","potencia_n":" ","potencia_i":" ","tipo_equip":" ","AP_NOMBRE":"Cordillera de Sama"}},{"type":"Feature","id":2,"geometry":{"type":"Point","coordinates":[-66.222093999738263,-17.316460000428606]},"properties":{"OBJECTID":2,"empresa":"Sociedad Industrial Energética y Comercial Andina S.A (SYNERGIA)","planta":"Central Kanata","tecnologia":"Hidroeléctrica","nivel_volt":" ","potencia_n":" ","potencia_i":" ","tipo_equip":"Transformador","AP_NOMBRE":"Tunari"}},{"type":"Feature","id":3,"geometry":{"type":"Point","coordinates":[-67.756217000114418,-22.434072000222613]},"properties":{"OBJECTID":3,"empresa":"Empresa Nacional de Electricidad (ENDE)","planta":"Laguna Colorada","tecnologia":"Geotermico Proy","nivel_volt":" ","potencia_n":" ","potencia_i":" ","tipo_equip":" ","AP_NOMBRE":"Eduardo Avaroa"}}]}