{"type":"FeatureCollection","features":[{"type":"Feature","id":1,"geometry":{"type":"Point","coordinates":[-66.151700000054916,-17.28420000022976]},"properties":{"OBJECTID":1,"Código":"CB-G-008","Municipio":"Cercado","Nom_Presa":"Taquiña","Uso":"Multiple","Tipo_Presa":"Tierra","Estado":"Funciona","Volumen_m3":" ","AreaCuenca":"4,75_Km2","Alt_Presa":"12,00_m","LongCorona":"38,00_m","CapEmbalse":"1.000.000_m3","CuencaInfl":"Rio Rocha","Rio_Presa":"Tipicuy","AP_NOMBRE":"Tunari"}},{"type":"Feature","id":2,"geometry":{"type":"Point","coordinates":[-65.0125000003747,-17.635799999570281]},"properties":{"OBJECTID":2,"Código":"CB-G-015","Municipio":"Pojo","Nom_Presa":"Chogo Laguna","Uso":"Riego","Tipo_Presa":"Tierra","Estado":"Funciona","Volumen_m3":" ","AreaCuenca":"1,66_Km2","Alt_Presa":"16,00_m","LongCorona":"126,70_m","CapEmbalse":"1.400.000_m3","CuencaInfl":"Rio Grande Pojo","Rio_Presa":"Palca","AP_NOMBRE":"Carrasco"}},{"type":"Feature","id":3,"geometry":{"type":"Point","coordinates":[-65.017800000169814,-17.643099999865058]},"properties":{"OBJECTID":3,"Código":"CB-P-016","Municipio":"Pojo","Nom_Presa":"Orqhoyuj Laguna","Uso":"Riego","Tipo_Presa":"Gravedad","Estado":"Funciona","Volumen_m3":" ","AreaCuenca":"0,32_Km2","Alt_Presa":"6,00_m","LongCorona":"111,71_m","CapEmbalse":"341.000_m3","CuencaInfl":"Rio Grande de Pojo","Rio_Presa":"Palca","AP_NOMBRE":"Carrasco"}},{"type":"Feature","id":4,"geometry":{"type":"Point","coordinates":[-66.375000000349701,-17.272500000274761]},"properties":{"OBJECTID":4,"Código":"CB-P-017","Municipio":"Quillacollo","Nom_Presa":"Cinturani","Uso":"Riego","Tipo_Presa":"Tierra","Estado":"Funciona","Volumen_m3":" ","AreaCuenca":"0,53_Km2","Alt_Presa":"4,63_m","LongCorona":"65,40_m","CapEmbalse":"60.000_m3","CuencaInfl":"Rio Chocaya","Rio_Presa":"Janko Khala","AP_NOMBRE":"Tunari"}},{"type":"Feature","id":5,"geometry":{"type":"Point","coordinates":[-66.388300000344714,-17.275299999895026]},"properties":{"OBJECTID":5,"Código":"CB-M-018","Municipio":"Quillacollo","Nom_Presa":"El Toro","Uso":"Riego","Tipo_Presa":"Gravedad","Estado":"Funciona","Volumen_m3":" ","AreaCuenca":"1,50_Km2","Alt_Presa":"6,00_m","LongCorona":"Sin dato","CapEmbalse":"681.500_m3","CuencaInfl":"Rio Chocaya","Rio_Presa":"Janko Khala","AP_NOMBRE":"Tunari"}},{"type":"Feature","id":6,"geometry":{"type":"Point","coordinates":[-66.397199999780128,-17.251099999964993]},"properties":{"OBJECTID":6,"Código":"CB-P-019","Municipio":"Quillacollo","Nom_Presa":"Falsuri","Uso":"Riego","Tipo_Presa":"Gravedad","Estado":"Funciona","Volumen_m3":" ","AreaCuenca":"0,20_Km2","Alt_Presa":"7,95_m","LongCorona":"59,30_m","CapEmbalse":"100.000_m3","CuencaInfl":"Rio Chocaya","Rio_Presa":"Janko Khala","AP_NOMBRE":"Tunari"}},{"type":"Feature","id":7,"geometry":{"type":"Point","coordinates":[-66.385299999595247,-17.261400000109859]},"properties":{"OBJECTID":7,"Código":"CB-P-020","Municipio":"Quillacollo","Nom_Presa":"Marquina","Uso":"Riego","Tipo_Presa":"Tierra","Estado":"Funciona","Volumen_m3":" ","AreaCuenca":"3,23_Km2","Alt_Presa":"3,00_m","LongCorona":"42,00_m","CapEmbalse":"132.000_m3","CuencaInfl":"Rio Chacaya","Rio_Presa":"Janko Khala","AP_NOMBRE":"Tunari"}},{"type":"Feature","id":8,"geometry":{"type":"Point","coordinates":[-66.388300000344714,-17.249199999580298]},"properties":{"OBJECTID":8,"Código":"CB-P-021","Municipio":"Quillacollo","Nom_Presa":"San Isidro","Uso":"Riego","Tipo_Presa":"Tierra","Estado":"Funciona","Volumen_m3":" ","AreaCuenca":"0,25_Km2","Alt_Presa":"3,60_m","LongCorona":"51,00_m","CapEmbalse":"17.500_m3","CuencaInfl":"Rio Chocaya","Rio_Presa":"Janko Khala","AP_NOMBRE":"Tunari"}},{"type":"Feature","id":9,"geometry":{"type":"Point","coordinates":[-66.366699999805121,-17.247799999770109]},"properties":{"OBJECTID":9,"Código":"CB-P-022","Municipio":"Quillacollo","Nom_Presa":"Chulpani","Uso":"Riego","Tipo_Presa":"Tierra","Estado":"Funciona","Volumen_m3":" ","AreaCuenca":"0,45_Km2","Alt_Presa":"5,30_m","LongCorona":"134,20_m","CapEmbalse":"246.000_m3","CuencaInfl":"Rio Chocaya","Rio_Presa":"Janko Khala","AP_NOMBRE":"Tunari"}},{"type":"Feature","id":10,"geometry":{"type":"Point","coordinates":[-66.386099999615226,-17.239700000354674]},"properties":{"OBJECTID":10,"Código":"CB-P-023","Municipio":"Quillacollo","Nom_Presa":"Khotani Alto","Uso":"Riego","Tipo_Presa":"Tierra","Estado":"F/Problemas","Volumen_m3":" ","AreaCuenca":"0,35_Km2","Alt_Presa":"4,20_m","LongCorona":"97,50_m","CapEmbalse":"79.000_m3","CuencaInfl":"Rio Chocaya","Rio_Presa":"Janko Khala","AP_NOMBRE":"Tunari"}},{"type":"Feature","id":11,"geometry":{"type":"Point","coordinates":[-66.388300000344714,-17.241100000164806]},"properties":{"OBJECTID":11,"Código":"CB-P-024","Municipio":"Quillacollo","Nom_Presa":"Khotani Bajo","Uso":"Riego","Tipo_Presa":"Tierra","Estado":"Funciona","Volumen_m3":" ","AreaCuenca":"0,15_Km2","Alt_Presa":"2,91_m","LongCorona":"74,00_m","CapEmbalse":"40.000_m3","CuencaInfl":"Rio Chocaya","Rio_Presa":"Janko Khala","AP_NOMBRE":"Tunari"}},{"type":"Feature","id":12,"geometry":{"type":"Point","coordinates":[-66.373599999640248,-17.245599999939998]},"properties":{"OBJECTID":12,"Código":"CB-P-025","Municipio":"Quillacollo","Nom_Presa":"Khumuni","Uso":"Riego","Tipo_Presa":"Tierra","Estado":"Funciona","Volumen_m3":" ","AreaCuenca":"1,13_Km2","Alt_Presa":"4,00_m","LongCorona":"55,00_m","CapEmbalse":"168.000_m3","CuencaInfl":"Rio Chocaya","Rio_Presa":"Janko Khala","AP_NOMBRE":"Tunari"}},{"type":"Feature","id":13,"geometry":{"type":"Point","coordinates":[-66.368600000189815,-17.238299999645221]},"properties":{"OBJECTID":13,"Código":"CB-P-026","Municipio":"Quillacollo","Nom_Presa":"La Nueva","Uso":"Riego","Tipo_Presa":"Tierra","Estado":"Funciona","Volumen_m3":" ","AreaCuenca":"0,25_Km2","Alt_Presa":"4,80_m","LongCorona":"42,60_m","CapEmbalse":"45.500_m3","CuencaInfl":"Rio Chocaya","Rio_Presa":"Janko Khala","AP_NOMBRE":"Tunari"}},{"type":"Feature","id":14,"geometry":{"type":"Point","coordinates":[-66.373599999640248,-17.238299999645221]},"properties":{"OBJECTID":14,"Código":"CB-P-027","Municipio":"Quillacollo","Nom_Presa":"San Juan","Uso":"Riego","Tipo_Presa":"Tierra","Estado":"Funciona","Volumen_m3":" ","AreaCuenca":"0,40_Km2","Alt_Presa":"3,25_m","LongCorona":"63,75_m","CapEmbalse":"50.000_m3","CuencaInfl":"Rio Chocaya","Rio_Presa":"Janko Khala","AP_NOMBRE":"Tunari"}},{"type":"Feature","id":15,"geometry":{"type":"Point","coordinates":[-66.392800000119848,-17.244699999805107]},"properties":{"OBJECTID":15,"Código":"CB-P-028","Municipio":"Quillacollo","Nom_Presa":"Tawa Cruz Antiguo","Uso":"Riego","Tipo_Presa":"Tierra","Estado":"Funciona","Volumen_m3":" ","AreaCuenca":"0,27_Km2","Alt_Presa":"2,41_m","LongCorona":"67,50_m","CapEmbalse":"30.000_m3","CuencaInfl":"Rio Chocaya","Rio_Presa":"Jankho Khala","AP_NOMBRE":"Tunari"}},{"type":"Feature","id":16,"geometry":{"type":"Point","coordinates":[-66.39329999979509,-17.245299999595261]},"properties":{"OBJECTID":16,"Código":"CB-P-029","Municipio":"Quillacollo","Nom_Presa":"Tawa Cruz Nuevo","Uso":"Riego","Tipo_Presa":"Tierra","Estado":"Funciona","Volumen_m3":" ","AreaCuenca":"0,02_Km2","Alt_Presa":"5,80_m","LongCorona":"56,00_m","CapEmbalse":"20.000_m3","CuencaInfl":"Rio Chocaya","Rio_Presa":"Janko Khala","AP_NOMBRE":"Tunari"}},{"type":"Feature","id":17,"geometry":{"type":"Point","coordinates":[-66.381900000184828,-17.240799999820069]},"properties":{"OBJECTID":17,"Código":"CB-P-030","Municipio":"Quillacollo","Nom_Presa":"Yanagallito","Uso":"Riego","Tipo_Presa":"Tierra","Estado":"Funciona","Volumen_m3":" ","AreaCuenca":"0,05_Km2","Alt_Presa":"3,44_m","LongCorona":"40,50_m","CapEmbalse":"35.000_m3","CuencaInfl":"Rio Chocaya","Rio_Presa":"Janko Khala","AP_NOMBRE":"Tunari"}},{"type":"Feature","id":18,"geometry":{"type":"Point","coordinates":[-66.256800000319743,-17.231600000039919]},"properties":{"OBJECTID":18,"Código":"CB-P-031","Municipio":"Quillacollo","Nom_Presa":"Chijchi Qhocha","Uso":"Riego","Tipo_Presa":"Tierra","Estado":"Funciona","Volumen_m3":" ","AreaCuenca":"0,22_km2","Alt_Presa":"3,70_m","LongCorona":"25,00_m","CapEmbalse":"100.000_m3","CuencaInfl":"Rio Titiri","Rio_Presa":"Siquiri","AP_NOMBRE":"Tunari"}},{"type":"Feature","id":19,"geometry":{"type":"Point","coordinates":[-66.254799999820079,-17.235800000369693]},"properties":{"OBJECTID":19,"Código":"CB-P-032","Municipio":"Quillacollo","Nom_Presa":"Kehueña","Uso":"Riego","Tipo_Presa":"Gravedad","Estado":"Funciona","Volumen_m3":" ","AreaCuenca":"1,29_Km2","Alt_Presa":"4,80_m","LongCorona":"52,50_m","CapEmbalse":"200.000_m3","CuencaInfl":"Rio Titiri","Rio_Presa":"Siquiri","AP_NOMBRE":"Tunari"}},{"type":"Feature","id":20,"geometry":{"type":"Point","coordinates":[-66.250600000389682,-17.249999999600277]},"properties":{"OBJECTID":20,"Código":"CB-P-033","Municipio":"Quillacollo","Nom_Presa":"Paso Apacheta","Uso":"Riego","Tipo_Presa":"Tierra","Estado":"Funciona","Volumen_m3":" ","AreaCuenca":"0,65_Km2","Alt_Presa":"3,00_m","LongCorona":"50,00_m","CapEmbalse":"123.000_m3","CuencaInfl":"Rio Titiri","Rio_Presa":"Siquiri","AP_NOMBRE":"Tunari"}},{"type":"Feature","id":21,"geometry":{"type":"Point","coordinates":[-65.985800000069901,-17.313599999840051]},"properties":{"OBJECTID":21,"Código":"CB-G-042","Municipio":"Sacaba 1","Nom_Presa":"Achocalla","Uso":"Riego","Tipo_Presa":"Tierra","Estado":"F/Problemas","Volumen_m3":" ","AreaCuenca":"3,80_Km2","Alt_Presa":"15,80_m","LongCorona":"195,83_m","CapEmbalse":"3.550.000_m3","CuencaInfl":"Rio Rocha","Rio_Presa":"Achocalla Mayu","AP_NOMBRE":"Tunari"}},{"type":"Feature","id":22,"geometry":{"type":"Point","coordinates":[-65.96999999990004,-17.320300000344673]},"properties":{"OBJECTID":22,"Código":"CB-P-043","Municipio":"Sacaba 1","Nom_Presa":"Chiri Cueva","Uso":"Riego","Tipo_Presa":"Tierra","Estado":"F/Problemas","Volumen_m3":" ","AreaCuenca":"0,63_Km2","Alt_Presa":"2,50_m","LongCorona":"95,00_m","CapEmbalse":"390.000_m3","CuencaInfl":"Rio Rocha","Rio_Presa":"S/N","AP_NOMBRE":"Tunari"}},{"type":"Feature","id":23,"geometry":{"type":"Point","coordinates":[-65.96000000009991,-17.320800000019915]},"properties":{"OBJECTID":23,"Código":"CB-P-044","Municipio":"Sacaba 1","Nom_Presa":"Kara Khota","Uso":"Riego","Tipo_Presa":"Gravedad","Estado":"F/Problemas","Volumen_m3":" ","AreaCuenca":"0,30_Km2","Alt_Presa":"2,50_m","LongCorona":"126_m","CapEmbalse":"325.000_m3","CuencaInfl":"Rio Rocha","Rio_Presa":"S/N","AP_NOMBRE":"Tunari"}},{"type":"Feature","id":24,"geometry":{"type":"Point","coordinates":[-65.998600000389672,-17.346900000334699]},"properties":{"OBJECTID":24,"Código":"CB-P-045","Municipio":"Sacaba 1","Nom_Presa":"Koncho Laguna","Uso":"Riego","Tipo_Presa":"Tierra","Estado":"Funciona","Volumen_m3":" ","AreaCuenca":"2,30_Km2","Alt_Presa":"6,50_m","LongCorona":"42,00_m","CapEmbalse":"341.000_m3","CuencaInfl":"Rio Rocha","Rio_Presa":"S/N","AP_NOMBRE":"Tunari"}},{"type":"Feature","id":25,"geometry":{"type":"Point","coordinates":[-66.01640000015982,-17.346100000314721]},"properties":{"OBJECTID":25,"Código":"CB-G-046","Municipio":"Sacaba 1","Nom_Presa":"Larati","Uso":"Riego","Tipo_Presa":"Gravedad","Estado":"F/Problemas","Volumen_m3":" ","AreaCuenca":"10,12_Km2","Alt_Presa":"4,00_m","LongCorona":"70,00_m","CapEmbalse":"4.500.000_m3","CuencaInfl":"Rio Rocha","Rio_Presa":"Pajcha Mayu","AP_NOMBRE":"Tunari"}},{"type":"Feature","id":26,"geometry":{"type":"Point","coordinates":[-65.971900000284734,-17.309200000179828]},"properties":{"OBJECTID":26,"Código":"CB-P-047","Municipio":"Sacaba 1","Nom_Presa":"Pujru Qhocha","Uso":"Riego","Tipo_Presa":"Tierra","Estado":"F/Problemas","Volumen_m3":" ","AreaCuenca":"0,52_Km2","Alt_Presa":"3,50_m","LongCorona":"50,00_m","CapEmbalse":"71.000_m3","CuencaInfl":"Rio Rocha","Rio_Presa":"S/N","AP_NOMBRE":"Tunari"}},{"type":"Feature","id":27,"geometry":{"type":"Point","coordinates":[-65.969699999555303,-17.31499999965024]},"properties":{"OBJECTID":27,"Código":"CB-P-048","Municipio":"Sacaba 1","Nom_Presa":"Runtu Qhocha","Uso":"Riego","Tipo_Presa":"Tierra","Estado":"Funciona","Volumen_m3":" ","AreaCuenca":"1,03_Km2","Alt_Presa":"6,70_m","LongCorona":"147,25_m","CapEmbalse":"340.000_m3","CuencaInfl":"Rio Rocha","Rio_Presa":"S/N","AP_NOMBRE":"Tunari"}},{"type":"Feature","id":28,"geometry":{"type":"Point","coordinates":[-66.024400000359662,-17.305799999870032]},"properties":{"OBJECTID":28,"Código":"CB-P-049","Municipio":"Sacaba 1","Nom_Presa":"Thimpuj","Uso":"Riego","Tipo_Presa":"Gravedad","Estado":"Funciona","Volumen_m3":" ","AreaCuenca":"1,56_Km2","Alt_Presa":"2,50_m","LongCorona":"25,00_m","CapEmbalse":"50.000_m3","CuencaInfl":"Rio Rocha","Rio_Presa":"S/N","AP_NOMBRE":"Tunari"}},{"type":"Feature","id":29,"geometry":{"type":"Point","coordinates":[-65.990000000399675,-17.281100000264757]},"properties":{"OBJECTID":29,"Código":"CB-P-050","Municipio":"Sacaba 1","Nom_Presa":"Atoj Huachana","Uso":"Riego","Tipo_Presa":"Tierra","Estado":"F/Problemas","Volumen_m3":" ","AreaCuenca":"0,70_Km2","Alt_Presa":"4,60_m","LongCorona":"103,30_m","CapEmbalse":"90.000_m3","CuencaInfl":"Rio Rocha","Rio_Presa":"S/N","AP_NOMBRE":"Tunari"}},{"type":"Feature","id":30,"geometry":{"type":"Point","coordinates":[-66.016699999605237,-17.286700000404664]},"properties":{"OBJECTID":30,"Código":"CB-M-051","Municipio":"Sacaba 1","Nom_Presa":"Huallatani","Uso":"Riego","Tipo_Presa":"Gravedad","Estado":"F/Problemas","Volumen_m3":" ","AreaCuenca":"3,50_Km2","Alt_Presa":"3,10_m","LongCorona":"35,00_m","CapEmbalse":"620.000_m3","CuencaInfl":"Rio Rocha","Rio_Presa":"S/N","AP_NOMBRE":"Tunari"}},{"type":"Feature","id":31,"geometry":{"type":"Point","coordinates":[-66.025000000149873,-17.262799999919991]},"properties":{"OBJECTID":31,"Código":"CB-P-052","Municipio":"Sacaba 1","Nom_Presa":"Laguna Thinki","Uso":"Riego","Tipo_Presa":"Tierra","Estado":"F/Problemas","Volumen_m3":" ","AreaCuenca":"0,90_Km2","Alt_Presa":"2,30_m","LongCorona":"25,00_m","CapEmbalse":"60.000_m3","CuencaInfl":"Rio Rocha","Rio_Presa":"S/N","AP_NOMBRE":"Tunari"}},{"type":"Feature","id":32,"geometry":{"type":"Point","coordinates":[-66.026399999960006,-17.267199999580271]},"properties":{"OBJECTID":32,"Código":"CB-P-053","Municipio":"Sacaba 1","Nom_Presa":"Laguna Thinki 2","Uso":"Riego","Tipo_Presa":"Tierra","Estado":"F/Problemas","Volumen_m3":" ","AreaCuenca":"0,88_Km2","Alt_Presa":"2,50_m","LongCorona":"50_m","CapEmbalse":"80.000_m3","CuencaInfl":"Rio Rocha","Rio_Presa":"S/N","AP_NOMBRE":"Tunari"}},{"type":"Feature","id":33,"geometry":{"type":"Point","coordinates":[-66.025599999940027,-17.26889999973514]},"properties":{"OBJECTID":33,"Código":"CB-P-054","Municipio":"Sacaba 1","Nom_Presa":"Laguna Thinki 3","Uso":"Riego","Tipo_Presa":"Tierra","Estado":"F/Problemas","Volumen_m3":" ","AreaCuenca":"0,50_Km2","Alt_Presa":"1,65_m","LongCorona":"5,00_m","CapEmbalse":"40.000_m3","CuencaInfl":"Rio Rocha","Rio_Presa":"S/N","AP_NOMBRE":"Tunari"}},{"type":"Feature","id":34,"geometry":{"type":"Point","coordinates":[-66.013599999640235,-17.273100000064915]},"properties":{"OBJECTID":34,"Código":"CB-P-055","Municipio":"Sacaba 1","Nom_Presa":"Mosoj Laguna","Uso":"Riego","Tipo_Presa":"Gravedad","Estado":"F/Problemas","Volumen_m3":" ","AreaCuenca":"3,51_Km2","Alt_Presa":"3,00_m","LongCorona":"11,00_m","CapEmbalse":"225.000_m3","CuencaInfl":"Rio Rocha","Rio_Presa":"S/N","AP_NOMBRE":"Tunari"}},{"type":"Feature","id":35,"geometry":{"type":"Point","coordinates":[-66.000000000199805,-17.261400000109859]},"properties":{"OBJECTID":35,"Código":"CB-P-056","Municipio":"Sacaba 1","Nom_Presa":"N N 1","Uso":"Riego","Tipo_Presa":"Tierra","Estado":"F/Problemas","Volumen_m3":" ","AreaCuenca":"2,31_Km2","Alt_Presa":"2,00_m","LongCorona":"31,00_m","CapEmbalse":"65.000_m3","CuencaInfl":"Rio Rocha","Rio_Presa":"S/N","AP_NOMBRE":"Tunari"}},{"type":"Feature","id":36,"geometry":{"type":"Point","coordinates":[-65.999200000179826,-17.264199999730181]},"properties":{"OBJECTID":36,"Código":"CB-P-057","Municipio":"Sacaba 1","Nom_Presa":"N N 2","Uso":"Riego","Tipo_Presa":"Tierra","Estado":"F/Problemas","Volumen_m3":" ","AreaCuenca":"2,31_Km2","Alt_Presa":"1,20_m","LongCorona":"10,00_m","CapEmbalse":"65.000_m3","CuencaInfl":"Rio Rocha","Rio_Presa":"S/N","AP_NOMBRE":"Tunari"}},{"type":"Feature","id":37,"geometry":{"type":"Point","coordinates":[-66.036100000314718,-17.272199999930024]},"properties":{"OBJECTID":37,"Código":"CB-P-058","Municipio":"Sacaba 1","Nom_Presa":"Ovejeria","Uso":"Riego","Tipo_Presa":"Tierra","Estado":"F/Problemas","Volumen_m3":" ","AreaCuenca":"3,28_Km2","Alt_Presa":"2,30_m","LongCorona":"25,00_m","CapEmbalse":"134.000_m3","CuencaInfl":"Rio Rocha","Rio_Presa":"S/N","AP_NOMBRE":"Tunari"}},{"type":"Feature","id":38,"geometry":{"type":"Point","coordinates":[-66.038300000144829,-17.265300000094896]},"properties":{"OBJECTID":38,"Código":"CB-P-059","Municipio":"Sacaba 1","Nom_Presa":"Pajcha","Uso":"Riego","Tipo_Presa":"Tierra","Estado":"F/Problemas","Volumen_m3":" ","AreaCuenca":"1,84_Km2","Alt_Presa":"4,00_m","LongCorona":"15,00_m","CapEmbalse":"279.000_m3","CuencaInfl":"Rio Rocha","Rio_Presa":"S/N","AP_NOMBRE":"Tunari"}},{"type":"Feature","id":39,"geometry":{"type":"Point","coordinates":[-65.996399999660241,-17.260299999745143]},"properties":{"OBJECTID":39,"Código":"CB-P-060","Municipio":"Sacaba 1","Nom_Presa":"Tabla Laguna","Uso":"Riego","Tipo_Presa":"Gravedad","Estado":"F/Problemas","Volumen_m3":" ","AreaCuenca":"1,38_Km2","Alt_Presa":"3,50_m","LongCorona":"310_m","CapEmbalse":"245.000_m3","CuencaInfl":"Rio Rocha","Rio_Presa":"S/N","AP_NOMBRE":"Tunari"}},{"type":"Feature","id":40,"geometry":{"type":"Point","coordinates":[-66.09359999984008,-17.258899999935011]},"properties":{"OBJECTID":40,"Código":"CB-P-061","Municipio":"Sacaba 1","Nom_Presa":"Asna Ciénaga","Uso":"Riego","Tipo_Presa":"Rustica/Roca","Estado":"F/Problemas","Volumen_m3":" ","AreaCuenca":"0,08_Km2","Alt_Presa":"0,80_m","LongCorona":"8,80_m","CapEmbalse":"6.300_m3","CuencaInfl":"S/N","Rio_Presa":"Asna Cienega","AP_NOMBRE":"Tunari"}},{"type":"Feature","id":41,"geometry":{"type":"Point","coordinates":[-66.093100000164839,-17.297500000224773]},"properties":{"OBJECTID":41,"Código":"CB-P-062","Municipio":"Sacaba 1","Nom_Presa":"Chaki Laguna","Uso":"Riego","Tipo_Presa":"Tierra","Estado":"F/Problemas","Volumen_m3":" ","AreaCuenca":"0,10_Km2","Alt_Presa":"3,90_m","LongCorona":"53,00_m","CapEmbalse":"24.300_m3","CuencaInfl":"S/N","Rio_Presa":"Chunkara","AP_NOMBRE":"Tunari"}},{"type":"Feature","id":42,"geometry":{"type":"Point","coordinates":[-66.128400000259774,-17.258200000029944]},"properties":{"OBJECTID":42,"Código":"CB-P-063","Municipio":"Sacaba 1","Nom_Presa":"Laguna Chojna Khota","Uso":"Riego","Tipo_Presa":"Tierra","Estado":"F/Problemas","Volumen_m3":" ","AreaCuenca":"1,30_Km2","Alt_Presa":"1,30_m","LongCorona":"12,30_m","CapEmbalse":"115.500_m3","CuencaInfl":"S/N","Rio_Presa":"Gamboa","AP_NOMBRE":"Tunari"}},{"type":"Feature","id":43,"geometry":{"type":"Point","coordinates":[-66.096799999919995,-17.299499999825059]},"properties":{"OBJECTID":43,"Código":"CB-P-064","Municipio":"Sacaba 1","Nom_Presa":"Chunkara","Uso":"Riego","Tipo_Presa":"Gravedad","Estado":"F/Problemas","Volumen_m3":" ","AreaCuenca":"0,26_Km2","Alt_Presa":"3,10_m","LongCorona":"20,70_m","CapEmbalse":"94.600_m3","CuencaInfl":"S/N","Rio_Presa":"Gamboa","AP_NOMBRE":"Tunari"}},{"type":"Feature","id":44,"geometry":{"type":"Point","coordinates":[-66.062800000419656,-17.268600000289723]},"properties":{"OBJECTID":44,"Código":"CB-P-065","Municipio":"Sacaba 1","Nom_Presa":"Cóndor  Khakha","Uso":"Riego","Tipo_Presa":"Tierra","Estado":"F/Problemas","Volumen_m3":" ","AreaCuenca":"0,43_Km2","Alt_Presa":"2,50_m","LongCorona":"82,00_m","CapEmbalse":"41.750_m3","CuencaInfl":"S/N","Rio_Presa":"Cóndor Khakha","AP_NOMBRE":"Tunari"}},{"type":"Feature","id":45,"geometry":{"type":"Point","coordinates":[-66.106899999835093,-17.271700000254782]},"properties":{"OBJECTID":45,"Código":"CB-P-066","Municipio":"Sacaba 1","Nom_Presa":"El Toro","Uso":"Riego","Tipo_Presa":"Tierra","Estado":"F/Problemas","Volumen_m3":" ","AreaCuenca":"0,21_Km2","Alt_Presa":"0,85_m","LongCorona":"20,20_m","CapEmbalse":"16.350_m3","CuencaInfl":"S/N","Rio_Presa":"El Toro","AP_NOMBRE":"Tunari"}},{"type":"Feature","id":46,"geometry":{"type":"Point","coordinates":[-66.127500000124883,-17.269200000079877]},"properties":{"OBJECTID":46,"Código":"CB-P-067","Municipio":"Sacaba 1","Nom_Presa":"Jonkho","Uso":"Riego","Tipo_Presa":"Rustica","Estado":"F/Problemas","Volumen_m3":" ","AreaCuenca":"1,00_Km2","Alt_Presa":"1,90_m","LongCorona":"11_m","CapEmbalse":"23.500_m3","CuencaInfl":"S/N","Rio_Presa":"Jonkho","AP_NOMBRE":"Tunari"}},{"type":"Feature","id":47,"geometry":{"type":"Point","coordinates":[-66.112999999650242,-17.294599999590275]},"properties":{"OBJECTID":47,"Código":"CB-P-068","Municipio":"Sacaba 1","Nom_Presa":"Khomer Qhocha","Uso":"Riego","Tipo_Presa":"Tierra","Estado":"F/Problemas","Volumen_m3":" ","AreaCuenca":"0,52_Km2","Alt_Presa":"3,00_m","LongCorona":"76,70_m","CapEmbalse":"40.000_m3","CuencaInfl":"S/N","Rio_Presa":"Khomer Qhocha","AP_NOMBRE":"Tunari"}},{"type":"Feature","id":48,"geometry":{"type":"Point","coordinates":[-66.092799999820102,-17.299200000379642]},"properties":{"OBJECTID":48,"Código":"CB-P-069","Municipio":"Sacaba 1","Nom_Presa":"Laguna Thinki 4","Uso":"Riego","Tipo_Presa":"Tierra","Estado":"F/Problemas","Volumen_m3":" ","AreaCuenca":"0,31_Km2","Alt_Presa":"4,10_m","LongCorona":"140_m","CapEmbalse":"48.500_m3","CuencaInfl":"S/N","Rio_Presa":"Chuncara","AP_NOMBRE":"Tunari"}},{"type":"Feature","id":49,"geometry":{"type":"Point","coordinates":[-66.106099999815115,-17.28779999987006]},"properties":{"OBJECTID":49,"Código":"CB-P-070","Municipio":"Sacaba 1","Nom_Presa":"Mercedes","Uso":"Riego","Tipo_Presa":"Tierra","Estado":"F/Problemas","Volumen_m3":" ","AreaCuenca":"0,45_Km2","Alt_Presa":"3,00_m","LongCorona":"40,80_m","CapEmbalse":"211.500_m3","CuencaInfl":"S/N","Rio_Presa":"Mercedes","AP_NOMBRE":"Tunari"}},{"type":"Feature","id":50,"geometry":{"type":"Point","coordinates":[-66.068900000234805,-17.294699999705188]},"properties":{"OBJECTID":50,"Código":"CB-P-071","Municipio":"Sacaba 1","Nom_Presa":"Puka Laguna","Uso":"Riego","Tipo_Presa":"Tierra","Estado":"F/Problemas","Volumen_m3":" ","AreaCuenca":"0,98_Km2","Alt_Presa":"4,50_m","LongCorona":"43,00_m","CapEmbalse":"345.500_m3","CuencaInfl":"S/N","Rio_Presa":"Carcanita Mayu","AP_NOMBRE":"Tunari"}},{"type":"Feature","id":51,"geometry":{"type":"Point","coordinates":[-66.131999999900017,-17.270499999775097]},"properties":{"OBJECTID":51,"Código":"CB-P-072","Municipio":"Sacaba 1","Nom_Presa":"San Juan","Uso":"Riego","Tipo_Presa":"Gravedad","Estado":"F/Problemas","Volumen_m3":" ","AreaCuenca":"0,43_Km2","Alt_Presa":"7,70_m","LongCorona":"47,00_m","CapEmbalse":"421.000_m3","CuencaInfl":"S/N","Rio_Presa":"San Juan","AP_NOMBRE":"Tunari"}},{"type":"Feature","id":52,"geometry":{"type":"Point","coordinates":[-66.135500000324726,-17.268099999715162]},"properties":{"OBJECTID":52,"Código":"CB-P-073","Municipio":"Sacaba 1","Nom_Presa":"San Pablo","Uso":"Riego","Tipo_Presa":"Tierra","Estado":"F/Problemas","Volumen_m3":" ","AreaCuenca":"0,76_Km2","Alt_Presa":"8,30_m","LongCorona":"25,70_m","CapEmbalse":"171.000_m3","CuencaInfl":"S/N","Rio_Presa":"San Pablo","AP_NOMBRE":"Tunari"}},{"type":"Feature","id":53,"geometry":{"type":"Point","coordinates":[-66.078900000034935,-17.295599999840078]},"properties":{"OBJECTID":53,"Código":"CB-P-074","Municipio":"Sacaba 1","Nom_Presa":"Sapanani","Uso":"Riego","Tipo_Presa":"Gravedad","Estado":"F/Problemas","Volumen_m3":" ","AreaCuenca":"0,29_Km2","Alt_Presa":"12,00_m","LongCorona":"161_m","CapEmbalse":"249.000_m3","CuencaInfl":"Incachaca","Rio_Presa":"Hampaturi","AP_NOMBRE":"Tunari"}},{"type":"Feature","id":54,"geometry":{"type":"Point","coordinates":[-66.138199999830078,-17.255900000084864]},"properties":{"OBJECTID":54,"Código":"CB-P-075","Municipio":"Sacaba 1","Nom_Presa":"N N 3","Uso":"Riego","Tipo_Presa":"Rustica/Roca","Estado":"Funciona","Volumen_m3":" ","AreaCuenca":"0,33_Km2","Alt_Presa":"4,00_m","LongCorona":"28,80_m","CapEmbalse":"104.500_m3","CuencaInfl":"S/N","Rio_Presa":"S/N","AP_NOMBRE":"Tunari"}},{"type":"Feature","id":55,"geometry":{"type":"Point","coordinates":[-66.146099999915009,-17.271399999910045]},"properties":{"OBJECTID":55,"Código":"CB-P-076","Municipio":"Sacaba 1","Nom_Presa":"N N 4","Uso":"Riego","Tipo_Presa":"Tierra","Estado":"Funciona","Volumen_m3":" ","AreaCuenca":"0,38_Km2","Alt_Presa":"3,25_m","LongCorona":"12,40_m","CapEmbalse":"20.000_m3","CuencaInfl":"S/N","Rio_Presa":"S/N","AP_NOMBRE":"Tunari"}},{"type":"Feature","id":56,"geometry":{"type":"Point","coordinates":[-66.063300000094898,-17.296399999860057]},"properties":{"OBJECTID":56,"Código":"CB-P-077","Municipio":"Sacaba 1","Nom_Presa":"Yana Laguna","Uso":"Riego","Tipo_Presa":"Tierra","Estado":"F/Problemas","Volumen_m3":" ","AreaCuenca":"0,49_Km2","Alt_Presa":"5,30_m","LongCorona":"43,20_m","CapEmbalse":"165.000_m3","CuencaInfl":"S/N","Rio_Presa":"Carcanita Mayu","AP_NOMBRE":"Tunari"}},{"type":"Feature","id":57,"geometry":{"type":"Point","coordinates":[-66.124400000159824,-17.297899999785102]},"properties":{"OBJECTID":57,"Código":"CB-G-078","Municipio":"Sacaba 1","Nom_Presa":"Wara Wara","Uso":"Agua Potable","Tipo_Presa":"Tierra","Estado":"Funciona","Volumen_m3":" ","AreaCuenca":"4,08_Km2","Alt_Presa":"9,50_m","LongCorona":"98,40_m","CapEmbalse":"3.425.000_m3","CuencaInfl":"Rio Rocha","Rio_Presa":"S/N","AP_NOMBRE":"Tunari"}},{"type":"Feature","id":58,"geometry":{"type":"Point","coordinates":[-66.210799999620235,-17.241100000164806]},"properties":{"OBJECTID":58,"Código":"CB-G-085","Municipio":"Tiquipaya","Nom_Presa":"Chankas","Uso":"Riego","Tipo_Presa":"Tierra","Estado":"F/Problemas","Volumen_m3":" ","AreaCuenca":"4,45_Km2","Alt_Presa":"12_m","LongCorona":"216,50_m","CapEmbalse":"1.037.000_m3","CuencaInfl":"Rio Khora","Rio_Presa":"Qda. Jhochi Khuchu","AP_NOMBRE":"Tunari"}},{"type":"Feature","id":59,"geometry":{"type":"Point","coordinates":[-66.209199999580278,-17.185799999570293]},"properties":{"OBJECTID":59,"Código":"CB-G-086","Municipio":"Tiquipaya","Nom_Presa":"Escalerani","Uso":"Agua Potable","Tipo_Presa":"Tierra","Estado":"Funciona","Volumen_m3":" ","AreaCuenca":"6,87_Km2","Alt_Presa":"18_m","LongCorona":"184_m","CapEmbalse":"6.570.000_m3","CuencaInfl":"Caine","Rio_Presa":"S/N","AP_NOMBRE":"Tunari"}},{"type":"Feature","id":60,"geometry":{"type":"Point","coordinates":[-66.165000000049929,-17.266100000114875]},"properties":{"OBJECTID":60,"Código":"CB-G-087","Municipio":"Tiquipaya","Nom_Presa":"Laguna Mayu","Uso":"Riego","Tipo_Presa":"Gravedad","Estado":"F/Problemas","Volumen_m3":" ","AreaCuenca":"4,90_Km2","Alt_Presa":"7_m","LongCorona":"165_m","CapEmbalse":"2.500.000_m3","CuencaInfl":"Rio Tiquipaya","Rio_Presa":"Laguna Mayu","AP_NOMBRE":"Tunari"}},{"type":"Feature","id":61,"geometry":{"type":"Point","coordinates":[-66.205399999710153,-17.264399999960006]},"properties":{"OBJECTID":61,"Código":"CB-P-088","Municipio":"Tiquipaya","Nom_Presa":"Laguna Mesa","Uso":"Riego","Tipo_Presa":"Tierra","Estado":"Funciona","Volumen_m3":" ","AreaCuenca":"1,58_Km2","Alt_Presa":"3_m","LongCorona":"100_m","CapEmbalse":"20.000_m3","CuencaInfl":"Rio Rocha","Rio_Presa":"Laguna Mesa","AP_NOMBRE":"Tunari"}},{"type":"Feature","id":62,"geometry":{"type":"Point","coordinates":[-66.195600000139848,-17.24970000015486]},"properties":{"OBJECTID":62,"Código":"CB-P-089","Municipio":"Tiquipaya","Nom_Presa":"Laguna San Ignacio 2","Uso":"Riego","Tipo_Presa":"Gravedad","Estado":"F/Problemas","Volumen_m3":" ","AreaCuenca":"1,25_Km2","Alt_Presa":"3_m","LongCorona":"44,75_m","CapEmbalse":"200.000_m3","CuencaInfl":"Rio Titiri","Rio_Presa":"San Ignacio","AP_NOMBRE":"Tunari"}},{"type":"Feature","id":63,"geometry":{"type":"Point","coordinates":[-66.217799999570275,-17.271700000254782]},"properties":{"OBJECTID":63,"Código":"CB-P-090","Municipio":"Tiquipaya","Nom_Presa":"La Cumbre","Uso":"Agua Potable","Tipo_Presa":"Tierra","Estado":"Funciona","Volumen_m3":" ","AreaCuenca":"0_Km2","Alt_Presa":"6,70_m","LongCorona":"301_m","CapEmbalse":"150.000_m3","CuencaInfl":"Rio Titiri","Rio_Presa":"Quebrada Cruzani","AP_NOMBRE":"Tunari"}},{"type":"Feature","id":64,"geometry":{"type":"Point","coordinates":[-66.188099999615247,-17.209399999710172]},"properties":{"OBJECTID":64,"Código":"CB-G-091","Municipio":"Tiquipaya","Nom_Presa":"Saitu Qhocha Aguas Abajo","Uso":"Riego","Tipo_Presa":"Gravedad","Estado":"F/Problemas","Volumen_m3":" ","AreaCuenca":"3,83_Km2","Alt_Presa":"7_m","LongCorona":"238_m","CapEmbalse":"1.000.000_m3","CuencaInfl":"Rio Titiri","Rio_Presa":"Saitu Laguna","AP_NOMBRE":"Tunari"}},{"type":"Feature","id":65,"geometry":{"type":"Point","coordinates":[-66.202499999974975,-17.219699999855038]},"properties":{"OBJECTID":65,"Código":"CB-G-092","Municipio":"Tiquipaya","Nom_Presa":"Saitu Qhocha Aguas Arriba","Uso":"Riego","Tipo_Presa":"Tierra","Estado":"Funciona","Volumen_m3":" ","AreaCuenca":"3,83_Km2","Alt_Presa":"7_m","LongCorona":"155_m","CapEmbalse":"1.000.000_m3","CuencaInfl":"Rio Titiri","Rio_Presa":"Saitu Laguna","AP_NOMBRE":"Tunari"}},{"type":"Feature","id":66,"geometry":{"type":"Point","coordinates":[-65.70670000040468,-17.359400000309734]},"properties":{"OBJECTID":66,"Código":"CB-P-094","Municipio":"Tiraque","Nom_Presa":"Cruz Khocha","Uso":"Riego","Tipo_Presa":"Tierra","Estado":"F/Problemas","Volumen_m3":" ","AreaCuenca":"4,51_Km2","Alt_Presa":"5,80_m","LongCorona":"100_m","CapEmbalse":"100.000_m3","CuencaInfl":"Rio Pucara","Rio_Presa":"Llachoj Mayu","AP_NOMBRE":"Carrasco"}},{"type":"Feature","id":67,"geometry":{"type":"Point","coordinates":[-65.685600000439649,-17.348899999934986]},"properties":{"OBJECTID":67,"Código":"CB-G-095","Municipio":"Tiraque","Nom_Presa":"Kaspicancha","Uso":"Riego","Tipo_Presa":"Tierra","Estado":"S/D","Volumen_m3":" ","AreaCuenca":"7,60_Km2","Alt_Presa":"18,80_m","LongCorona":"192_m","CapEmbalse":"473.000_m3","CuencaInfl":"Rio Millu Mayu","Rio_Presa":"Yana Chankha","AP_NOMBRE":"Carrasco"}},{"type":"Feature","id":68,"geometry":{"type":"Point","coordinates":[-65.726900000234764,-17.344400000159851]},"properties":{"OBJECTID":68,"Código":"CB-G-096","Municipio":"Tiraque","Nom_Presa":"Murmuntani","Uso":"Riego","Tipo_Presa":"Tierra","Estado":"S/D","Volumen_m3":" ","AreaCuenca":"22,90_km2","Alt_Presa":"16_m","LongCorona":"300_m","CapEmbalse":"890.500_m3","CuencaInfl":"Rio Millu Mayu","Rio_Presa":"Yana Chankha","AP_NOMBRE":"Carrasco"}},{"type":"Feature","id":69,"geometry":{"type":"Point","coordinates":[-65.661699999954976,-17.384699999705163]},"properties":{"OBJECTID":69,"Código":"CB-G-097","Municipio":"Tiraque","Nom_Presa":"Pachaj Qhocha","Uso":"Riego","Tipo_Presa":"Tierra","Estado":"F/Problemas","Volumen_m3":" ","AreaCuenca":"4,88_Km2","Alt_Presa":"10_m","LongCorona":"192_m","CapEmbalse":"1.589.000_m3","CuencaInfl":"Rio Pucara","Rio_Presa":"Jatun Sallamani","AP_NOMBRE":"Carrasco"}},{"type":"Feature","id":70,"geometry":{"type":"Point","coordinates":[-65.645799999670203,-17.375600000039924]},"properties":{"OBJECTID":70,"Código":"CB-P-099","Municipio":"Tiraque","Nom_Presa":"Toro Wañuna","Uso":"Riego","Tipo_Presa":"Tierra","Estado":"Funciona","Volumen_m3":" ","AreaCuenca":"0,49_Km2","Alt_Presa":"3,70_m","LongCorona":"40_m","CapEmbalse":"46.500_m3","CuencaInfl":"Rio Ichilo","Rio_Presa":"Encañada","AP_NOMBRE":"Carrasco"}},{"type":"Feature","id":71,"geometry":{"type":"Point","coordinates":[-65.542499999675215,-17.447499999925014]},"properties":{"OBJECTID":71,"Código":"CB-P-100","Municipio":"Tiraque","Nom_Presa":"Cuenca A (khewiñal)","Uso":"Riego","Tipo_Presa":"Tierra","Estado":"Funciona","Volumen_m3":" ","AreaCuenca":"5,20_Km2","Alt_Presa":"9_m","LongCorona":"77_m","CapEmbalse":"127.000_m3","CuencaInfl":"Rio Chullcu Mayu","Rio_Presa":"Rio Infiernillo","AP_NOMBRE":"Carrasco"}},{"type":"Feature","id":72,"geometry":{"type":"Point","coordinates":[-65.603900000084877,-17.424200000129872]},"properties":{"OBJECTID":72,"Código":"CB-G-102","Municipio":"Tiraque","Nom_Presa":"Kewiña Qhocha","Uso":"Riego","Tipo_Presa":"Tierra","Estado":"F/Problemas","Volumen_m3":" ","AreaCuenca":"2,72_Km2","Alt_Presa":"17_m","LongCorona":"86_m","CapEmbalse":"2.000.000_m3","CuencaInfl":"Desconocido","Rio_Presa":"Lope Mendoza","AP_NOMBRE":"Carrasco"}},{"type":"Feature","id":73,"geometry":{"type":"Point","coordinates":[-65.613899999885064,-17.404999999650215]},"properties":{"OBJECTID":73,"Código":"CB-G-105","Municipio":"Tiraque","Nom_Presa":"Muyu Loma","Uso":"Riego","Tipo_Presa":"Tierra","Estado":"Funciona","Volumen_m3":" ","AreaCuenca":"1,72_Km2","Alt_Presa":"8_m","LongCorona":"285_m","CapEmbalse":"1.000.000_m3","CuencaInfl":"Rio Millu Mayu","Rio_Presa":"Talpasale","AP_NOMBRE":"Carrasco"}},{"type":"Feature","id":74,"geometry":{"type":"Point","coordinates":[-65.611399999710159,-17.411100000364684]},"properties":{"OBJECTID":74,"Código":"CB-P-107","Municipio":"Tiraque","Nom_Presa":"Totorayoj","Uso":"Riego","Tipo_Presa":"Tierra","Estado":"F/Problemas","Volumen_m3":" ","AreaCuenca":"0,75_Km2","Alt_Presa":"7_m","LongCorona":"135_m","CapEmbalse":"260.000_m3","CuencaInfl":"S/N","Rio_Presa":"S/N","AP_NOMBRE":"Carrasco"}},{"type":"Feature","id":75,"geometry":{"type":"Point","coordinates":[-65.567499999625227,-17.429399999810073]},"properties":{"OBJECTID":75,"Código":"CB-P-108","Municipio":"Tiraque","Nom_Presa":"Yana Qhocha","Uso":"Riego","Tipo_Presa":"Tierra","Estado":"Funciona","Volumen_m3":" ","AreaCuenca":"3,93_Km2","Alt_Presa":"4,70_m","LongCorona":"67_m","CapEmbalse":"300.000_m3","CuencaInfl":"Rio Millu Mayu","Rio_Presa":"Talpasale","AP_NOMBRE":"Carrasco"}},{"type":"Feature","id":76,"geometry":{"type":"Point","coordinates":[-65.19390000018484,-17.581400000009921]},"properties":{"OBJECTID":76,"Código":"CB-G-111","Municipio":"Totora","Nom_Presa":"Chaupiloma","Uso":"Riego","Tipo_Presa":"Tierra","Estado":"Funciona","Volumen_m3":" ","AreaCuenca":"13,20_Km2","Alt_Presa":"8_m","LongCorona":"86_m","CapEmbalse":"3.540.000_m3","CuencaInfl":"Rio Sehuencas","Rio_Presa":"Cueva Mayu","AP_NOMBRE":"Carrasco"}},{"type":"Feature","id":77,"geometry":{"type":"Point","coordinates":[-65.205600000139839,-17.567500000224811]},"properties":{"OBJECTID":77,"Código":"CB-G-113","Municipio":"Totora","Nom_Presa":"Lahuachama","Uso":"Riego","Tipo_Presa":"Tierra","Estado":"Funciona","Volumen_m3":" ","AreaCuenca":"13,24_Km2","Alt_Presa":"24_m","LongCorona":"209,90_m","CapEmbalse":"3.540.000_m3","CuencaInfl":"Rio Sehuencas","Rio_Presa":"Cueva Mayu","AP_NOMBRE":"Carrasco"}},{"type":"Feature","id":78,"geometry":{"type":"Point","coordinates":[-66.346700000204805,-17.296900000434619]},"properties":{"OBJECTID":78,"Código":"CB-P-115","Municipio":"Vinto","Nom_Presa":"Falsuri","Uso":"Riego","Tipo_Presa":"Gravedad","Estado":"F/Problemas","Volumen_m3":" ","AreaCuenca":"1,30_Km2","Alt_Presa":"4,20_m","LongCorona":"57_m","CapEmbalse":"31.000_m3","CuencaInfl":"Tamborada","Rio_Presa":"Khollpa Mayu","AP_NOMBRE":"Tunari"}}]}