{
  "type" : "FeatureCollection",
  "features" : [{"type":"Feature","id":0,"geometry":{"type":"Polygon","coordinates":[[[-61.466046771999977,-17.906005410999967],[-61.481309538999938,-17.902189718999974],[-61.490303431999962,-17.899457765999959],[-61.491909625999938,-17.896670337999971],[-61.492772865999939,-17.893854076999958],[-61.49672782499993,-17.888307861999976],[-61.501515431999962,-17.88065637699998],[-61.507015372999952,-17.87374462899993],[-61.51171210699993,-17.868226477999936],[-61.514180132999975,-17.862622099999957],[-61.514479476999952,-17.855509044999966],[-61.519235129999977,-17.848567817999935],[-61.52229577099996,-17.846548361999968],[-61.526158811999949,-17.843134779999954],[-61.527823378999976,-17.838923994999956],[-61.531596654999987,-17.837644207999976],[-61.534418452999944,-17.841315152999979],[-61.534982249999985,-17.845611757999961],[-61.534713737999937,-17.85201381499996],[-61.534385404999959,-17.859838541999974],[-61.533254302999971,-17.869057321999946],[-61.529181248999969,-17.877450188999948],[-61.529774588999949,-17.881035471999951],[-61.530961252999994,-17.888206058999966],[-61.533070392999953,-17.891137325999981],[-61.53666551799995,-17.894125870999979],[-61.540320567999977,-17.895691702999954],[-61.546858051999948,-17.899505982999926],[-61.546768413999985,-17.90164004899998],[-61.547152786999959,-17.910204928999974],[-61.549202597999965,-17.914558928999956],[-61.558000101999937,-17.917747643999974],[-61.559038255999944,-17.928475433999949],[-61.555826503999981,-17.934051946999944],[-61.551991022999978,-17.93675424099996],[-61.547322419999936,-17.941561812999968],[-61.547172649999936,-17.945118578999942],[-61.549965743999955,-17.949501395999963],[-61.553681851999954,-17.949644709999973],[-61.568537598999974,-17.951909193999938],[-61.578089567999939,-17.946041729999937],[-61.580741039999971,-17.941987025999936],[-61.583132354999982,-17.936734668999975],[-61.587059413999953,-17.931838035999927],[-61.591865644999984,-17.928162549999964],[-61.596213392999971,-17.928032184999946],[-61.602679375999962,-17.929170406999962],[-61.607237947999984,-17.931423150999937],[-61.611548806999963,-17.932181786999934],[-61.618324929999972,-17.933331408999951],[-61.622041280999959,-17.933473290999931],[-61.628185918999975,-17.934895413999985],[-61.637751421999944,-17.943573981999979],[-61.637504770999946,-17.949503146999973],[-61.63587092399996,-17.95894253899996],[-61.636863032999941,-17.964918940999951],[-61.627645637999926,-17.977631716999959],[-61.628389761999983,-17.989537113999969],[-61.633049601999971,-17.996841480999933],[-61.638850094999952,-18.006564888999943],[-61.641328795999982,-18.00665959499997],[-61.648666113999987,-18.009315235999967],[-61.654714909999946,-18.013109275999966],[-61.65431949799995,-18.022596232999945],[-61.654022777999955,-18.029711439999975],[-61.659676686999951,-18.042992653999928],[-61.673366034999965,-18.057361191999977],[-61.679725521999963,-18.062448780999947],[-61.688628802999972,-18.06244878099994],[-61.702619672999951,-18.061176883999963],[-61.719154337999953,-18.064992575999952],[-61.728057619999952,-18.070080164999975],[-61.734417105999974,-18.084071035999951],[-61.738232797999956,-18.090430521999963],[-61.74840797699995,-18.096790008999964],[-61.762398846999986,-18.100605700999949],[-61.768758333999983,-18.104421392999935],[-61.776389717999962,-18.113324673999955],[-61.787836793999986,-18.114596570999939],[-61.790380587999941,-18.123499851999956],[-61.796740074999938,-18.131131235999927],[-61.806915253999932,-18.134946927999977],[-61.814546637999968,-18.137490722999924],[-61.823449918999984,-18.142578311999952],[-61.839984583999971,-18.148937798999953],[-61.855247351999942,-18.148937798999945],[-61.873053913999975,-18.160384874999977],[-61.875597708999976,-18.174375744999971],[-61.881957195999973,-18.179463334999983],[-61.888316681999981,-18.187094718999958],[-61.892132373999971,-18.197269896999963],[-61.890860476999933,-18.213804561999947],[-61.888316681999981,-18.227795432999926],[-61.88577288799997,-18.241786302999966],[-61.88577288799997,-18.254505276999957],[-61.890860476999933,-18.265952351999946],[-61.892132373999971,-18.28121511999996],[-61.892132373999971,-18.287574606999954],[-61.889588579999952,-18.293934092999965],[-61.88577288799997,-18.299021682999975],[-61.880685297999946,-18.309196860999975],[-61.88577288799997,-18.323187731999955],[-61.892132373999971,-18.333362909999948],[-61.899763757999949,-18.339722396999949],[-61.912482730999955,-18.34099429399993],[-61.917570320999971,-18.353713267999979],[-61.931561190999957,-18.363888445999972],[-61.941736369999937,-18.374063624999966],[-61.951911547999941,-18.381695008999944],[-61.960814828999965,-18.390598289999961],[-61.969718110999963,-18.390598289999961],[-61.978621391999987,-18.393142084999965],[-61.988796570999966,-18.393142084999969],[-61.99769985199999,-18.396957775999955],[-62.005331235999961,-18.403317262999959],[-62.01423451699997,-18.413492441999949],[-62.021865900999948,-18.424939517999974],[-62.029497284999927,-18.430027106999937],[-62.037128668999969,-18.440202284999941],[-62.046031949999978,-18.445289874999961],[-62.054935230999952,-18.452921258999936],[-62.06256661499998,-18.459280744999944],[-62.068926101999978,-18.465640231999942],[-62.077829382999937,-18.469455923999924],[-62.089276458999962,-18.470727820999965],[-62.107083020999937,-18.474543512999965],[-62.118530096999962,-18.480902999999952],[-62.12743337899996,-18.496165767999969],[-62.132520967999938,-18.50761284299994],[-62.133792864999968,-18.519059918999975],[-62.143968043999962,-18.529235097999962],[-62.147783735999944,-18.539410275999959],[-62.156687016999967,-18.54195407099996],[-62.164318400999946,-18.547041659999937],[-62.173221681999969,-18.555944941999943],[-62.182124962999978,-18.55594494199994],[-62.192300141999972,-18.553401146999942],[-62.201203422999981,-18.554673043999973],[-62.206291011999951,-18.561032530999963],[-62.212650498999949,-18.57120770899996],[-62.216466190999931,-18.581382887999951],[-62.220281882999977,-18.589014271999929],[-62.227913266999956,-18.599189450999972],[-62.233000855999933,-18.615724115999967],[-62.241904136999956,-18.620811704999937],[-62.246991726999958,-18.628443088999976],[-62.250807418999955,-18.637346369999932],[-62.254623110999937,-18.647521548999979],[-62.259710699999978,-18.661512418999965],[-62.260982596999959,-18.669143802999947],[-62.259710699999978,-18.67804708399996],[-62.254623110999937,-18.681862775999949],[-62.245719828999938,-18.685678467999939],[-62.244447931999957,-18.692037954999932],[-62.249535520999984,-18.699669338999971],[-62.253351212999981,-18.711116414999939],[-62.248263623999954,-18.714932106999981],[-62.236816547999979,-18.713660208999954],[-62.227913266999956,-18.712388311999973],[-62.229185163999936,-18.716204003999959],[-62.233000855999933,-18.722563490999956],[-62.240632239999961,-18.726379182999946],[-62.246991726999958,-18.739098155999955],[-62.253351212999981,-18.745457641999959],[-62.253351212999981,-18.754360923999965],[-62.259710699999978,-18.764536101999965],[-62.271157775999939,-18.770895588999959],[-62.281332953999936,-18.778526972999941],[-62.286420543999959,-18.788702150999939],[-62.286420543999959,-18.800149226999967],[-62.283876748999944,-18.806508713999964],[-62.285148645999982,-18.812868199999965],[-62.29278002999996,-18.823043378999955],[-62.302955208999947,-18.823043378999952],[-62.311858489999963,-18.823043378999952],[-62.325849360999939,-18.829402865999949],[-62.337296435999974,-18.83449045499998],[-62.344927819999953,-18.837034249999935],[-62.352559203999995,-18.843393735999936],[-62.36146248599993,-18.84466563299998],[-62.366550074999971,-18.84466563299998],[-62.364006279999955,-18.849753222999936],[-62.360190587999973,-18.854840811999964],[-62.358918690999992,-18.859928400999934],[-62.36146248599993,-18.867559784999965],[-62.365278177999976,-18.871375476999958],[-62.372909560999979,-18.872647374999929],[-62.38054094499995,-18.871375476999955],[-62.386900431999955,-18.86501599099995],[-62.391988020999975,-18.857384606999972],[-62.40089130299998,-18.853568914999979],[-62.407250788999932,-18.854840811999964],[-62.413610275999986,-18.861200298999961],[-62.417425967999975,-18.870103579999981],[-62.425057351999953,-18.881550655999948],[-62.431416837999961,-18.887910141999946],[-62.445407708999937,-18.895541525999928],[-62.460670476999944,-18.895541525999928],[-62.470845654999948,-18.895541525999931],[-62.475933243999975,-18.892997731999973],[-62.482292730999973,-18.890453936999958],[-62.486108422999969,-18.894269628999947],[-62.484836525999988,-18.89808532099994],[-62.482292730999973,-18.900629115999955],[-62.483564627999954,-18.906988601999959],[-62.48865221799997,-18.905716704999971],[-62.492467909999966,-18.901901012999932],[-62.497555498999994,-18.903172909999963],[-62.510274471999928,-18.906988601999956],[-62.520449650999979,-18.90953239699996],[-62.52808103499995,-18.920979472999932],[-62.533168623999977,-18.929882753999951],[-62.529352931999931,-18.938786034999957],[-62.531896726999946,-18.951505007999966],[-62.538256212999954,-18.954048802999981],[-62.544615699999952,-18.954048802999978],[-62.548431391999934,-18.948961213999951],[-62.554790877999956,-18.945145521999965],[-62.559878467999958,-18.947689315999984],[-62.556062775999976,-18.95150500799997],[-62.556062775999976,-18.960408289999975],[-62.556062775999976,-18.973127262999977],[-62.556062775999976,-18.98203054399994],[-62.554790877999956,-18.99093382499996],[-62.554790877999956,-19.002380900999981],[-62.549703288999979,-19.00619659299997],[-62.545887596999933,-19.011284182999933],[-62.549703288999979,-19.016371771999957],[-62.557334672999957,-19.020187463999942],[-62.558606569999938,-19.034178333999932],[-62.547159493999978,-19.036722128999944],[-62.547159493999978,-19.051984896999958],[-62.547159493999978,-19.064703869999956],[-62.545887596999933,-19.074879048999946],[-62.543343801999981,-19.082510431999932],[-62.540800007999955,-19.097773199999946],[-62.540800007999955,-19.111764070999978],[-62.538256212999954,-19.116851659999952],[-62.531896726999946,-19.123211146999953],[-62.51790585599997,-19.125754940999968],[-62.511546368999973,-19.135930119999959],[-62.506458779999946,-19.146105298999938],[-62.505186882999965,-19.156280476999946],[-62.511546368999973,-19.166455655999986],[-62.510274471999928,-19.189349806999928],[-62.506458779999946,-19.195709293999986],[-62.497555498999994,-19.204612574999938],[-62.495011703999978,-19.218603445999982],[-62.495011703999978,-19.23132241899998],[-62.495011703999978,-19.247857083999971],[-62.497555498999994,-19.251672775999957],[-62.50264308799995,-19.259304159999942],[-62.510274471999928,-19.26439174899998],[-62.514090163999974,-19.272023132999951],[-62.51790585599997,-19.280926414999957],[-62.524265342999968,-19.302548668999972],[-62.52808103499995,-19.308908155999973],[-62.533168623999977,-19.311451949999935],[-62.536984315999973,-19.30509246399993],[-62.542071904999936,-19.300004873999967],[-62.549703288999979,-19.30127677199993],[-62.553518980999975,-19.311451949999931],[-62.559878467999958,-19.324170922999947],[-62.563694159999955,-19.345793177999955],[-62.561150364999953,-19.378862507999937],[-62.559878467999958,-19.395397172999939],[-62.564966056999936,-19.418291324999924],[-62.562422261999984,-19.443729271999928],[-62.561150364999953,-19.458992039999945],[-62.558606569999938,-19.472982909999931],[-62.557334672999957,-19.493333266999972],[-62.561150364999953,-19.52004311099995],[-62.561150364999953,-19.541665364999975],[-62.557334672999957,-19.558200030999963],[-62.557334672999957,-19.564559516999964],[-62.557334672999957,-19.573462797999987],[-62.561150364999953,-19.582366079999929],[-62.564966056999936,-19.58872556599994],[-62.568781748999982,-19.607804025999943],[-62.575141235999979,-19.610347820999952],[-62.586588310999957,-19.614163512999934],[-62.590404002999946,-19.629426280999951],[-62.595491592999963,-19.639601458999948],[-62.601851078999964,-19.644689047999975],[-62.609482462999942,-19.651048534999973],[-62.619657641999936,-19.65613612399995],[-62.629832819999926,-19.661223713999959],[-62.636192306999988,-19.668855096999945],[-62.637464203999969,-19.68666165999997],[-62.641279895999951,-19.707012016999954],[-62.645095587999947,-19.717187195999934],[-62.652726971999975,-19.732449963999954],[-62.666717842999951,-19.750256525999937],[-62.675621123999974,-19.760431704999977],[-62.692155788999976,-19.764247396999966],[-62.701059069999985,-19.77442257499996],[-62.707418556999983,-19.784597753999954],[-62.711234248999972,-19.803676212999971],[-62.71759373499998,-19.816395186999962],[-62.71886563299995,-19.82784226299998],[-62.727768913999959,-19.83292985199995],[-62.737944092999953,-19.836745543999942],[-62.741759784999935,-19.845648824999952],[-62.757022551999967,-19.852008311999949],[-62.764653935999945,-19.858367797999964],[-62.773557217999958,-19.865999181999946],[-62.782460498999967,-19.869814873999928],[-62.793907574999942,-19.87235866899994],[-62.802810855999951,-19.872358668999933],[-62.811714136999967,-19.878718154999948],[-62.816801726999991,-19.885077641999949],[-62.820617417999976,-19.891437128999939],[-62.828248801999955,-19.892709025999974],[-62.838423980999949,-19.892709025999977],[-62.847327261999958,-19.892709025999974],[-62.856230542999981,-19.893980922999955],[-62.860046234999977,-19.90161230699994],[-62.863861926999959,-19.905427998999983],[-62.867677618999956,-19.901612306999933],[-62.872765208999958,-19.896524717999959],[-62.881668489999981,-19.895252820999925],[-62.890571770999941,-19.90161230699994],[-62.895659359999968,-19.904156101999945],[-62.895659359999968,-19.915603177999966],[-62.905834538999954,-19.918146971999935],[-62.909650230999944,-19.92069076699994],[-62.916009717999941,-19.92577835599997],[-62.926184895999938,-19.928322150999975],[-62.940175766999964,-19.937225431999931],[-62.949079047999987,-19.94104112399998],[-62.961798020999943,-19.947400610999981],[-62.975788891999969,-19.951216302999967],[-62.99232355699997,-19.951216302999967],[-63.005042529999969,-19.951216302999963],[-63.020305297999982,-19.956303891999926],[-63.027936681999954,-19.962663378999942],[-63.035568065999932,-19.97029476299997],[-63.047015141999957,-19.976654248999974],[-63.058462217999931,-19.977926145999959],[-63.063549806999958,-19.971566659999951],[-63.067365498999941,-19.969022864999946],[-63.071181190999937,-19.972838556999928],[-63.074996882999983,-19.977926145999962],[-63.08008447199996,-19.979198043999929],[-63.083900163999942,-19.983013735999972],[-63.09407534199994,-19.984285632999956],[-63.109338109999946,-19.986829427999972],[-63.122057083999948,-19.986829427999972],[-63.137319850999972,-19.991917016999928],[-63.153854516999949,-19.99954840099997],[-63.162757797999973,-20.007179784999945],[-63.179292462999975,-20.013539270999956],[-63.186923846999953,-20.022442552999962],[-63.181836257999976,-20.028802038999974],[-63.174204873999948,-20.031345833999982],[-63.164029694999954,-20.03388962899993],[-63.150038824999967,-20.035161525999975],[-63.141135542999955,-20.031345833999975],[-63.132232261999945,-20.026258244999955],[-63.123328980999986,-20.02371444999994],[-63.110610007999988,-20.022442552999969],[-63.102978623999945,-20.017354962999942],[-63.096619136999948,-20.018626860999976],[-63.092803444999966,-20.022442552999962],[-63.086443958999958,-20.021170654999935],[-63.078812574999979,-20.017354962999942],[-63.072453087999982,-20.013539270999949],[-63.068637395999986,-20.008451681999926],[-63.059734114999962,-20.005907887999967],[-63.048287038999938,-20.005907887999964],[-63.036839962999977,-20.000820297999947],[-63.027936681999954,-19.994460811999947],[-63.019033400999952,-19.986829427999965],[-63.010130118999932,-19.983013735999979],[-62.999954940999949,-19.977926145999955],[-62.991051658999936,-19.979198043999926],[-62.980876480999946,-19.980469940999971],[-62.971973199999972,-19.971566659999947],[-62.963069917999974,-19.97029476299997],[-62.954166636999965,-19.970294762999977],[-62.94399145899996,-19.971566659999951],[-62.932544382999936,-19.962663378999938],[-62.922369203999942,-19.957575788999975],[-62.910922127999982,-19.957575788999975],[-62.900746949999984,-19.947400610999985],[-62.894387462999987,-19.938497329999961],[-62.886756078999959,-19.934681637999969],[-62.874037105999953,-19.934681637999972],[-62.858774337999932,-19.928322150999971],[-62.852414851999974,-19.924506458999932],[-62.851142953999954,-19.914331279999935],[-62.842239672999931,-19.910515587999956],[-62.837152083999968,-19.909243690999965],[-62.825705007999943,-19.909243690999975],[-62.815529828999949,-19.909243690999972],[-62.805354650999966,-19.900340409999952],[-62.800267060999943,-19.893980922999955],[-62.79136377999999,-19.891437128999939],[-62.778644806999985,-19.891437128999939],[-62.769741525999962,-19.891437128999939],[-62.760838243999963,-19.887621436999954],[-62.755750654999986,-19.883805744999965],[-62.746847373999962,-19.885077641999938],[-62.732856502999937,-19.88762143699995],[-62.716321837999935,-19.885077641999942],[-62.703602864999937,-19.879990052999972],[-62.697243377999932,-19.872358668999937],[-62.694699583999977,-19.862183489999957],[-62.68834009699998,-19.855824003999945],[-62.679436815999971,-19.850736413999975],[-62.670533534999947,-19.844376927999978],[-62.662902150999969,-19.834201748999927],[-62.657814560999952,-19.824026570999937],[-62.655270766999926,-19.812579494999955],[-62.655270766999926,-19.79986052199996],[-62.651455074999944,-19.787141547999958],[-62.646367484999992,-19.787141547999969],[-62.642551793999985,-19.773150677999986],[-62.638736101999939,-19.765519293999947],[-62.633648511999972,-19.757887909999965],[-62.63110471799996,-19.751528422999968],[-62.627289025999964,-19.747712730999975],[-62.619657641999936,-19.745168936999967],[-62.617113846999985,-19.742625141999955],[-62.609482462999942,-19.732449963999954],[-62.601851078999964,-19.71973098999996],[-62.595491592999963,-19.707012016999951],[-62.587860208999984,-19.690477351999959],[-62.580228824999956,-19.689205454999978],[-62.570053645999963,-19.684117864999966],[-62.56623795399998,-19.673942686999965],[-62.557334672999957,-19.663767507999978],[-62.55224708399998,-19.657408021999974],[-62.544615699999952,-19.653592329999977],[-62.540800007999955,-19.644689047999972],[-62.539528110999974,-19.634513869999971],[-62.533168623999977,-19.626882485999939],[-62.531896726999946,-19.617979204999923],[-62.525537239999949,-19.605260230999939],[-62.521721547999952,-19.591269360999942],[-62.519177752999951,-19.578550387999936],[-62.519177752999951,-19.567103311999972],[-62.520449650999979,-19.555656235999948],[-62.525537239999949,-19.540393467999927],[-62.523367696999969,-19.519554109999948],[-62.520449650999979,-19.499692753999962],[-62.521721547999952,-19.493333266999965],[-62.521721547999952,-19.486973780999957],[-62.520449650999979,-19.479342396999982],[-62.516633958999925,-19.475526704999936],[-62.515362060999955,-19.471711012999936],[-62.51790585599997,-19.46153583399996],[-62.521721547999952,-19.452632552999951],[-62.521721547999952,-19.445001168999969],[-62.521721547999952,-19.437369784999927],[-62.522993444999933,-19.431010297999936],[-62.52808103499995,-19.423378914999947],[-62.533168623999977,-19.414475632999935],[-62.534440520999958,-19.404300454999948],[-62.533168623999977,-19.400484762999952],[-62.530624828999976,-19.395397172999942],[-62.525537239999949,-19.386493891999969],[-62.522993444999933,-19.378862507999941],[-62.531896726999946,-19.37377491899997],[-62.534440520999958,-19.367415431999969],[-62.533168623999977,-19.359784047999945],[-62.531896726999946,-19.350880766999978],[-62.530624828999976,-19.341977485999962],[-62.52808103499995,-19.335617998999961],[-62.521721547999952,-19.331802306999975],[-62.515362060999955,-19.329258512999953],[-62.511546368999973,-19.321627128999985],[-62.509002574999954,-19.316539539999955],[-62.503914985999991,-19.306364360999968],[-62.498827395999967,-19.296189181999971],[-62.495011703999978,-19.29110159299994],[-62.487380319999943,-19.282198311999942],[-62.483564627999954,-19.274566927999949],[-62.481020833999942,-19.268207440999952],[-62.479748935999972,-19.260576056999977],[-62.474661346999945,-19.254216570999976],[-62.469573757999967,-19.250400878999979],[-62.461942373999939,-19.24658518699994],[-62.461942373999939,-19.235138110999966],[-62.461942373999939,-19.22623482999996],[-62.46448616899994,-19.218603445999975],[-62.468301860999986,-19.210972061999943],[-62.473389449999964,-19.203340677999957],[-62.474661346999945,-19.19189360199994],[-62.475933243999975,-19.180446525999972],[-62.475933243999975,-19.170271347999961],[-62.469573757999967,-19.163911860999978],[-62.468301860999986,-19.157552373999977],[-62.469573757999967,-19.148649092999964],[-62.469573757999967,-19.141017708999982],[-62.467029962999966,-19.133386324999954],[-62.459398578999988,-19.125754940999972],[-62.454310989999961,-19.116851659999963],[-62.447951502999963,-19.107948378999932],[-62.441592016999941,-19.104132686999947],[-62.441592016999941,-19.096501302999965],[-62.444135810999967,-19.091413713999941],[-62.444135810999967,-19.086326123999985],[-62.441592016999941,-19.082510431999935],[-62.433960632999963,-19.074879048999946],[-62.422513556999938,-19.064703869999967],[-62.40979458399994,-19.058344382999959],[-62.399619404999953,-19.046897306999938],[-62.394531815999983,-19.039265923999949],[-62.390716123999937,-19.031634539999967],[-62.386900431999955,-19.026546949999954],[-62.383084739999958,-19.02018746399995],[-62.38054094499995,-19.007468490999948],[-62.376725252999961,-19.001109003999943],[-62.371637663999934,-18.994749516999946],[-62.366550074999971,-18.992205722999934],[-62.357646793999947,-18.987118132999964],[-62.350015409999969,-18.983302440999971],[-62.343655922999972,-18.980758646999963],[-62.337296435999974,-18.974399159999965],[-62.332208846999947,-18.968039673999954],[-62.332208846999947,-18.959136391999955],[-62.338568333999945,-18.952776905999944],[-62.343655922999972,-18.946417418999943],[-62.344927819999953,-18.942601726999953],[-62.34111212799997,-18.938786034999968],[-62.338568333999945,-18.931154650999929],[-62.337296435999974,-18.92352326699995],[-62.338568333999945,-18.914619985999927],[-62.346199717999973,-18.910804293999945],[-62.35128730699995,-18.909532396999964],[-62.35128730699995,-18.905716704999971],[-62.346199717999973,-18.903172909999963],[-62.339840230999975,-18.901901012999925],[-62.339840230999975,-18.896813423999959],[-62.339840230999975,-18.891725833999946],[-62.336024538999929,-18.885366347999934],[-62.332208846999947,-18.882822552999983],[-62.328393154999951,-18.875191168999951],[-62.323305565999988,-18.868831682999936],[-62.318217976999961,-18.861200298999965],[-62.313130386999944,-18.854840811999964],[-62.304227105999985,-18.852297016999952],[-62.297867619999984,-18.847209427999928],[-62.286420543999959,-18.843393735999943],[-62.276245364999966,-18.844665632999977],[-62.264798288999941,-18.844665632999973],[-62.250807418999955,-18.845937530999944],[-62.240632239999961,-18.845937530999944],[-62.234272752999978,-18.842121838999955],[-62.229185163999936,-18.837034249999931],[-62.224097574999973,-18.833218557999935],[-62.216466190999931,-18.833218557999945],[-62.211378601999968,-18.835762351999961],[-62.210106703999934,-18.843393735999936],[-62.206291011999951,-18.848481324999966],[-62.201203422999981,-18.848481324999966],[-62.19865962899997,-18.84466563299998],[-62.19865962899997,-18.835762351999957],[-62.199931525999943,-18.826859070999937],[-62.202475319999955,-18.820499583999947],[-62.202475319999955,-18.812868199999969],[-62.197387730999928,-18.809052507999976],[-62.193572038999946,-18.793789740999959],[-62.194843936999973,-18.782342664999927],[-62.197387730999928,-18.773439382999982],[-62.197387730999928,-18.763264204999928],[-62.203747217999933,-18.754360923999972],[-62.206291011999951,-18.746729539999937],[-62.203747217999933,-18.739098155999951],[-62.199931525999943,-18.727651079999927],[-62.197387730999928,-18.714932106999978],[-62.194843936999973,-18.702213133999972],[-62.196115833999954,-18.689494159999981],[-62.202475319999955,-18.680590878999968],[-62.206291011999951,-18.674231391999967],[-62.206291011999951,-18.665328110999951],[-62.206291011999951,-18.655152932999954],[-62.201203422999981,-18.650065342999945],[-62.194843936999973,-18.643705856999926],[-62.191028244999991,-18.63861826699997],[-62.184668757999994,-18.625899293999961],[-62.173221681999969,-18.618267909999933],[-62.166862194999972,-18.611908423999978],[-62.160502708999964,-18.604277039999939],[-62.155415119999986,-18.596645655999968],[-62.149055632999939,-18.58647047699997],[-62.142696145999942,-18.581382887999954],[-62.131249069999967,-18.572479606999934],[-62.119801994999932,-18.564848222999952],[-62.110898712999983,-18.558488735999962],[-62.100723534999986,-18.544497865999968],[-62.089276458999962,-18.538138378999975],[-62.080373177999952,-18.529235097999962],[-62.07146989599994,-18.524147508999931],[-62.065110409999932,-18.51778802199993],[-62.056207128999972,-18.511428534999933],[-62.049847641999975,-18.506340945999966],[-62.043488154999977,-18.501253356999939],[-62.03840056599995,-18.493621972999961],[-62.034584873999954,-18.488534383999937],[-62.028225386999956,-18.483446793999974],[-62.020594003999975,-18.478359204999951],[-62.011690721999969,-18.474543512999951],[-62.004059337999927,-18.469455923999934],[-61.993884159999944,-18.464368333999968],[-61.986252775999965,-18.459280744999944],[-61.974805699999941,-18.459280744999944],[-61.97353380299996,-18.468184025999964],[-61.976077596999971,-18.474543512999968],[-61.981165186999988,-18.479631101999924],[-61.987524672999939,-18.48344679399997],[-61.992612262999963,-18.496165767999965],[-61.990068467999947,-18.512700432999964],[-61.981165186999988,-18.520331816999942],[-61.978621391999987,-18.527963200999981],[-61.981165186999988,-18.53686648199994],[-61.984980878999984,-18.543225967999941],[-61.990068467999947,-18.54704165999993],[-61.993884159999944,-18.547041659999934],[-61.993884159999944,-18.541954070999967],[-61.991340364999985,-18.53559458399997],[-61.993884159999944,-18.529235097999965],[-61.998971748999963,-18.529235097999958],[-62.004059337999927,-18.533050789999955],[-62.00914692799995,-18.538138378999967],[-62.012962619999939,-18.544497865999965],[-62.016778311999985,-18.548313557999958],[-62.021865900999948,-18.548313557999958],[-62.025681592999945,-18.550857351999984],[-62.025681592999945,-18.55594494199994],[-62.025681592999945,-18.559760633999922],[-62.028225386999956,-18.563576325999968],[-62.032041078999953,-18.564848222999959],[-62.032041078999953,-18.569935811999986],[-62.035856770999949,-18.572479606999934],[-62.03840056599995,-18.577567195999961],[-62.037128668999969,-18.587742374999952],[-62.034584873999954,-18.596645655999964],[-62.029497284999927,-18.608092731999932],[-62.024409695999964,-18.616996012999945],[-62.026953489999975,-18.625899293999964],[-62.037128668999969,-18.641162061999974],[-62.046031949999978,-18.650065342999937],[-62.04857574499993,-18.660240521999981],[-62.046031949999978,-18.670415699999982],[-62.035856770999949,-18.680590878999968],[-62.026953489999975,-18.685678467999931],[-62.011690721999969,-18.692037954999932],[-61.998971748999963,-18.694581749999941],[-61.98370898099995,-18.695853646999975],[-61.967174315999962,-18.69330985199997],[-61.958271034999939,-18.690766057999951],[-61.943008266999982,-18.689494159999985],[-61.929017395999956,-18.685678467999935],[-61.909938936999936,-18.68313467399998],[-61.893404270999952,-18.68313467399997],[-61.875597708999976,-18.683134673999966],[-61.865422529999933,-18.688222262999936],[-61.848887864999945,-18.694581749999944],[-61.839984583999971,-18.699669338999971],[-61.828537507999947,-18.703485030999957],[-61.819634226999938,-18.699669338999964],[-61.812002842999959,-18.694581749999944],[-61.806915253999932,-18.685678467999935],[-61.801827663999966,-18.678047083999957],[-61.799283869999961,-18.669143802999947],[-61.795468177999965,-18.655152932999961],[-61.792924382999956,-18.643705856999933],[-61.789108690999967,-18.634802574999974],[-61.787836793999986,-18.625899293999964],[-61.78402110199994,-18.618267909999926],[-61.780205409999958,-18.609364628999966],[-61.778933512999977,-18.597917552999945],[-61.771302128999935,-18.595373758999926],[-61.764942641999937,-18.597917552999942],[-61.75858315499994,-18.604277039999939],[-61.753495565999977,-18.61445221799994],[-61.743320387999972,-18.616996012999952],[-61.73568900399993,-18.613180320999962],[-61.733145208999979,-18.608092731999928],[-61.728057619999952,-18.599189450999972],[-61.716610543999927,-18.599189450999969],[-61.708979159999949,-18.59537375899993],[-61.70134777599997,-18.591558066999941],[-61.69626018699995,-18.591558066999934],[-61.689900699999953,-18.596645655999957],[-61.688628802999972,-18.60554893699998],[-61.689900699999953,-18.616996012999952],[-61.693716391999942,-18.62971498599995],[-61.693716391999942,-18.639890164999937],[-61.688628802999972,-18.646249650999948],[-61.679725521999963,-18.653881034999923],[-61.672094137999984,-18.658968624999943],[-61.661918958999941,-18.660240521999981],[-61.651743779999947,-18.65515293299995],[-61.640296704999962,-18.655152932999954],[-61.625033936999955,-18.655152932999961],[-61.61358686099998,-18.65515293299995],[-61.603411681999937,-18.661512418999962],[-61.58814891399998,-18.667871905999956],[-61.580517530999948,-18.675503289999945],[-61.576701838999952,-18.693309851999967],[-61.574158043999951,-18.700941235999945],[-61.562710967999976,-18.700941235999945],[-61.555079583999948,-18.697125543999963],[-61.544904405999944,-18.703485030999957],[-61.542360610999928,-18.711116414999935],[-61.537273021999965,-18.721291592999933],[-61.529641637999987,-18.722563490999956],[-61.522010253999944,-18.720019695999948],[-61.514378869999966,-18.716204003999962],[-61.510563177999984,-18.708572619999927],[-61.505475588999957,-18.704756927999938],[-61.50038799899994,-18.69712554399996],[-61.488940922999966,-18.694581749999941],[-61.474950052999986,-18.693309851999967],[-61.466046771999977,-18.690766057999951],[-61.460959181999961,-18.681862775999942],[-61.460959181999961,-18.67295949499993],[-61.458415387999935,-18.661512418999962],[-61.454599695999953,-18.656424829999938],[-61.448240208999955,-18.656424829999938],[-61.440608824999977,-18.65896862499994],[-61.432977440999935,-18.662784316999936],[-61.429161748999952,-18.670415699999971],[-61.422574242999985,-18.677073119999928],[-61.407539494999973,-18.685678467999935],[-61.399908110999945,-18.686950365999959],[-61.391004829999993,-18.686950365999959],[-61.382101547999973,-18.68822226299994],[-61.374470164999941,-18.69330985199997],[-61.373198266999971,-18.702213133999972],[-61.373198266999971,-18.712388311999973],[-61.377013958999953,-18.717475900999943],[-61.385917239999969,-18.722563490999956],[-61.394820521999975,-18.721291592999929],[-61.407539494999973,-18.71747590099994],[-61.42280226299993,-18.71747590099994],[-61.435521235999936,-18.71238831199997],[-61.444424516999959,-18.712388311999966],[-61.449512105999986,-18.714932106999981],[-61.449512105999986,-18.718747798999971],[-61.44569641399994,-18.723835387999937],[-61.440608824999977,-18.726379182999953],[-61.431705543999954,-18.73146677199998],[-61.42280226299993,-18.732738668999961],[-61.415170878999952,-18.740370052999936],[-61.413898980999932,-18.748001436999967],[-61.415170878999952,-18.759448512999942],[-61.420258467999979,-18.76707989699997],[-61.432977440999935,-18.773439382999989],[-61.441880722999933,-18.778526972999941],[-61.455871592999983,-18.778526972999941],[-61.468590565999939,-18.778526972999941],[-61.477493847999938,-18.775983177999933],[-61.485125230999984,-18.775983177999933],[-61.490212820999943,-18.78107076699996],[-61.490212820999943,-18.787430253999954],[-61.483853333999946,-18.795061637999932],[-61.476221949999967,-18.800149226999959],[-61.467318668999958,-18.80650871399996],[-61.457143489999964,-18.810324405999943],[-61.449512105999986,-18.815411994999977],[-61.44569641399994,-18.828130967999982],[-61.44569641399994,-18.843393735999943],[-61.444424516999959,-18.851025119999978],[-61.440608824999977,-18.852297016999959],[-61.431705543999954,-18.851025119999974],[-61.424074159999975,-18.84848132499997],[-61.416442775999933,-18.842121838999958],[-61.410083288999935,-18.838306146999969],[-61.399908110999945,-18.829402865999953],[-61.389732931999951,-18.829402865999949],[-61.382101547999973,-18.831946659999971],[-61.370654472999945,-18.835762351999964],[-61.363023088999967,-18.842121838999958],[-61.350304114999972,-18.853568914999979],[-61.342672730999944,-18.853568914999983],[-61.338857039999937,-18.848481324999966],[-61.342672730999944,-18.837034249999927],[-61.34776032099996,-18.833218557999945],[-61.350304114999972,-18.824315275999936],[-61.350304114999972,-18.81922768699997],[-61.34648842299999,-18.812868199999972],[-61.340128936999967,-18.811596302999931],[-61.332497552999939,-18.809052507999979],[-61.327409963999962,-18.802693021999971],[-61.324866168999961,-18.795061637999936],[-61.32359427199998,-18.787430253999958],[-61.318506681999963,-18.779798869999983],[-61.312147195999955,-18.775983177999933],[-61.303243914999939,-18.775983177999937],[-61.294340632999933,-18.781070766999964],[-61.290524940999937,-18.784886458999949],[-61.287981146999982,-18.79124594599995],[-61.286709248999955,-18.800149226999959],[-61.280349762999954,-18.80523681699998],[-61.272718378999976,-18.80650871399996],[-61.268902686999979,-18.802693021999975],[-61.267630789999949,-18.792517842999935],[-61.268902686999979,-18.783614561999965],[-61.27017458399996,-18.77216748599994],[-61.265086994999933,-18.761992307999943],[-61.265086994999933,-18.751817128999956],[-61.271446481999995,-18.745457641999963],[-61.282893556999959,-18.744185744999985],[-61.298156324999979,-18.744185744999978],[-61.315962887999937,-18.742913847999947],[-61.326138065999942,-18.736554360999946],[-61.326138065999942,-18.726379182999953],[-61.322322373999945,-18.718747798999971],[-61.313419092999936,-18.714932106999978],[-61.305787708999958,-18.709844516999965],[-61.301972016999962,-18.704756927999934],[-61.296884427999935,-18.69712554399996],[-61.300700119999988,-18.690766057999951],[-61.30960340099994,-18.68313467399997],[-61.317234784999982,-18.667871905999956],[-61.317234784999982,-18.660240521999985],[-61.315962887999937,-18.650065342999934],[-61.312147195999955,-18.636074472999944],[-61.318506681999963,-18.62971498599995],[-61.329953757999988,-18.628443088999969],[-61.333769449999984,-18.637346369999932],[-61.341400833999963,-18.646249650999945],[-61.351576012999942,-18.653881034999927],[-61.364294985999948,-18.662784316999932],[-61.382101547999973,-18.670415699999975],[-61.393548623999948,-18.676775186999976],[-61.404995699999972,-18.674231391999964],[-61.411977701999945,-18.668963165999969],[-61.415170878999952,-18.661512418999958],[-61.420258467999979,-18.648793445999956],[-61.413898980999932,-18.643705856999929],[-61.403723802999927,-18.642433958999959],[-61.39736431599993,-18.634802574999981],[-61.389732931999951,-18.627171191999931],[-61.38337344599995,-18.618267909999926],[-61.373198266999971,-18.608092731999925],[-61.359207396999984,-18.600461347999946],[-61.354119806999968,-18.591558066999934],[-61.35793549899995,-18.585198579999936],[-61.365566882999993,-18.580110990999966],[-61.373198266999971,-18.572479606999934],[-61.365566882999993,-18.564848222999952],[-61.373198266999971,-18.55594494199994],[-61.373198266999971,-18.54704165999993],[-61.361751190999946,-18.536866481999937],[-61.351576012999942,-18.531778891999974],[-61.332497552999939,-18.531778891999977],[-61.308331503999959,-18.53686648199994],[-61.290524940999937,-18.540682173999979],[-61.277805967999939,-18.55085735199998],[-61.268902686999979,-18.555944941999943],[-61.268542511999961,-18.559186513999983],[-61.267630789999949,-18.558488735999966],[-61.261271302999951,-18.563576325999971],[-61.251096123999957,-18.567392016999975],[-61.242192842999948,-18.56612011999994],[-61.242192842999948,-18.558488735999958],[-61.240920945999953,-18.549585454999935],[-61.23456145899997,-18.545769762999953],[-61.226930074999977,-18.547041659999934],[-61.220570588999969,-18.548313557999961],[-61.218026793999968,-18.561032530999967],[-61.218026793999968,-18.572479606999938],[-61.218026793999968,-18.581382887999954],[-61.212939204999941,-18.586470476999974],[-61.207851614999974,-18.589014271999933],[-61.192588847999964,-18.591558066999937],[-61.177326079999943,-18.591558066999941],[-61.163335208999968,-18.59028616899997],[-61.158247619999941,-18.592829963999979],[-61.150616235999962,-18.603005141999976],[-61.140441056999983,-18.613180320999952],[-61.128993981999933,-18.618267909999933],[-61.122634494999936,-18.616996012999945],[-61.120090699999935,-18.609364628999973],[-61.120090699999935,-18.601733244999931],[-61.123906391999981,-18.589014271999929],[-61.122634494999936,-18.575023400999957],[-61.112459315999956,-18.563576325999978],[-61.101012239999932,-18.54195407099996],[-61.094652753999981,-18.533050789999947],[-61.090837061999935,-18.525419405999976],[-61.092108958999972,-18.51142853499994],[-61.09338085699995,-18.498709561999931],[-61.088293266999976,-18.491078177999952],[-61.085749472999971,-18.48344679399997],[-61.089565164999954,-18.466912128999979],[-61.095924650999955,-18.458008847999963],[-61.104827931999978,-18.451649360999966],[-61.117546905999973,-18.444017976999927],[-61.131537775999959,-18.440202284999945],[-61.142984851999984,-18.438930387999964],[-61.15697572299996,-18.437658490999976],[-61.165879003999983,-18.435114695999971],[-61.170966592999946,-18.427483311999939],[-61.176054181999973,-18.418580030999973],[-61.183685565999944,-18.414764338999934],[-61.192588847999964,-18.416036235999961],[-61.196404539999946,-18.422395722999958],[-61.198948333999965,-18.431299003999978],[-61.206579717999944,-18.442746079999942],[-61.210395409999926,-18.452921258999933],[-61.215482998999953,-18.460552642999975],[-61.226930074999977,-18.465640231999942],[-61.237105253999971,-18.469455923999931],[-61.240920945999953,-18.479631101999928],[-61.240920945999953,-18.492350075999983],[-61.239649047999933,-18.50634094599997],[-61.243464739999979,-18.515244226999979],[-61.252368021999978,-18.516516124999956],[-61.266358891999978,-18.516516124999953],[-61.279077864999977,-18.513972329999948],[-61.287981146999982,-18.508884740999978],[-61.29942822299995,-18.508884740999974],[-61.312147195999955,-18.508884740999971],[-61.329953757999988,-18.511428534999936],[-61.343944628999964,-18.513972329999948],[-61.355391704999938,-18.520331816999938],[-61.369382574999975,-18.526691302999957],[-61.379557753999968,-18.531778891999977],[-61.385917239999969,-18.53177889199997],[-61.389732931999951,-18.524147508999931],[-61.389732931999951,-18.515244226999982],[-61.38337344599995,-18.502525253999977],[-61.373198266999971,-18.492350075999976],[-61.363023088999967,-18.474543512999958],[-61.34776032099996,-18.473271615999973],[-61.33504134799994,-18.469455923999934],[-61.324866168999961,-18.463096436999937],[-61.30960340099994,-18.459280744999944],[-61.298156324999979,-18.454193155999977],[-61.293068735999952,-18.444017976999934],[-61.293068735999952,-18.431299003999985],[-61.289253043999963,-18.405861057999967],[-61.286709248999955,-18.384238802999956],[-61.286709248999955,-18.366432240999927],[-61.286709248999955,-18.347353780999981],[-61.286709248999955,-18.332091012999967],[-61.279077864999977,-18.321915834999977],[-61.27017458399996,-18.31174065599993],[-61.261271302999951,-18.302837374999971],[-61.247280431999975,-18.288846503999935],[-61.237105253999971,-18.28121511999996],[-61.224386280999965,-18.277399427999971],[-61.216754896999987,-18.273583735999971],[-61.212939204999941,-18.263408557999984],[-61.212939204999941,-18.255777173999945],[-61.214211101999972,-18.232883021999953],[-61.220570588999969,-18.232883021999953],[-61.229473869999929,-18.239242508999954],[-61.246008534999994,-18.249417686999948],[-61.257455610999955,-18.25704907099993],[-61.268902686999979,-18.263408557999981],[-61.275262172999987,-18.276127530999929],[-61.284165454999936,-18.279943222999979],[-61.290524940999937,-18.277399427999963],[-61.295612530999961,-18.273583735999978],[-61.303243914999939,-18.274855633999945],[-61.310875297999985,-18.278671325999934],[-61.314690989999967,-18.28630270999998],[-61.321050476999964,-18.295205990999936],[-61.324866168999961,-18.307924963999938],[-61.329953757999988,-18.320643936999947],[-61.33504134799994,-18.334634807999976],[-61.350304114999972,-18.33590670499996],[-61.364294985999948,-18.333362909999948],[-61.374470164999941,-18.333362909999948],[-61.382101547999973,-18.343538088999932],[-61.385917239999969,-18.357528959999968],[-61.394820521999975,-18.360072753999933],[-61.412627083999951,-18.361344650999964],[-61.425346056999956,-18.361344650999964],[-61.440608824999977,-18.35498516499996],[-61.463502976999962,-18.348625677999959],[-61.478765744999983,-18.346081883999943],[-61.49530040999997,-18.339722396999946],[-61.497844204999986,-18.33081911599993],[-61.496572306999944,-18.323187731999951],[-61.485125230999984,-18.32191583499997],[-61.47113436099994,-18.323187731999951],[-61.454599695999953,-18.320643936999939],[-61.434249338999955,-18.316828244999954],[-61.420258467999979,-18.305381168999929],[-61.407539494999973,-18.30156547699994],[-61.399908110999945,-18.300293579999959],[-61.388461034999978,-18.293934092999962],[-61.385917239999969,-18.283758914999968],[-61.387189137999947,-18.278671325999941],[-61.394820521999975,-18.281215119999953],[-61.401180007999976,-18.286302709999969],[-61.412627083999951,-18.286302709999973],[-61.42280226299993,-18.281215119999953],[-61.435521235999936,-18.27867132599993],[-61.44696831199996,-18.283758914999964],[-61.462231079999981,-18.28757460699995],[-61.476221949999967,-18.291390298999939],[-61.490212820999943,-18.291390298999936],[-61.506747485999938,-18.286302709999976],[-61.518194561999962,-18.279943222999975],[-61.533457329999969,-18.278671325999941],[-61.543632507999973,-18.269768043999932],[-61.544904405999944,-18.263408557999977],[-61.541088713999947,-18.253233378999937],[-61.529641637999987,-18.239242508999951],[-61.513106971999946,-18.229067329999964],[-61.490212820999943,-18.225251637999971],[-61.476221949999967,-18.217620253999943],[-61.466046771999977,-18.201085588999945],[-61.463502976999962,-18.187094718999962],[-61.469862463999959,-18.179463334999976],[-61.477493847999938,-18.173103847999982],[-61.492756614999962,-18.171831950999941],[-61.509291280999946,-18.176919539999975],[-61.514378869999966,-18.170560052999978],[-61.509291280999946,-18.157841079999965],[-61.510563177999984,-18.148937798999953],[-61.513106971999946,-18.14003451799994],[-61.509291280999946,-18.131131235999931],[-61.505475588999957,-18.120956057999933],[-61.488940922999966,-18.106965186999954],[-61.476221949999967,-18.094246213999956],[-61.454599695999953,-18.071352061999963],[-61.430433646999973,-18.058633088999951],[-61.415170878999952,-18.054817396999969],[-61.389732931999951,-18.049729807999935],[-61.369382574999975,-18.045914115999949],[-61.356663601999969,-18.043370320999941],[-61.343944628999964,-18.030651347999935],[-61.341400833999963,-18.019204271999971],[-61.342672730999944,-18.007757195999947],[-61.34648842299999,-17.998853914999923],[-61.352847909999987,-17.986134941999978],[-61.356663601999969,-17.969600276999927],[-61.350304114999972,-17.950521816999981],[-61.343944628999964,-17.937802843999979],[-61.337585141999966,-17.92508386999998],[-61.333769449999984,-17.911092999999934],[-61.333769449999984,-17.90473351299994],[-61.334954287999949,-17.902514724999946],[-61.336729898999984,-17.900071854999965],[-61.342308597999931,-17.897933412999976],[-61.350508425999983,-17.897545421999947],[-61.356602873999975,-17.894224931999926],[-61.362727737999933,-17.890193109999931],[-61.382128605999981,-17.888820518999978],[-61.39954536099998,-17.881669507999959],[-61.411610650999926,-17.877868564999975],[-61.42188697499995,-17.881120111999962],[-61.425266868999984,-17.889088064999957],[-61.429450419999966,-17.895662796999947],[-61.433134045999964,-17.896519163999923],[-61.440001037999927,-17.892513273999949],[-61.447307968999944,-17.895647918999941],[-61.449445645999958,-17.897868428999971],[-61.449294315999964,-17.901424406999976],[-61.456251669999965,-17.908104605999942],[-61.466046771999977,-17.906005410999967]]]},"properties":{"FID":0,"NOMBRE":"Baados del Izozog y el ro Parapeti","num":21}}]
}