{"type":"FeatureCollection","features":[{"type":"Feature","id":0,"geometry":{"type":"Point","coordinates":[-62.532499493608462,-19.388450137309082]},"properties":{"FID":0,"nombre_dep":"Santa Cruz","tipo_area":"dis","poblacion_":810,"viviendas_":171,"tipo_pobla":" ","nombre_c_4":"Iyovi","Label":1}},{"type":"Feature","id":1,"geometry":{"type":"Point","coordinates":[-63.221368790265103,-19.590186748768581]},"properties":{"FID":1,"nombre_dep":"Santa Cruz","tipo_area":"dis","poblacion_":418,"viviendas_":85,"tipo_pobla":" ","nombre_c_4":"Tapuata","Label":1}},{"type":"Feature","id":2,"geometry":{"type":"Point","coordinates":[-63.339568411677853,-19.447511924124324]},"properties":{"FID":2,"nombre_dep":"Santa Cruz","tipo_area":"dis","poblacion_":186,"viviendas_":43,"tipo_pobla":" ","nombre_c_4":"Guirayurarenda","Label":0}},{"type":"Feature","id":3,"geometry":{"type":"Point","coordinates":[-62.542019730229718,-19.374204804056177]},"properties":{"FID":3,"nombre_dep":"Santa Cruz","tipo_area":"dis","poblacion_":323,"viviendas_":62,"tipo_pobla":" ","nombre_c_4":"Coropo","Label":0}},{"type":"Feature","id":4,"geometry":{"type":"Point","coordinates":[-63.366099531642398,-19.366499748795821]},"properties":{"FID":4,"nombre_dep":"Santa Cruz","tipo_area":"dis","poblacion_":210,"viviendas_":36,"tipo_pobla":" ","nombre_c_4":"Itaimbeguasu","Label":1}},{"type":"Feature","id":5,"geometry":{"type":"Point","coordinates":[-62.569779324834926,-19.351034534533071]},"properties":{"FID":5,"nombre_dep":"Santa Cruz","tipo_area":"dis","poblacion_":99,"viviendas_":26,"tipo_pobla":" ","nombre_c_4":"San Silvestre","Label":0}},{"type":"Feature","id":6,"geometry":{"type":"Point","coordinates":[-63.134157083539144,-19.734888217838634]},"properties":{"FID":6,"nombre_dep":"Santa Cruz","tipo_area":"dis","poblacion_":67,"viviendas_":11,"tipo_pobla":" ","nombre_c_4":"Caraguatati","Label":0}},{"type":"Feature","id":7,"geometry":{"type":"Point","coordinates":[-63.105068896040109,-20.242809436799007]},"properties":{"FID":7,"nombre_dep":"Santa Cruz","tipo_area":"dis","poblacion_":70,"viviendas_":20,"tipo_pobla":" ","nombre_c_4":"Ipitacuape","Label":0}},{"type":"Feature","id":8,"geometry":{"type":"Point","coordinates":[-62.973295637725975,-19.767021776509313]},"properties":{"FID":8,"nombre_dep":"Santa Cruz","tipo_area":"dis","poblacion_":3139,"viviendas_":557,"tipo_pobla":" ","nombre_c_4":"Pinondi","Label":1}},{"type":"Feature","id":9,"geometry":{"type":"Point","coordinates":[-63.199186846516838,-19.682327298971117]},"properties":{"FID":9,"nombre_dep":"Santa Cruz","tipo_area":"dis","poblacion_":91,"viviendas_":28,"tipo_pobla":" ","nombre_c_4":"Guirapucuti","Label":1}},{"type":"Feature","id":10,"geometry":{"type":"Point","coordinates":[-63.120570128549822,-19.699960269878844]},"properties":{"FID":10,"nombre_dep":"Santa Cruz","tipo_area":"dis","poblacion_":134,"viviendas_":36,"tipo_pobla":" ","nombre_c_4":"Chorito Bajo","Label":0}},{"type":"Feature","id":11,"geometry":{"type":"Point","coordinates":[-62.630866459747004,-19.663051967467077]},"properties":{"FID":11,"nombre_dep":"Santa Cruz","tipo_area":"dis","poblacion_":175,"viviendas_":39,"tipo_pobla":" ","nombre_c_4":"Copere Montenegro","Label":0}},{"type":"Feature","id":12,"geometry":{"type":"Point","coordinates":[-63.215263793156645,-19.66510275537599]},"properties":{"FID":12,"nombre_dep":"Santa Cruz","tipo_area":"dis","poblacion_":193,"viviendas_":47,"tipo_pobla":" ","nombre_c_4":"Tacuarembo","Label":0}},{"type":"Feature","id":13,"geometry":{"type":"Point","coordinates":[-62.618240469942513,-19.645120909500875]},"properties":{"FID":13,"nombre_dep":"Santa Cruz","tipo_area":"dis","poblacion_":539,"viviendas_":107,"tipo_pobla":" ","nombre_c_4":"Kopere Loma","Label":1}},{"type":"Feature","id":14,"geometry":{"type":"Point","coordinates":[-62.689891367133889,-20.350514941435655]},"properties":{"FID":14,"nombre_dep":"Santa Cruz","tipo_area":"dis","poblacion_":4,"viviendas_":2,"tipo_pobla":" ","nombre_c_4":"El Porvenir","Label":0}},{"type":"Feature","id":15,"geometry":{"type":"Point","coordinates":[-62.61381659284352,-18.150292248538417]},"properties":{"FID":15,"nombre_dep":"Santa Cruz","tipo_area":"dis","poblacion_":76,"viviendas_":10,"tipo_pobla":" ","nombre_c_4":"Guayacan","Label":0}},{"type":"Feature","id":16,"geometry":{"type":"Point","coordinates":[-62.908951422669702,-19.711241398460185]},"properties":{"FID":16,"nombre_dep":"Santa Cruz","tipo_area":"dis","poblacion_":1229,"viviendas_":203,"tipo_pobla":" ","nombre_c_4":"Casa Grande","Label":1}},{"type":"Feature","id":17,"geometry":{"type":"Point","coordinates":[-62.570557578720845,-19.280994490527732]},"properties":{"FID":17,"nombre_dep":"Santa Cruz","tipo_area":"dis","poblacion_":118,"viviendas_":28,"tipo_pobla":" ","nombre_c_4":"Retoño","Label":0}},{"type":"Feature","id":18,"geometry":{"type":"Point","coordinates":[-63.251973754512463,-19.44799846015189]},"properties":{"FID":18,"nombre_dep":"Santa Cruz","tipo_area":"dis","poblacion_":88,"viviendas_":22,"tipo_pobla":" ","nombre_c_4":"Tacuru","Label":1}},{"type":"Feature","id":19,"geometry":{"type":"Point","coordinates":[-62.886660854659425,-18.972114040304923]},"properties":{"FID":19,"nombre_dep":"Santa Cruz","tipo_area":"dis","poblacion_":124,"viviendas_":72,"tipo_pobla":" ","nombre_c_4":"Ikavirenda","Label":0}},{"type":"Feature","id":20,"geometry":{"type":"Point","coordinates":[-62.487142899422587,-19.155138210828685]},"properties":{"FID":20,"nombre_dep":"Santa Cruz","tipo_area":"dis","poblacion_":129,"viviendas_":40,"tipo_pobla":" ","nombre_c_4":"San Juan de Karandaigua","Label":0}},{"type":"Feature","id":21,"geometry":{"type":"Point","coordinates":[-62.325219936155435,-18.258421881720597]},"properties":{"FID":21,"nombre_dep":"Santa Cruz","tipo_area":"dis","poblacion_":23,"viviendas_":8,"tipo_pobla":" ","nombre_c_4":"Yacuaposi","Label":0}},{"type":"Feature","id":22,"geometry":{"type":"Point","coordinates":[-59.066606016613221,-19.139329236292021]},"properties":{"FID":22,"nombre_dep":"Santa Cruz","tipo_area":"dis","poblacion_":38,"viviendas_":6,"tipo_pobla":" ","nombre_c_4":"Kumpeguay","Label":0}},{"type":"Feature","id":23,"geometry":{"type":"Point","coordinates":[-62.453189440367446,-18.373512210535289]},"properties":{"FID":23,"nombre_dep":"Santa Cruz","tipo_area":"dis","poblacion_":19,"viviendas_":3,"tipo_pobla":" ","nombre_c_4":"Joseravi","Label":0}},{"type":"Feature","id":24,"geometry":{"type":"Point","coordinates":[-62.89958264435348,-19.93070693808669]},"properties":{"FID":24,"nombre_dep":"Santa Cruz","tipo_area":"dis","poblacion_":1242,"viviendas_":288,"tipo_pobla":" ","nombre_c_4":"Parapitiguaso","Label":1}},{"type":"Feature","id":25,"geometry":{"type":"Point","coordinates":[-63.197286165718864,-19.791138933969791]},"properties":{"FID":25,"nombre_dep":"Santa Cruz","tipo_area":"cp","poblacion_":3496,"viviendas_":851,"tipo_pobla":"Capital de Municipio","nombre_c_4":"Charagua","Label":1}},{"type":"Feature","id":26,"geometry":{"type":"Point","coordinates":[-62.404790596772138,-18.418577424102118]},"properties":{"FID":26,"nombre_dep":"Santa Cruz","tipo_area":"dis","poblacion_":30,"viviendas_":14,"tipo_pobla":" ","nombre_c_4":"Tentapiau","Label":0}},{"type":"Feature","id":27,"geometry":{"type":"Point","coordinates":[-62.510181649031004,-19.297527989081534]},"properties":{"FID":27,"nombre_dep":"Santa Cruz","tipo_area":"dis","poblacion_":40,"viviendas_":8,"tipo_pobla":" ","nombre_c_4":"Piquirenda","Label":0}},{"type":"Feature","id":28,"geometry":{"type":"Point","coordinates":[-62.448989443698842,-19.331784578554423]},"properties":{"FID":28,"nombre_dep":"Santa Cruz","tipo_area":"dis","poblacion_":97,"viviendas_":20,"tipo_pobla":" ","nombre_c_4":"San Lorenzo 12 de Octubre","Label":0}},{"type":"Feature","id":29,"geometry":{"type":"Point","coordinates":[-63.275178151867848,-19.751851691542104]},"properties":{"FID":29,"nombre_dep":"Santa Cruz","tipo_area":"dis","poblacion_":36,"viviendas_":6,"tipo_pobla":" ","nombre_c_4":"Capiacuandi","Label":1}},{"type":"Feature","id":30,"geometry":{"type":"Point","coordinates":[-62.808936319060017,-18.200917208628912]},"properties":{"FID":30,"nombre_dep":"Santa Cruz","tipo_area":"dis","poblacion_":130,"viviendas_":39,"tipo_pobla":" ","nombre_c_4":"La Esperanza","Label":0}},{"type":"Feature","id":31,"geometry":{"type":"Point","coordinates":[-62.391968814475874,-18.374508901354332]},"properties":{"FID":31,"nombre_dep":"Santa Cruz","tipo_area":"dis","poblacion_":41,"viviendas_":10,"tipo_pobla":" ","nombre_c_4":"Guiraita","Label":0}},{"type":"Feature","id":32,"geometry":{"type":"Point","coordinates":[-63.178312067597375,-19.303772645941919]},"properties":{"FID":32,"nombre_dep":"Santa Cruz","tipo_area":"dis","poblacion_":73,"viviendas_":14,"tipo_pobla":" ","nombre_c_4":"El Quebracho","Label":1}},{"type":"Feature","id":33,"geometry":{"type":"Point","coordinates":[-62.553569882923867,-19.317737952692625]},"properties":{"FID":33,"nombre_dep":"Santa Cruz","tipo_area":"dis","poblacion_":20,"viviendas_":7,"tipo_pobla":" ","nombre_c_4":"Kaa Okai","Label":0}},{"type":"Feature","id":34,"geometry":{"type":"Point","coordinates":[-63.140753886136238,-19.719619434262921]},"properties":{"FID":34,"nombre_dep":"Santa Cruz","tipo_area":"dis","poblacion_":462,"viviendas_":95,"tipo_pobla":" ","nombre_c_4":"Caipepe","Label":0}},{"type":"Feature","id":35,"geometry":{"type":"Point","coordinates":[-63.152450213173324,-20.025866779058358]},"properties":{"FID":35,"nombre_dep":"Santa Cruz","tipo_area":"dis","poblacion_":253,"viviendas_":56,"tipo_pobla":" ","nombre_c_4":"Pueblo Nuevo","Label":0}},{"type":"Feature","id":36,"geometry":{"type":"Point","coordinates":[-63.038278340424696,-19.998473549796522]},"properties":{"FID":36,"nombre_dep":"Santa Cruz","tipo_area":"dis","poblacion_":191,"viviendas_":52,"tipo_pobla":" ","nombre_c_4":"Floresta","Label":0}},{"type":"Feature","id":37,"geometry":{"type":"Point","coordinates":[-63.090656984009577,-19.97967892639231]},"properties":{"FID":37,"nombre_dep":"Santa Cruz","tipo_area":"dis","poblacion_":313,"viviendas_":86,"tipo_pobla":" ","nombre_c_4":"Tarenda","Label":0}},{"type":"Feature","id":38,"geometry":{"type":"Point","coordinates":[-63.274913317552439,-19.896573272716029]},"properties":{"FID":38,"nombre_dep":"Santa Cruz","tipo_area":"dis","poblacion_":60,"viviendas_":15,"tipo_pobla":" ","nombre_c_4":"Ibabiyuti","Label":0}},{"type":"Feature","id":39,"geometry":{"type":"Point","coordinates":[-63.279402286732015,-19.885995161194231]},"properties":{"FID":39,"nombre_dep":"Santa Cruz","tipo_area":"dis","poblacion_":30,"viviendas_":9,"tipo_pobla":" ","nombre_c_4":"Borebigua","Label":1}},{"type":"Feature","id":40,"geometry":{"type":"Point","coordinates":[-63.233418249462048,-19.523193655306656]},"properties":{"FID":40,"nombre_dep":"Santa Cruz","tipo_area":"dis","poblacion_":191,"viviendas_":58,"tipo_pobla":" ","nombre_c_4":"Saipuru","Label":0}},{"type":"Feature","id":41,"geometry":{"type":"Point","coordinates":[-62.538407471056182,-19.40239067025297]},"properties":{"FID":41,"nombre_dep":"Santa Cruz","tipo_area":"dis","poblacion_":406,"viviendas_":81,"tipo_pobla":" ","nombre_c_4":"Aguaraigua","Label":0}},{"type":"Feature","id":42,"geometry":{"type":"Point","coordinates":[-62.610462237866422,-19.633121944023237]},"properties":{"FID":42,"nombre_dep":"Santa Cruz","tipo_area":"dis","poblacion_":245,"viviendas_":44,"tipo_pobla":" ","nombre_c_4":"Kapeatindi","Label":0}},{"type":"Feature","id":43,"geometry":{"type":"Point","coordinates":[-62.575021251209719,-19.605541893681423]},"properties":{"FID":43,"nombre_dep":"Santa Cruz","tipo_area":"dis","poblacion_":689,"viviendas_":185,"tipo_pobla":" ","nombre_c_4":"Yapiroa","Label":1}},{"type":"Feature","id":44,"geometry":{"type":"Point","coordinates":[-63.222737451607628,-19.574605578434515]},"properties":{"FID":44,"nombre_dep":"Santa Cruz","tipo_area":"dis","poblacion_":96,"viviendas_":24,"tipo_pobla":" ","nombre_c_4":"San Isidro","Label":0}},{"type":"Feature","id":45,"geometry":{"type":"Point","coordinates":[-62.562319079829855,-19.549130209231471]},"properties":{"FID":45,"nombre_dep":"Santa Cruz","tipo_area":"dis","poblacion_":527,"viviendas_":112,"tipo_pobla":" ","nombre_c_4":"Ibasiriri","Label":1}},{"type":"Feature","id":46,"geometry":{"type":"Point","coordinates":[-62.563586031560916,-19.478427992780709]},"properties":{"FID":46,"nombre_dep":"Santa Cruz","tipo_area":"dis","poblacion_":335,"viviendas_":58,"tipo_pobla":" ","nombre_c_4":"Tamachindi","Label":0}},{"type":"Feature","id":47,"geometry":{"type":"Point","coordinates":[-63.162430287952958,-19.347400944129475]},"properties":{"FID":47,"nombre_dep":"Santa Cruz","tipo_area":"dis","poblacion_":173,"viviendas_":47,"tipo_pobla":" ","nombre_c_4":"Estación Aimiri","Label":0}},{"type":"Feature","id":48,"geometry":{"type":"Point","coordinates":[-63.280578087179755,-19.324974264776227]},"properties":{"FID":48,"nombre_dep":"Santa Cruz","tipo_area":"dis","poblacion_":69,"viviendas_":12,"tipo_pobla":" ","nombre_c_4":"Guariri","Label":1}},{"type":"Feature","id":49,"geometry":{"type":"Point","coordinates":[-62.476099996831195,-19.24969568626404]},"properties":{"FID":49,"nombre_dep":"Santa Cruz","tipo_area":"dis","poblacion_":274,"viviendas_":83,"tipo_pobla":" ","nombre_c_4":"Aguarati","Label":0}},{"type":"Feature","id":50,"geometry":{"type":"Point","coordinates":[-63.150243494591173,-19.74941626127821]},"properties":{"FID":50,"nombre_dep":"Santa Cruz","tipo_area":"dis","poblacion_":202,"viviendas_":51,"tipo_pobla":" ","nombre_c_4":"Guasuigua","Label":1}},{"type":"Feature","id":51,"geometry":{"type":"Point","coordinates":[-63.134445179922679,-19.698654056483264]},"properties":{"FID":51,"nombre_dep":"Santa Cruz","tipo_area":"dis","poblacion_":76,"viviendas_":14,"tipo_pobla":" ","nombre_c_4":"Chorito Alto","Label":0}},{"type":"Feature","id":52,"geometry":{"type":"Point","coordinates":[-62.63774487920562,-19.677703087913283]},"properties":{"FID":52,"nombre_dep":"Santa Cruz","tipo_area":"dis","poblacion_":101,"viviendas_":22,"tipo_pobla":" ","nombre_c_4":"Kopere Iguazu","Label":0}},{"type":"Feature","id":53,"geometry":{"type":"Point","coordinates":[-62.625094503497685,-19.650982195377097]},"properties":{"FID":53,"nombre_dep":"Santa Cruz","tipo_area":"dis","poblacion_":392,"viviendas_":85,"tipo_pobla":" ","nombre_c_4":"Kopere Brecha","Label":0}},{"type":"Feature","id":54,"geometry":{"type":"Point","coordinates":[-63.124271130366928,-19.648886958021183]},"properties":{"FID":54,"nombre_dep":"Santa Cruz","tipo_area":"dis","poblacion_":177,"viviendas_":54,"tipo_pobla":" ","nombre_c_4":"San Lorenzo","Label":0}},{"type":"Feature","id":55,"geometry":{"type":"Point","coordinates":[-62.230808031337368,-18.376691438973864]},"properties":{"FID":55,"nombre_dep":"Santa Cruz","tipo_area":"dis","poblacion_":26,"viviendas_":4,"tipo_pobla":" ","nombre_c_4":"Tierra Nueva","Label":0}},{"type":"Feature","id":56,"geometry":{"type":"Point","coordinates":[-62.118071147602315,-18.454903879400526]},"properties":{"FID":56,"nombre_dep":"Santa Cruz","tipo_area":"dis","poblacion_":47,"viviendas_":8,"tipo_pobla":" ","nombre_c_4":"Tentarembei","Label":0}},{"type":"Feature","id":57,"geometry":{"type":"Point","coordinates":[-62.294061576284022,-18.331802009020876]},"properties":{"FID":57,"nombre_dep":"Santa Cruz","tipo_area":"dis","poblacion_":103,"viviendas_":24,"tipo_pobla":" ","nombre_c_4":"Joseravi","Label":0}},{"type":"Feature","id":58,"geometry":{"type":"Point","coordinates":[-62.525084144487884,-19.433250113879662]},"properties":{"FID":58,"nombre_dep":"Santa Cruz","tipo_area":"dis","poblacion_":232,"viviendas_":44,"tipo_pobla":" ","nombre_c_4":"Rancho Viejo","Label":0}},{"type":"Feature","id":59,"geometry":{"type":"Point","coordinates":[-60.3274274585592,-18.989068742552785]},"properties":{"FID":59,"nombre_dep":"Santa Cruz","tipo_area":"dis","poblacion_":52,"viviendas_":15,"tipo_pobla":" ","nombre_c_4":"12 de Marzo","Label":0}},{"type":"Feature","id":60,"geometry":{"type":"Point","coordinates":[-62.042676742918047,-18.332684442476296]},"properties":{"FID":60,"nombre_dep":"Santa Cruz","tipo_area":"dis","poblacion_":49,"viviendas_":11,"tipo_pobla":" ","nombre_c_4":"Guirayurarenda","Label":0}},{"type":"Feature","id":61,"geometry":{"type":"Point","coordinates":[-62.396831798911734,-19.102158590218597]},"properties":{"FID":61,"nombre_dep":"Santa Cruz","tipo_area":"dis","poblacion_":74,"viviendas_":27,"tipo_pobla":" ","nombre_c_4":"Guandare","Label":0}},{"type":"Feature","id":62,"geometry":{"type":"Point","coordinates":[-62.560998042422632,-19.393876296865532]},"properties":{"FID":62,"nombre_dep":"Santa Cruz","tipo_area":"dis","poblacion_":118,"viviendas_":28,"tipo_pobla":" ","nombre_c_4":"Yuki","Label":0}},{"type":"Feature","id":63,"geometry":{"type":"Point","coordinates":[-63.320576985259322,-19.457748452412769]},"properties":{"FID":63,"nombre_dep":"Santa Cruz","tipo_area":"dis","poblacion_":87,"viviendas_":20,"tipo_pobla":" ","nombre_c_4":"Javillo","Label":1}},{"type":"Feature","id":64,"geometry":{"type":"Point","coordinates":[-62.868487123011619,-19.879194311307561]},"properties":{"FID":64,"nombre_dep":"Santa Cruz","tipo_area":"dis","poblacion_":22,"viviendas_":4,"tipo_pobla":" ","nombre_c_4":"Angua","Label":0}},{"type":"Feature","id":65,"geometry":{"type":"Point","coordinates":[-63.138168050658471,-20.023266838313106]},"properties":{"FID":65,"nombre_dep":"Santa Cruz","tipo_area":"dis","poblacion_":103,"viviendas_":29,"tipo_pobla":" ","nombre_c_4":"Casa Alta","Label":1}},{"type":"Feature","id":66,"geometry":{"type":"Point","coordinates":[-63.138788114702791,-19.988828104640216]},"properties":{"FID":66,"nombre_dep":"Santa Cruz","tipo_area":"dis","poblacion_":124,"viviendas_":37,"tipo_pobla":" ","nombre_c_4":"San Francisco","Label":0}},{"type":"Feature","id":67,"geometry":{"type":"Point","coordinates":[-63.093500116510846,-19.691890179123821]},"properties":{"FID":67,"nombre_dep":"Santa Cruz","tipo_area":"dis","poblacion_":11,"viviendas_":3,"tipo_pobla":" ","nombre_c_4":"Carandayty","Label":0}},{"type":"Feature","id":68,"geometry":{"type":"Point","coordinates":[-62.561292105348869,-19.505813578292354]},"properties":{"FID":68,"nombre_dep":"Santa Cruz","tipo_area":"dis","poblacion_":973,"viviendas_":175,"tipo_pobla":" ","nombre_c_4":"La Brecha","Label":1}},{"type":"Feature","id":69,"geometry":{"type":"Point","coordinates":[-63.214036997080754,-19.621211115691764]},"properties":{"FID":69,"nombre_dep":"Santa Cruz","tipo_area":"dis","poblacion_":106,"viviendas_":22,"tipo_pobla":" ","nombre_c_4":"Taputami","Label":1}},{"type":"Feature","id":70,"geometry":{"type":"Point","coordinates":[-63.201295980122239,-19.765872398859575]},"properties":{"FID":70,"nombre_dep":"Santa Cruz","tipo_area":"dis","poblacion_":13,"viviendas_":5,"tipo_pobla":" ","nombre_c_4":"IIaguazurenda","Label":0}},{"type":"Feature","id":71,"geometry":{"type":"Point","coordinates":[-62.689488711723847,-20.197478570287238]},"properties":{"FID":71,"nombre_dep":"Santa Cruz","tipo_area":"dis","poblacion_":29,"viviendas_":7,"tipo_pobla":" ","nombre_c_4":"Cruce de los Guanaco","Label":0}},{"type":"Feature","id":72,"geometry":{"type":"Point","coordinates":[-63.178634100583089,-19.839098411074829]},"properties":{"FID":72,"nombre_dep":"Santa Cruz","tipo_area":"dis","poblacion_":327,"viviendas_":61,"tipo_pobla":" ","nombre_c_4":"Machipo","Label":0}},{"type":"Feature","id":73,"geometry":{"type":"Point","coordinates":[-63.295013054884116,-19.845566837286938]},"properties":{"FID":73,"nombre_dep":"Santa Cruz","tipo_area":"dis","poblacion_":53,"viviendas_":24,"tipo_pobla":" ","nombre_c_4":"IIayu","Label":0}},{"type":"Feature","id":74,"geometry":{"type":"Point","coordinates":[-63.139252699073538,-19.798715141840052]},"properties":{"FID":74,"nombre_dep":"Santa Cruz","tipo_area":"dis","poblacion_":41,"viviendas_":9,"tipo_pobla":" ","nombre_c_4":"Rincon Chico","Label":0}},{"type":"Feature","id":75,"geometry":{"type":"Point","coordinates":[-62.836243846091868,-19.826467242466528]},"properties":{"FID":75,"nombre_dep":"Santa Cruz","tipo_area":"dis","poblacion_":2917,"viviendas_":465,"tipo_pobla":" ","nombre_c_4":"Durango","Label":1}},{"type":"Feature","id":76,"geometry":{"type":"Point","coordinates":[-63.194667317839475,-19.719137270094247]},"properties":{"FID":76,"nombre_dep":"Santa Cruz","tipo_area":"dis","poblacion_":143,"viviendas_":38,"tipo_pobla":" ","nombre_c_4":"Piriti","Label":0}},{"type":"Feature","id":77,"geometry":{"type":"Point","coordinates":[-62.816970186730721,-18.443729921937461]},"properties":{"FID":77,"nombre_dep":"Santa Cruz","tipo_area":"dis","poblacion_":129,"viviendas_":19,"tipo_pobla":" ","nombre_c_4":"Nueva Esperanza","Label":0}},{"type":"Feature","id":78,"geometry":{"type":"Point","coordinates":[-63.194972519651778,-19.751437361219153]},"properties":{"FID":78,"nombre_dep":"Santa Cruz","tipo_area":"dis","poblacion_":352,"viviendas_":83,"tipo_pobla":" ","nombre_c_4":"Capiguazuti","Label":0}},{"type":"Feature","id":79,"geometry":{"type":"Point","coordinates":[-63.255572811993709,-19.394855790616045]},"properties":{"FID":79,"nombre_dep":"Santa Cruz","tipo_area":"dis","poblacion_":349,"viviendas_":80,"tipo_pobla":" ","nombre_c_4":"Igmiri","Label":1}},{"type":"Feature","id":80,"geometry":{"type":"Point","coordinates":[-63.277231383328086,-19.359279685266692]},"properties":{"FID":80,"nombre_dep":"Santa Cruz","tipo_area":"dis","poblacion_":128,"viviendas_":24,"tipo_pobla":" ","nombre_c_4":"Yaraeta","Label":0}},{"type":"Feature","id":81,"geometry":{"type":"Point","coordinates":[-63.279501607732165,-19.370245866740657]},"properties":{"FID":81,"nombre_dep":"Santa Cruz","tipo_area":"dis","poblacion_":275,"viviendas_":57,"tipo_pobla":" ","nombre_c_4":"Masavi","Label":0}},{"type":"Feature","id":82,"geometry":{"type":"Point","coordinates":[-63.187426344317878,-20.011943476541344]},"properties":{"FID":82,"nombre_dep":"Santa Cruz","tipo_area":"cp","poblacion_":1200,"viviendas_":277,"tipo_pobla":" ","nombre_c_4":"San Antonio de Parapeti","Label":1}},{"type":"Feature","id":83,"geometry":{"type":"Point","coordinates":[-63.14822141738594,-19.783712768979818]},"properties":{"FID":83,"nombre_dep":"Santa Cruz","tipo_area":"cp","poblacion_":1751,"viviendas_":386,"tipo_pobla":" ","nombre_c_4":"Charagua (la estacion)","Label":0}},{"type":"Feature","id":84,"geometry":{"type":"Point","coordinates":[-62.528226051975096,-19.175894679576892]},"properties":{"FID":84,"nombre_dep":"Santa Cruz","tipo_area":"dis","poblacion_":565,"viviendas_":91,"tipo_pobla":" ","nombre_c_4":"Cuarirenda","Label":1}},{"type":"Feature","id":85,"geometry":{"type":"Point","coordinates":[-62.730478315028137,-19.833385977687534]},"properties":{"FID":85,"nombre_dep":"Santa Cruz","tipo_area":"dis","poblacion_":229,"viviendas_":49,"tipo_pobla":" ","nombre_c_4":"Isiporenda","Label":0}},{"type":"Feature","id":86,"geometry":{"type":"Point","coordinates":[-63.150211882858095,-20.26172857595639]},"properties":{"FID":86,"nombre_dep":"Santa Cruz","tipo_area":"dis","poblacion_":137,"viviendas_":34,"tipo_pobla":" ","nombre_c_4":"Itatiqui","Label":0}},{"type":"Feature","id":87,"geometry":{"type":"Point","coordinates":[-62.712974842881245,-19.800875956051961]},"properties":{"FID":87,"nombre_dep":"Santa Cruz","tipo_area":"dis","poblacion_":87,"viviendas_":19,"tipo_pobla":" ","nombre_c_4":"Karapari","Label":0}},{"type":"Feature","id":88,"geometry":{"type":"Point","coordinates":[-62.568246346523033,-19.440306775284192]},"properties":{"FID":88,"nombre_dep":"Santa Cruz","tipo_area":"dis","poblacion_":941,"viviendas_":200,"tipo_pobla":" ","nombre_c_4":"Rancho Nuevo","Label":1}},{"type":"Feature","id":89,"geometry":{"type":"Point","coordinates":[-63.227595679711982,-19.632182939817444]},"properties":{"FID":89,"nombre_dep":"Santa Cruz","tipo_area":"dis","poblacion_":335,"viviendas_":66,"tipo_pobla":" ","nombre_c_4":"Akae","Label":1}},{"type":"Feature","id":90,"geometry":{"type":"Point","coordinates":[-60.785864852312621,-18.310602001666027]},"properties":{"FID":90,"nombre_dep":" ","tipo_area":" ","poblacion_":0,"viviendas_":0,"tipo_pobla":" ","nombre_c_4":"25 De Noviembre","Label":0}},{"type":"Feature","id":91,"geometry":{"type":"Point","coordinates":[-60.549952401654899,-19.429095435603632]},"properties":{"FID":91,"nombre_dep":" ","tipo_area":" ","poblacion_":0,"viviendas_":0,"tipo_pobla":" ","nombre_c_4":"Guadalupe Del Palmar","Label":0}},{"type":"Feature","id":92,"geometry":{"type":"Point","coordinates":[-60.265479019915311,-19.051834154123458]},"properties":{"FID":92,"nombre_dep":" ","tipo_area":" ","poblacion_":0,"viviendas_":0,"tipo_pobla":" ","nombre_c_4":"E. Ganadera Santa Adriana","Label":0}},{"type":"Feature","id":93,"geometry":{"type":"Point","coordinates":[-60.404800404533837,-18.646458638292042]},"properties":{"FID":93,"nombre_dep":" ","tipo_area":" ","poblacion_":0,"viviendas_":0,"tipo_pobla":" ","nombre_c_4":"E Ganadera Represa","Label":0}},{"type":"Feature","id":94,"geometry":{"type":"Point","coordinates":[-60.401688839613314,-18.609289232079838]},"properties":{"FID":94,"nombre_dep":" ","tipo_area":" ","poblacion_":0,"viviendas_":0,"tipo_pobla":" ","nombre_c_4":"E Ganadera Retiro","Label":0}},{"type":"Feature","id":95,"geometry":{"type":"Point","coordinates":[-60.277088401765823,-18.832405885549036]},"properties":{"FID":95,"nombre_dep":" ","tipo_area":" ","poblacion_":0,"viviendas_":0,"tipo_pobla":" ","nombre_c_4":"E Ganadera Ripio Blanco","Label":0}},{"type":"Feature","id":96,"geometry":{"type":"Point","coordinates":[-60.582748374139804,-18.54078415709488]},"properties":{"FID":96,"nombre_dep":" ","tipo_area":" ","poblacion_":0,"viviendas_":0,"tipo_pobla":" ","nombre_c_4":"E Ganadera San Antonio","Label":0}},{"type":"Feature","id":97,"geometry":{"type":"Point","coordinates":[-60.621962276736888,-19.295015583814461]},"properties":{"FID":97,"nombre_dep":" ","tipo_area":" ","poblacion_":0,"viviendas_":0,"tipo_pobla":" ","nombre_c_4":"Fortín Ravelo","Label":0}},{"type":"Feature","id":98,"geometry":{"type":"Point","coordinates":[-60.276623352923671,-19.061474524595379]},"properties":{"FID":98,"nombre_dep":" ","tipo_area":" ","poblacion_":0,"viviendas_":0,"tipo_pobla":" ","nombre_c_4":"P.M.A. Sgto. Franz Muriel","Label":0}},{"type":"Feature","id":99,"geometry":{"type":"Point","coordinates":[-60.670813125596375,-18.528671269776819]},"properties":{"FID":99,"nombre_dep":" ","tipo_area":" ","poblacion_":0,"viviendas_":0,"tipo_pobla":" ","nombre_c_4":"Estación Petrolera Chiquitos","Label":0}}]}