{"type":"FeatureCollection","features":[{"type":"Feature","id":0,"geometry":{"type":"Polygon","coordinates":[[[-66.932372625935926,-13.524928096819613],[-66.95597988237752,-13.546278125989955],[-66.979591276983129,-13.567624730870564],[-67.00152553403224,-13.571983006941069],[-67.023460059690152,-13.576339123223137],[-66.99472737891135,-13.605339372804687],[-66.995149288008307,-13.63043485417081],[-67.01323835238874,-13.641493341983848],[-67.020451454880288,-13.665736983651733],[-67.027666694966797,-13.689979971318182],[-67.034884076923959,-13.714222303737179],[-67.04210360503042,-13.738463979662066],[-67.057105890039864,-13.745081739024378],[-67.05069281904666,-13.769163409256009],[-67.085564481018565,-13.779602596784944],[-67.120437950214523,-13.79003595116381],[-67.120771818275216,-13.807421996906973],[-67.095447175204455,-13.826539914523739],[-67.119043740394204,-13.8383546571294],[-67.121569476069723,-13.865198515032731],[-67.103770093362172,-13.875215138014136],[-67.127137063123143,-13.880398806281448],[-67.150504457640423,-13.885579939024872],[-67.168161031832511,-13.913902813833401],[-67.136265358785451,-13.918214851077607],[-67.142599166623512,-13.943790560010859],[-67.148935150143487,-13.969365675636508],[-67.155273313620583,-13.99494019690489],[-67.161613661333362,-14.020514122765658],[-67.132973431292967,-14.030557762853523],[-67.127790723062645,-14.071254868618992],[-67.139080709150107,-14.072523889080179],[-67.114488484318528,-14.109042691251902],[-67.147568778908081,-14.115593388856066],[-67.180649715904281,-14.122138996135062],[-67.193480784054756,-14.145770687494906],[-67.18460860422536,-14.165122767327261],[-67.197081303671467,-14.184240415503265],[-67.209556381044493,-14.203356811260303],[-67.222033840347706,-14.222471951853125],[-67.234513685585455,-14.241585834535792],[-67.268403393266453,-14.244923113585997],[-67.278993369242201,-14.279630599478235],[-67.289588032373345,-14.314336632164173],[-67.309310106474669,-14.322963539409887],[-67.3290333095173,-14.331588373065104],[-67.308780076012425,-14.343568068316525],[-67.288524356804572,-14.355546618719947],[-67.262379164288561,-14.343321124288858],[-67.236236175833014,-14.331091938864168],[-67.210095393477715,-14.318859069912053],[-67.18395681925746,-14.306622524901476],[-67.182127015206049,-14.340463958772032],[-67.197271374185647,-14.363806933860294],[-67.212419305646321,-14.387148047149488],[-67.186943443654528,-14.38810902704363],[-67.161466581414629,-14.389067307966716],[-67.135988724240548,-14.390022889183264],[-67.110509877447456,-14.390975769960377],[-67.074912194436664,-14.378476581808949],[-67.07122228856538,-14.409861931427981],[-67.090810009241466,-14.424862330768592],[-67.110400191265683,-14.43986038990289],[-67.084710584861924,-14.463134866656898],[-67.06568450650802,-14.453156071035821],[-67.046659833016079,-14.443175280784939],[-67.027636564778845,-14.433192499145044],[-67.008614702187558,-14.423207729357545],[-66.987735906302674,-14.426251461235895],[-66.966856051563411,-14.429293482407571],[-66.96407682250377,-14.452026380813795],[-66.949637062119137,-14.452892404605933],[-66.940601521106402,-14.432007138132732],[-66.931568100564206,-14.411121067876509],[-66.898349895559875,-14.412664127720882],[-66.900397494298815,-14.458516717515433],[-66.929435470878488,-14.471013365273773],[-66.958475942522142,-14.48350558253294],[-66.97240628028807,-14.513470835111601],[-66.999063262529432,-14.511728790663065],[-67.025719011768587,-14.50998381138675],[-67.036871478743308,-14.546502588676576],[-67.021540142387948,-14.566008001838799],[-66.992766317852187,-14.56927728423986],[-66.963990704063079,-14.57254322488895],[-66.966607868594579,-14.629484589561629],[-66.94718285282211,-14.675852103004061],[-66.927751760499362,-14.722219886569029],[-66.955678026691743,-14.738380641703705],[-66.959925023840768,-14.769415917152111],[-66.942645838340539,-14.781935920980981],[-66.925364513124336,-14.794455104354441],[-66.932653589167529,-14.815396309318135],[-66.939944534915014,-14.836336909106734],[-66.947237353602901,-14.857276902646692],[-66.954532048469218,-14.878216288864001],[-66.928311955318193,-14.881792244220575],[-66.917168698788984,-14.914242662756717],[-66.906023196953001,-14.946693278217323],[-66.876960084594131,-14.965136091228764],[-66.847891441912509,-14.98357635414899],[-66.82944978622956,-14.983887350590358],[-66.808504461582004,-14.961685250905642],[-66.806959870222386,-14.922897438590738],[-66.805417567939216,-14.88410938321247],[-66.78282128848177,-14.865377718798975],[-66.76022877108305,-14.846642879987694],[-66.737640011526906,-14.827904875456582],[-66.715055005594294,-14.809163713883331],[-66.703037263248419,-14.782079918066684],[-66.69102318153476,-14.754994752577108],[-66.679012751845619,-14.72790822109959],[-66.667005965579023,-14.700820327317256],[-66.642830580161089,-14.685630916460635],[-66.620947745288063,-14.684729416168173],[-66.599064593625357,-14.683825804457868],[-66.577181128573244,-14.682920081632972],[-66.55529735353204,-14.682012247998266],[-66.549481891236809,-14.647818279852379],[-66.543669461155517,-14.613623679681021],[-66.509107316441387,-14.610761587106385],[-66.483894711342401,-14.622698970585837],[-66.458678886915493,-14.634634209372942],[-66.446768100059842,-14.615125150406515],[-66.434859679218661,-14.595614994270225],[-66.4229536202849,-14.576103743527028],[-66.411049919152944,-14.556591400739096],[-66.39537593710898,-14.553042365918831],[-66.361123895083537,-14.568251712168154],[-66.336402533682175,-14.598027885640105],[-66.311674810074777,-14.627802780640904],[-66.303351991182282,-14.605942651918189],[-66.295031234495013,-14.584081846110889],[-66.286712536057195,-14.562220364663569],[-66.278395891915409,-14.540358209020216],[-66.245063632621182,-14.549954514320472],[-66.229353466828229,-14.575131371738024],[-66.207249964980264,-14.575435990882459],[-66.190241492070328,-14.559968520260906],[-66.173235362421948,-14.544499310205881],[-66.156231573529539,-14.529028364797028],[-66.139230122886858,-14.513555688113641],[-66.105081222616363,-14.510540161108894],[-66.070932217652725,-14.507519467284052],[-66.046255642906885,-14.521960450656348],[-66.051658771203137,-14.564959294562337],[-66.089854493259196,-14.573954404932524],[-66.128052101633571,-14.582942641661667],[-66.149463118039776,-14.609490338435785],[-66.170879546525782,-14.636034984094929],[-66.144249633130173,-14.642528960294653],[-66.117617547939744,-14.649020190430525],[-66.090983295833198,-14.655508670138694],[-66.064346881692927,-14.661994395057413],[-66.065263105546094,-14.735365246752599],[-66.036054107460018,-14.749157225571212],[-66.006840852500261,-14.762946192474764],[-66.003245633329087,-14.776819472263998],[-66.038004669046231,-14.768898090825589],[-66.072760184503906,-14.760971940563005],[-66.107512168510709,-14.753041030566186],[-66.142260609885426,-14.745105369931549],[-66.166975768859942,-14.733525205840667],[-66.191687883047322,-14.721942906033478],[-66.216396951114803,-14.710358477117579],[-66.241102971733184,-14.698771925700795],[-66.256087346625023,-14.710423105895662],[-66.271073240395182,-14.722072978324457],[-66.286060653991996,-14.733721540609928],[-66.301049588363199,-14.745368790374775],[-66.316040044455988,-14.757014725241717],[-66.33103202321692,-14.768659342833461],[-66.346025525592012,-14.780302640772698],[-66.361020552526668,-14.791944616682148],[-66.386576254050439,-14.801582422239164],[-66.412133681285468,-14.811216900003251],[-66.437692831086636,-14.820848044349239],[-66.463253700305089,-14.830475849654645],[-66.478427266199077,-14.847100098329721],[-66.493603221515372,-14.8637228190975],[-66.520706214723504,-14.86958658952172],[-66.547809971824961,-14.875446825340271],[-66.574914487180465,-14.88130352278657],[-66.602019755148135,-14.887156678097805],[-66.623254123909405,-14.91554858933287],[-66.590917014080716,-14.936671125417373],[-66.558572969257185,-14.957790443705539],[-66.52575241024141,-14.957380356030074],[-66.492930889535387,-14.956965506336148],[-66.476182022461273,-14.948250403106204],[-66.459434312764742,-14.939533771699162],[-66.442687760721014,-14.930815614315764],[-66.425942366604346,-14.922095933157106],[-66.409198130688111,-14.913374730424655],[-66.39245505324476,-14.904652008320237],[-66.375713134545833,-14.895927769046077],[-66.358972374861935,-14.887202014804759],[-66.33305969204487,-14.866221745566483],[-66.307151834587913,-14.84523747256055],[-66.296916867487553,-14.82631138709989],[-66.286683943320185,-14.807384453101056],[-66.266199388454808,-14.798799920546845],[-66.24571613017568,-14.790213227651472],[-66.222038403121317,-14.801926629536233],[-66.220069294215634,-14.848075937608925],[-66.235681789204179,-14.867122899083187],[-66.251297160529219,-14.886168217454742],[-66.26691541274613,-14.9052118884624],[-66.282536550410953,-14.924253907844067],[-66.256078290140238,-14.929117886084043],[-66.229618206644403,-14.933979032420964],[-66.208906334085441,-14.92911779246162],[-66.188195024410589,-14.924254484599679],[-66.167484280060179,-14.919389110675436],[-66.146774103473604,-14.914521672530459],[-66.134907029859335,-14.946959462910336],[-66.123037253867579,-14.979397248228262],[-66.111164763302412,-15.011835024065059],[-66.099289545957575,-15.044272785999956],[-66.135225891735416,-15.044751034531057],[-66.14894460514455,-15.006535305046656],[-66.186612387745782,-14.992037852629068],[-66.224273990891248,-14.977535136836989],[-66.239969989958666,-14.988816921438891],[-66.255667535023179,-15.00009728380884],[-66.271366626833199,-15.011376221425373],[-66.287067266136376,-15.022653731767061],[-66.311704672119049,-15.030628799780265],[-66.336343402300528,-15.03860081201695],[-66.36098345330204,-15.046569764168259],[-66.38562482174197,-15.05453565192775],[-66.399818721582889,-15.089790694021499],[-66.37572157404071,-15.099811956446635],[-66.351621700976153,-15.109831104111207],[-66.325651945841003,-15.10570555358615],[-66.299682573257698,-15.101576808296956],[-66.27371358855504,-15.097444870647857],[-66.247744997060394,-15.093309743046238],[-66.237314370965336,-15.136101527800886],[-66.248111734287335,-15.18257442644609],[-66.258915854019861,-15.229045713561904],[-66.254144966970458,-15.285765363104069],[-66.231766688556959,-15.297171074942623],[-66.20938564648749,-15.308575002702419],[-66.187001841262301,-15.319977141050224],[-66.164615273384271,-15.33137748465278],[-66.164107652436186,-15.387650401990587],[-66.137922868735131,-15.408514311055939],[-66.145664563075727,-15.431295456682136],[-66.153408392054232,-15.45407597558181],[-66.136636638314556,-15.468550663087926],[-66.119862495010665,-15.483024494880857],[-66.103085959941509,-15.497497467172279],[-66.086307030906127,-15.51196957617319],[-66.061165295962056,-15.507460057701664],[-66.036024123343708,-15.502947472153958],[-66.020323502279979,-15.475198094026968],[-65.988565804586059,-15.477930320544443],[-65.976418470917551,-15.516423690894017],[-65.964267832697431,-15.554917068489402],[-65.936511273685753,-15.555295214016613],[-65.908753969598976,-15.555669872640399],[-65.89974936268564,-15.56826564764196],[-65.881664909164883,-15.6044695744955],[-65.896479730536555,-15.622716609900147],[-65.911297291894201,-15.640962171110544],[-65.926117597294876,-15.659206254448289],[-65.940940650796307,-15.677448856234145],[-65.916457700948882,-15.699007772664567],[-65.884995258300592,-15.699484107303077],[-65.853531858223661,-15.699955926736321],[-65.850086656608525,-15.723432772846214],[-65.875517016088935,-15.735895381413135],[-65.900950087218547,-15.74835448753284],[-65.926385868566371,-15.7608100839367],[-65.951824358696527,-15.77326216335811],[-65.951103218591413,-15.797338081315068],[-65.924452787938847,-15.804887716114832],[-65.89779983760161,-15.812434403278585],[-65.897769290718102,-15.826567152439303],[-65.921768484803735,-15.841403703865591],[-65.945770909266713,-15.856236983869497],[-65.969776564939238,-15.871066984712931],[-65.993785452649206,-15.885893698658677],[-65.994171703664762,-15.941652298744062],[-65.964499990668173,-15.96586189458038],[-65.937993596897371,-15.971354852063682],[-65.91148519588954,-15.976844777196643],[-65.884974792835493,-15.982331666302146],[-65.858462392929553,-15.987815515705622],[-65.838728333312972,-16.023810363764582],[-65.82059431519923,-16.031184394402697],[-65.802458744844898,-16.038557097837433],[-65.797679510474438,-16.102700402289809],[-65.78074988659597,-16.094396562719261],[-65.7638215054927,-16.086091152535143],[-65.746894367578633,-16.077784173885174],[-65.729968473266837,-16.069475628917509],[-65.696866683108709,-16.077717351052467],[-65.683314302970714,-16.138415665310827],[-65.711149119877973,-16.148033149351136],[-65.713183207060879,-16.163019911723243],[-65.732449826820101,-16.166362984444913],[-65.751716817811868,-16.169704209625049],[-65.75647564673973,-16.202753417386969],[-65.739727610198543,-16.213994495826057],[-65.722977557865917,-16.225234531713443],[-65.69197800317589,-16.226766826494345],[-65.660977239066753,-16.228294655653094],[-65.649370126437191,-16.249870714511008],[-65.66901202085208,-16.259695123644789],[-65.688655658528987,-16.269517408509277],[-65.708301038899137,-16.279337565681367],[-65.727948161392035,-16.289155591738645],[-65.737672950068983,-16.32032968392696],[-65.747401558092847,-16.351502776792138],[-65.735770799283671,-16.37462495822847],[-65.724137631559586,-16.397746866160265],[-65.6961531825782,-16.414642160309555],[-65.68126368359124,-16.441189336432203],[-65.666370533904427,-16.467735991616891],[-65.648873824840322,-16.477631323823978],[-65.631375185465487,-16.487525440987618],[-65.613874615665466,-16.497418340287687],[-65.596372115326844,-16.507310018903983],[-65.568709468313784,-16.500761398245295],[-65.541048166213315,-16.494208845052746],[-65.525521398007996,-16.471613051588907],[-65.509998453699509,-16.449015561527041],[-65.486412110688946,-16.440839309817243],[-65.486195700363083,-16.475079580091009],[-65.504605898813097,-16.49595753693572],[-65.523020144605084,-16.516833289515731],[-65.541438444142543,-16.537706831339825],[-65.559860803829892,-16.558578155915146],[-65.547358786009269,-16.574179975663817],[-65.534854826020052,-16.589781302401267],[-65.548242165969654,-16.616888195252738],[-65.561633708926706,-16.643993639368922],[-65.549550743559038,-16.68268394285845],[-65.533258229905982,-16.696003076107253],[-65.516963400930706,-16.709321217951302],[-65.491106605376231,-16.708554153526158],[-65.465249549110951,-16.707783822394415],[-65.456559361044143,-16.668825536782197],[-65.447873772031244,-16.629866285626726],[-65.430199990025869,-16.615141265225599],[-65.412528852535701,-16.600414364373329],[-65.394860357367079,-16.585685587264066],[-65.377194502325437,-16.570954938091671],[-65.358033285787783,-16.579065499019645],[-65.33887026477376,-16.587174494359125],[-65.321288126915434,-16.63227661975489],[-65.338697720621312,-16.651022941285959],[-65.356110755418214,-16.669767338361584],[-65.352212378994039,-16.724792138255836],[-65.369131172661668,-16.734298398980059],[-65.386051520688355,-16.743803048988816],[-65.40297342305557,-16.753306085815517],[-65.419896879743789,-16.76280750699388],[-65.418463740936375,-16.807821359026139],[-65.437143949643328,-16.832739546550794],[-65.420511687531004,-16.846200620348814],[-65.403877014253027,-16.859660632676153],[-65.374213467649383,-16.858622667318748],[-65.361063235517193,-16.844282051144909],[-65.347915019642315,-16.829940323128071],[-65.335357091018352,-16.834907087131903],[-65.324376355510466,-16.869118700166954],[-65.313392406596492,-16.903330110045442],[-65.325815748944052,-16.935917728847393],[-65.338244022782916,-16.968503967212108],[-65.318039332611633,-16.992781635576382],[-65.297829581897787,-17.017057881529187],[-65.264789290123872,-17.013972717368112],[-65.245601988976816,-16.987245768273159],[-65.226420384102923,-16.960516300282244],[-65.233578066584158,-16.926272085143598],[-65.240733919088768,-16.892027820578999],[-65.261301002566327,-16.862187574503579],[-65.281861965240907,-16.832345963395831],[-65.302416823932745,-16.802502999029961],[-65.322965595450043,-16.772658693174428],[-65.319977727391702,-16.737177917231538],[-65.300445296097408,-16.709367827059832],[-65.280918821893124,-16.681555118154751],[-65.264141742332484,-16.679931276145574],[-65.24749377161676,-16.7107840570985],[-65.230840915503606,-16.741636059997397],[-65.207595831064296,-16.742865526332494],[-65.184350113866003,-16.744092406620762],[-65.171527277061216,-16.727399697980829],[-65.170629124455886,-16.666570142570702],[-65.155733494151335,-16.66675906819863],[-65.134169996156814,-16.672168101140294],[-65.122913956113933,-16.71199013895361],[-65.142357285084387,-16.732650404892087],[-65.161804858531198,-16.753308315219201],[-65.18125668281597,-16.773963862771922],[-65.200712764300746,-16.794617040385553],[-65.20548182036822,-16.824223790201653],[-65.210252931378164,-16.853830175354588],[-65.185675765892384,-16.862166407847234],[-65.161096118536975,-16.870499936610969],[-65.143612770783321,-16.8362671878626],[-65.126136290304999,-16.802032123151434],[-65.108666656834487,-16.767794752240764],[-65.09120385012227,-16.73355508488762],[-65.072851357123412,-16.734259433486372],[-65.073349532698572,-16.762906448923633],[-65.083252252965806,-16.783717538563188],[-65.093157348303805,-16.804527870875663],[-65.103064823009746,-16.825337443947809],[-65.112974681383221,-16.846146255865598],[-65.122886927726285,-16.866954304714234],[-65.132801566343389,-16.887761588578154],[-65.142718601541432,-16.908568105541043],[-65.152638037629757,-16.929373853685817],[-65.153615219924404,-17.015263157334328],[-65.120476310961266,-17.017318783180773],[-65.087336028536626,-17.019369085538749],[-65.076493795527796,-16.994323552771938],[-65.06565477094388,-16.969277068847717],[-65.046147384224398,-16.96570062432183],[-65.026640526520836,-16.962122231242311],[-65.017260953870178,-16.926670468083536],[-65.003271613823813,-16.939600865369762],[-64.989280351570727,-16.952530491553748],[-64.975287165474796,-16.965459344287389],[-64.961292053899868,-16.978387421222155],[-64.947295015209733,-16.991314720009125],[-64.933296047768181,-17.004241238298963],[-64.919295149938961,-17.017166973741926],[-64.905292320085792,-17.030091923987868],[-64.872511292027212,-17.026267543057589],[-64.83973104244906,-17.022437740566176],[-64.829725339952375,-17.002416250813084],[-64.81972193518736,-16.982394026284819],[-64.789736927798359,-16.978232825565744],[-64.759752802096756,-16.974067084461705],[-64.744203449146099,-16.986718545371307],[-64.72865197577498,-16.999368996247313],[-64.718324528113712,-17.094558028821005],[-64.68868834461432,-17.094076299194622],[-64.661731241893634,-17.075834285948005],[-64.63477921321568,-17.057588199405156],[-64.601819556603516,-17.060071223152107],[-64.587077241507799,-17.081630474024681],[-64.57233166206521,-17.10318889089622],[-64.557582811935802,-17.12474646939858],[-64.542830684776305,-17.146303205162074],[-64.523336952715439,-17.148680064956814],[-64.503842565069547,-17.151055082287307],[-64.484347524172463,-17.15342825629504],[-64.464851832358619,-17.155799586122459],[-64.466828872059025,-17.107359948244635],[-64.489948961237204,-17.094597875418739],[-64.513065750732906,-17.081833394671797],[-64.536179240581319,-17.069066512322337],[-64.559289430820954,-17.056297234688966],[-64.554175980670024,-17.017692958638779],[-64.532098182513991,-16.991968676576747],[-64.510026506459951,-16.966241450911664],[-64.51668274335735,-16.935673958970522],[-64.542942942774786,-16.921822941143862],[-64.566036056414831,-16.939137805446112],[-64.589133305812538,-16.956449677737748],[-64.621969400629879,-16.962046605410741],[-64.654806965537787,-16.967638075262329],[-64.676150229503804,-16.957721421453297],[-64.697491088359769,-16.947802724159629],[-64.696177770213623,-16.916999627998006],[-64.685170465445594,-16.898688677881363],[-64.674165400322082,-16.880376913712105],[-64.663162571321905,-16.86206433754894],[-64.652161974925363,-16.843750951449923],[-64.626634464596364,-16.868977411711267],[-64.601100189918682,-16.894201219605598],[-64.579497385529933,-16.888969675949095],[-64.568502933986451,-16.864752169620214],[-64.557511509669766,-16.840533784266853],[-64.555173570725074,-16.778776954987492],[-64.552838935685088,-16.717019617123061],[-64.531222351781452,-16.720906906608054],[-64.509604697570566,-16.724792004301388],[-64.493410966152524,-16.736302317723244],[-64.477215238775074,-16.74781150435674],[-64.45637347916167,-16.743386774054795],[-64.435532513631372,-16.738959860795354],[-64.435414726544053,-16.703065063591918],[-64.453665766692879,-16.662177456661929],[-64.471909654957543,-16.62128869701975],[-64.462155281764737,-16.599376653954792],[-64.452403293516895,-16.577463932731202],[-64.442653685498911,-16.555550535310797],[-64.432906452998452,-16.533636463654599],[-64.412422021015288,-16.534125346502069],[-64.391937319178936,-16.534612225716515],[-64.373663719075225,-16.558262428484717],[-64.355385761884307,-16.581911310494114],[-64.341621582472015,-16.556848886839891],[-64.3278611459167,-16.531785234992455],[-64.327468948108091,-16.474313687898633],[-64.313298494859254,-16.469028777934838],[-64.300189118599178,-16.487493932429345],[-64.287077326675032,-16.50595841079382],[-64.273963115056034,-16.524422210073794],[-64.260846479709798,-16.542885327313918],[-64.254981359522532,-16.495464787391363],[-64.249119939294957,-16.448043676828568],[-64.261619980318386,-16.424575430731917],[-64.274117175123436,-16.40110659788828],[-64.286611530381862,-16.377637181737235],[-64.299103052761282,-16.354167185717092],[-64.334439382618854,-16.363379901002723],[-64.360126836322621,-16.38399093428507],[-64.385819614783969,-16.404598383800494],[-64.403030418048431,-16.368982940526529],[-64.404372223405389,-16.257838113543112],[-64.422688250641627,-16.246401414022124],[-64.441002080535114,-16.234963287802621],[-64.459313713640583,-16.223523738435695],[-64.47762315051402,-16.212082769472335],[-64.490606614907833,-16.174685931335294],[-64.503585751638354,-16.137288583442267],[-64.501201027925276,-16.067260855558541],[-64.475197669967201,-16.067441644172064],[-64.463354607975759,-16.098953684593127],[-64.451508188489328,-16.130465287583533],[-64.42223314190997,-16.149970149043721],[-64.392952174725863,-16.169471410970349],[-64.363665283253837,-16.188969057889139],[-64.33437246381807,-16.208463074324193],[-64.325187216132008,-16.235821906769853],[-64.315999696931087,-16.263180460848716],[-64.28476070412384,-16.263039341451826],[-64.253521402487337,-16.262893609166934],[-64.26234270313455,-16.300326374863175],[-64.27116786361448,-16.337758407476908],[-64.242464694224921,-16.342626825891838],[-64.213759823179359,-16.347491431473355],[-64.179575797402151,-16.335403479458563],[-64.178599587701854,-16.482270483409589],[-64.15754272235101,-16.515100844209073],[-64.119325723613386,-16.516980727383345],[-64.081107527443834,-16.518853661610759],[-64.061387158578214,-16.49505132712186],[-64.057471742945779,-16.459694616361013],[-64.053558142029956,-16.424337632843837],[-64.068851336236165,-16.413197639964395],[-64.084142758597281,-16.402056624702645],[-64.099432409971101,-16.390914589466636],[-64.11472029121596,-16.379771536664215],[-64.111706265679601,-16.33731055077244],[-64.0925334118417,-16.323007462626183],[-64.067596822984939,-16.328848460502272],[-64.042658577210773,-16.334686595403031],[-64.017718678707652,-16.340521863952688],[-63.992777131666848,-16.346354262777648],[-63.96738386260148,-16.370897901181479],[-63.953951781206115,-16.407305212691728],[-63.940515036524388,-16.443711804173319],[-63.918001715703475,-16.448593788353396],[-63.895487144556235,-16.453473409238409],[-63.872971326267191,-16.458350664530609],[-63.850454264022574,-16.463225551933778],[-63.839823426792968,-16.49355648600238],[-63.848149902097767,-16.535424359881482],[-63.812975332384227,-16.547912904831541],[-63.777795989610986,-16.560395702081838],[-63.776971187280623,-16.606299930408905],[-63.790078646500632,-16.622612051461427],[-63.803188346114752,-16.638923224773553],[-63.803368120884194,-16.682033613546089],[-63.7839527992206,-16.715209732675838],[-63.764530942925653,-16.748384206045262],[-63.737350121662232,-16.751110099630925],[-63.710168375656608,-16.753832441858641],[-63.689996140503027,-16.746957034604289],[-63.669825284509322,-16.74007959712997],[-63.649655809390346,-16.733200131989555],[-63.629487716859394,-16.72631864173783],[-63.609321008628157,-16.719435128930439],[-63.589155686406755,-16.71254959612391],[-63.568991751903717,-16.70566204587568],[-63.548829206826007,-16.698772480744008],[-63.55488849571406,-16.650997215640729],[-63.575378170849049,-16.632421408614931],[-63.595863893468177,-16.613843670010869],[-63.616345668310053,-16.595264007029915],[-63.636823500113728,-16.576682426871987],[-63.639256324611537,-16.537917321510591],[-63.610541717152017,-16.516741530659381],[-63.578528228917641,-16.518729544695269],[-63.546513920267877,-16.520712672330855],[-63.514498801918052,-16.522690911651829],[-63.482482884585806,-16.52466426075112],[-63.4526610724742,-16.544537916374054],[-63.422833092972986,-16.564407421029646],[-63.407459373738689,-16.585960271981865],[-63.392082260476563,-16.607512018683771],[-63.36092498331449,-16.616308728870553],[-63.335036250372369,-16.616195556717251],[-63.306234954130296,-16.600253460487284],[-63.2774383589921,-16.584307272932168],[-63.248646465071872,-16.568357006187732],[-63.219859272475524,-16.552402672390972],[-63.229114990381987,-16.515428052920296],[-63.23836727791781,-16.478452937165727],[-63.270950368043749,-16.468974291598851],[-63.303530216318656,-16.459490616326853],[-63.321089957558556,-16.44202452285078],[-63.338646560632114,-16.424556986114165],[-63.368171581435838,-16.412157079052491],[-63.397692787378837,-16.399753084620794],[-63.402215023662698,-16.34293664235506],[-63.406735037480878,-16.286119856549252],[-63.421174862001152,-16.270414467892948],[-63.435612397000703,-16.254708125262663],[-63.450047645274246,-16.23900083168666],[-63.464480609615997,-16.223292590192592],[-63.484747526096911,-16.21237673476902],[-63.505012172073876,-16.201458994990858],[-63.525274547378885,-16.190539374990461],[-63.545534651845827,-16.179617878900419],[-63.564764938852448,-16.189326661531041],[-63.583997063416383,-16.199033636498751],[-63.603231025095724,-16.208738800514951],[-63.622466823446956,-16.218442150291441],[-63.647784369053539,-16.21642826954276],[-63.661935961362119,-16.197260572627613],[-63.676084856307689,-16.178092000867437],[-63.690231058474886,-16.158922557826173],[-63.704374572446675,-16.139752247066745],[-63.726116536708311,-16.133112059565068],[-63.747856964460638,-16.126469711151319],[-63.769595853349045,-16.11982520472802],[-63.791333201020869,-16.113178543198806],[-63.812288557688639,-16.097813770406542],[-63.833240647484651,-16.082447069224489],[-63.854189472649608,-16.067078445882757],[-63.875135035425906,-16.051707906610773],[-63.896077338057594,-16.036335457637357],[-63.917016382790507,-16.020961105190651],[-63.937952171872055,-16.005584855498128],[-63.958884707551405,-15.990206714786607],[-63.983293777602292,-15.998406585370883],[-64.007704692749002,-16.006603565195025],[-64.032117449892937,-16.014797649812252],[-64.056532045932414,-16.02298883477771],[-64.083306054120499,-16.024080189141003],[-64.110080133559023,-16.025168184235195],[-64.136854277950164,-16.026252819399541],[-64.16362848099574,-16.027334093976872],[-64.178059181872413,-16.013670747412366],[-64.192487916055171,-16.000006545421261],[-64.206914685419648,-15.986341490637267],[-64.221339491841491,-15.972675585693661],[-64.232729141641599,-15.939456379886357],[-64.214503291262432,-15.93336932567175],[-64.196278439475577,-15.927280651182949],[-64.198216253939052,-15.88153524503579],[-64.22670751352176,-15.856911510752511],[-64.25519180043176,-15.832284462338981],[-64.266737371375754,-15.801413027271773],[-64.278279759631388,-15.77054114955182],[-64.290908675607312,-15.79110303952708],[-64.303540247329849,-15.811663967375077],[-64.316174479753982,-15.832223930047832],[-64.328811377836857,-15.852782924496337],[-64.363763955754749,-15.854381759305035],[-64.398716611957752,-15.855974909209092],[-64.43366933246898,-15.857562372575515],[-64.468622103310437,-15.859144147781583],[-64.485157473241742,-15.889564405800442],[-64.501698115088942,-15.919982891865073],[-64.520084445825916,-15.919163469192059],[-64.544593907927279,-15.900476673583958],[-64.569098741299314,-15.881787466988134],[-64.603780325560606,-15.870757227862672],[-64.638457645454622,-15.859721766119442],[-64.637622818270913,-15.842541465674664],[-64.61702018517019,-15.830322867123709],[-64.59641990848408,-15.818102066697971],[-64.595948491310537,-15.76924155885915],[-64.61249804590382,-15.739816587118836],[-64.629043133781352,-15.710390728757273],[-64.647786051370161,-15.699477403367537],[-64.666526867903045,-15.68856265085598],[-64.685265583608199,-15.677646474775038],[-64.704002198715145,-15.666728878677086],[-64.665929349597789,-15.663615210810949],[-64.627856974269804,-15.660494806542953],[-64.599583075020519,-15.682786272325515],[-64.571302909595886,-15.705074610300363],[-64.543034093690949,-15.707214523105987],[-64.524416529181124,-15.697303145570086],[-64.505800660148182,-15.687390013069715],[-64.487186486828733,-15.677475128735939],[-64.46857400945801,-15.667558495700161],[-64.457713350004084,-15.648700222912561],[-64.484476918192513,-15.640965003969082],[-64.511238198766577,-15.633226686722816],[-64.537997187180167,-15.625485276334603],[-64.564753878891395,-15.617740777967638],[-64.593643368175549,-15.596043586271405],[-64.566859939390454,-15.595113595848646],[-64.540076433093873,-15.594180318547251],[-64.513292855576353,-15.593243754905094],[-64.486509213128258,-15.592303905463554],[-64.459725512039697,-15.591360770767498],[-64.432941758600705,-15.590414351365306],[-64.40615795910098,-15.589464647808834],[-64.379374119830075,-15.588511660653447],[-64.361542492683824,-15.600297270369753],[-64.348696033779859,-15.638214073408522],[-64.335845365464905,-15.676130369808758],[-64.310313114815443,-15.684699470438181],[-64.284778518547952,-15.693265745845203],[-64.270560210331553,-15.712564332530233],[-64.256339293127752,-15.731862157943308],[-64.238600956723602,-15.741665348589944],[-64.220860844599486,-15.751467209233434],[-64.203118956770851,-15.76126773702012],[-64.185375293254125,-15.771066929096419],[-64.170264479282466,-15.759472920361501],[-64.155155352866998,-15.747877734636317],[-64.129200990566034,-15.748121316168938],[-64.103360995985881,-15.7622311703792],[-64.077517287544623,-15.776338167952703],[-64.057211462619989,-15.776714494622988],[-64.036905439256756,-15.777088930547864],[-64.011387247962745,-15.757023491783064],[-63.985874006294949,-15.736954733430888],[-63.973206144859361,-15.697258268554464],[-63.960543606280567,-15.657560649846292],[-63.976699811357925,-15.634745814037814],[-63.999165918075001,-15.627667258651615],[-64.021630352820452,-15.620586489039018],[-64.044093113081288,-15.613503508510666],[-64.066554196346729,-15.606418320378372],[-64.078175997550616,-15.628061391467215],[-64.089800352109776,-15.64970365074716],[-64.127815608148055,-15.654756634238638],[-64.165832276462808,-15.659802895115973],[-64.181163832910926,-15.646922229939104],[-64.19649345030281,-15.634040610148004],[-64.211821130146632,-15.621158038543507],[-64.227146873950886,-15.608274517926132],[-64.242470683224283,-15.595390051096004],[-64.257792559475831,-15.582504640852893],[-64.273112504214751,-15.569618289996216],[-64.288430518950534,-15.556731001325021],[-64.251087542689959,-15.556141976504939],[-64.213744283839773,-15.555546605601101],[-64.186732984565111,-15.578053503514505],[-64.159715738761903,-15.600557450124374],[-64.127694605614522,-15.596233265495284],[-64.095674492004747,-15.591904325559762],[-64.063655408121889,-15.587570634297673],[-64.031637364151578,-15.583232195695892],[-63.995040880620685,-15.595077284034383],[-63.958439862697126,-15.606916512003815],[-63.948354048063671,-15.578338179590594],[-63.964229194805839,-15.56690050278957],[-63.980102555444063,-15.555461769497375],[-63.99597413086066,-15.544021982377361],[-64.011843921938521,-15.532581144092708],[-64.011433096049274,-15.514749177988447],[-63.989545383757864,-15.497299497401167],[-63.956155152169202,-15.499192224111859],[-63.922764010839551,-15.501079941258569],[-63.893029085696391,-15.479569320108565],[-63.863300207073983,-15.458054338311637],[-63.877120870421869,-15.441041172861166],[-63.890939309558263,-15.424027238165163],[-63.887567599267804,-15.375863627781678],[-63.910870468644219,-15.350391974331004],[-63.918888815148158,-15.302576940164101],[-63.941266022192394,-15.304507634624052],[-63.963643505865853,-15.306436066034619],[-63.98602126257753,-15.308362233536373],[-64.008399288735873,-15.310286136271587],[-64.034494263165442,-15.294629895701371],[-64.060585236590612,-15.278970831314457],[-64.078942670072621,-15.249850117194701],[-64.097295220060943,-15.220728156042336],[-64.12486227620532,-15.202372239599162],[-64.15242443151503,-15.184013240759462],[-64.164828093970783,-15.151070149122351],[-64.177228248891268,-15.118126553579007],[-64.194823938184243,-15.107284440015567],[-64.212417777065554,-15.096441077935644],[-64.209640455629398,-15.06436582479351],[-64.187046768171484,-15.066957092917704],[-64.174724531801445,-15.096779095917769],[-64.13756078694631,-15.102132382588913],[-64.10039474087435,-15.107479691752667],[-64.085209766871358,-15.129464348132345],[-64.070021747824612,-15.151448148694648],[-64.054830677234762,-15.173431088716859],[-64.039636548599503,-15.195413163474798],[-64.006837855246928,-15.214406728535378],[-63.974033083906818,-15.23339583342508],[-63.965658287987303,-15.271950943350054],[-63.933460253435641,-15.281224059001088],[-63.901259137137892,-15.290492695400982],[-63.882069671196255,-15.329404203527062],[-63.862873413901021,-15.368314303690312],[-63.845128180320195,-15.381394189899435],[-63.827380699213762,-15.394472757919766],[-63.809630969220173,-15.407550003946138],[-63.791878988978702,-15.420625924173066],[-63.774124757129464,-15.433700514794721],[-63.756368272313424,-15.446773772004951],[-63.738609533172358,-15.459845691997321],[-63.720848538348939,-15.472916270965035],[-63.706188131543158,-15.510467165955463],[-63.691522681544328,-15.548017182724745],[-63.67523422458882,-15.563912969116474],[-63.658943266223254,-15.579807627516146],[-63.627025613348025,-15.586215363132558],[-63.595105807950283,-15.592618536676376],[-63.558635874238597,-15.585031630161335],[-63.547095305993935,-15.543777549424023],[-63.535559592148367,-15.502522563438154],[-63.556248270370929,-15.46973919903423],[-63.576930550573465,-15.436954021028184],[-63.583337602944141,-15.402985266444132],[-63.589742772383048,-15.369016296542101],[-63.607489261232118,-15.356938190669911],[-63.625233680127693,-15.344858733529684],[-63.642976029957907,-15.332777928630934],[-63.660716311611885,-15.320695779482993],[-63.678454525979667,-15.308612289595029],[-63.69619067395228,-15.296527462476041],[-63.71392475642169,-15.284441301634834],[-63.731656774280793,-15.272353810580059],[-63.749846256711301,-15.247897841613957],[-63.76803159743443,-15.223440535911109],[-63.786212805832697,-15.198981900986793],[-63.804389891284409,-15.174521944353668],[-63.789754958651692,-15.143582199170655],[-63.775124457727514,-15.112641217444692],[-63.760498374946636,-15.081699005404017],[-63.745876696754245,-15.050755569273772],[-63.754144395930247,-14.989783268661002],[-63.788010044296151,-14.973552035808369],[-63.821870396038435,-14.957316000209035],[-63.85572544783907,-14.941075179052158],[-63.889575196393466,-14.924829589529701],[-63.91282326691725,-14.927086072700723],[-63.936071682611143,-14.929340164803856],[-63.95265012917136,-14.944183714872914],[-63.9692308433428,-14.959025908595688],[-63.985813827400982,-14.973866742221048],[-64.002399083620986,-14.988706211997421],[-64.028749211103488,-14.982934026507591],[-64.055097731866539,-14.977158881451304],[-64.068710624402172,-14.946303093934073],[-64.082319878027647,-14.915446670502229],[-64.095925505307676,-14.884589616569961],[-64.109527518797094,-14.85373193754911],[-64.12770452552256,-14.840888480964002],[-64.145879335274799,-14.828043724049193],[-64.16405194922784,-14.815197670727983],[-64.182222368556666,-14.802350324923371],[-64.197267931269522,-14.779659887124685],[-64.212310477564742,-14.756968659172044],[-64.217480138995938,-14.573959741972494],[-64.201967391518494,-14.53263614529746],[-64.186460947939736,-14.491310937114934],[-64.161804489249334,-14.474390654468161],[-64.14729074409351,-14.490587984502316],[-64.132774912226381,-14.506784550950872],[-64.120638605618751,-14.559730074118146],[-64.108497410230925,-14.612675146491615],[-64.090965774851782,-14.637747491630877],[-64.07343026674107,-14.662818738486811],[-64.055890876271363,-14.687888879880486],[-64.038347593810499,-14.7129579086305],[-64.005920071165576,-14.722097227841697],[-63.973489569091313,-14.731232169806358],[-63.941056095842029,-14.740362725618363],[-63.908619659680284,-14.749488886376742],[-63.877834034558994,-14.748975843606743],[-63.847048315833817,-14.748458693795872],[-63.827944156531977,-14.725485740480641],[-63.808844044546653,-14.702510957942037],[-63.800331699795279,-14.638332254994804],[-63.835487229019797,-14.632999389597465],[-63.870640770019875,-14.627661305108546],[-63.855403758147396,-14.594567410577124],[-63.832961914494277,-14.594953191848385],[-63.810519872443884,-14.595336819758597],[-63.795085606043251,-14.618004465892568],[-63.779648242890801,-14.640671206034439],[-63.772356362675879,-14.717052076018774],[-63.736771410786346,-14.715502326515175],[-63.70118669526461,-14.713947088483708],[-63.684827551033436,-14.74723796410194],[-63.668463609947899,-14.780527801042046],[-63.629549050275877,-14.779629887084809],[-63.590634538518174,-14.778725399241896],[-63.574647002434297,-14.791841965961961],[-63.558657533155412,-14.804957478548156],[-63.527615052745276,-14.805049921611882],[-63.496572400939911,-14.805138183990474],[-63.480985320820153,-14.788863684441298],[-63.465400568915513,-14.772588039076147],[-63.459033095284127,-14.698185613187986],[-63.479661816862546,-14.666194456700568],[-63.474296005586986,-14.641991899648064],[-63.458920885689764,-14.64434648894561],[-63.442931268077004,-14.683890580270882],[-63.421636531654855,-14.699651919305596],[-63.400338717643486,-14.71541136298274],[-63.37999066201391,-14.717273046932531],[-63.359642216658699,-14.719132951896627],[-63.339293384250233,-14.72099107716034],[-63.318944167461382,-14.722847422010025],[-63.293755433099385,-14.69720157152949],[-63.268572581009224,-14.67155282153427],[-63.270572608761654,-14.614790819928613],[-63.258855566078275,-14.614124085149747],[-63.246842060391103,-14.634584099004444],[-63.234826349161757,-14.655043492055015],[-63.213394600258496,-14.671915762123341],[-63.191959557440626,-14.688786075030562],[-63.174423121070802,-14.728184380160112],[-63.156880450217827,-14.767581292108236],[-63.133573620503149,-14.778556108330891],[-63.110264434241948,-14.789528580349872],[-63.082194233707682,-14.787376082494797],[-63.071985498418456,-14.761336766972187],[-63.09073277114301,-14.746667783957754],[-63.109477529773208,-14.73199727737158],[-63.116421199733921,-14.673801468848191],[-63.123361317886157,-14.615605188928052],[-63.141761677127846,-14.584415193868212],[-63.160057433163125,-14.576137815913011],[-63.178351811060139,-14.567859014173946],[-63.195504580439867,-14.5441395365667],[-63.212653705432658,-14.520418800863629],[-63.240940025801393,-14.516687149317619],[-63.26922534332828,-14.512952101209304],[-63.300471456298759,-14.498185765654975],[-63.331713365927669,-14.483415335518682],[-63.362951069332865,-14.468640824078332],[-63.39418456364163,-14.453862244614255],[-63.385303430450904,-14.412873645193757],[-63.358450426531064,-14.424521228687235],[-63.331594572548362,-14.436165809340645],[-63.308446233698689,-14.43909855561375],[-63.285297242004219,-14.442029040459108],[-63.262147601293201,-14.444957262425859],[-63.238997315394911,-14.447883220064815],[-63.22214506615483,-14.438606574440291],[-63.223445637818429,-14.415928640171197],[-63.241594557387756,-14.405881716939732],[-63.259741836740467,-14.395833416591259],[-63.277887475820236,-14.385783742173338],[-63.296031474571876,-14.37573269673366],[-63.304180746821828,-14.335488078413775],[-63.329904427591643,-14.335521039953425],[-63.355628052743334,-14.335551213244205],[-63.356899672163912,-14.303312083952919],[-63.388653912954958,-14.316454756379052],[-63.375375504294531,-14.283954263655142],[-63.362101007440145,-14.25145284904727],[-63.387230015146351,-14.257142490067087],[-63.412360216196312,-14.262829448978003],[-63.403048146995346,-14.230627888780294],[-63.414762540540174,-14.207521090765573],[-63.396365617984678,-14.180219210752865],[-63.377973148108687,-14.152915742509055],[-63.359585118911006,-14.125610694617873],[-63.34120151839636,-14.098304075659927],[-63.32139377764954,-14.115928047901971],[-63.298383586787722,-14.115202288351165],[-63.275373496312625,-14.114474326402116],[-63.269413423054132,-14.142251547147804],[-63.242276705761753,-14.152590164992121],[-63.215137491178915,-14.162925746344431],[-63.200802051997719,-14.188728557103895],[-63.182889483627093,-14.186791320331862],[-63.168776690675699,-14.160383782954064],[-63.15051723140558,-14.174633221014732],[-63.159724431693533,-14.205613883300476],[-63.168934179497121,-14.236594084982203],[-63.141580782847178,-14.237192227488746],[-63.114227212081985,-14.237787238576729],[-63.107292545408242,-14.275147076045185],[-63.100355635694143,-14.312506610681741],[-63.124157112105877,-14.307807556598727],[-63.145141538756256,-14.270154712534257],[-63.165057097143603,-14.280492472407715],[-63.184974459710681,-14.290828538324103],[-63.177070307669688,-14.328810803762627],[-63.198241698063413,-14.341063324730362],[-63.198264390545532,-14.366853311914531],[-63.177213457923614,-14.379493824635301],[-63.175828929175935,-14.435047585408089],[-63.155862305884135,-14.454467973748065],[-63.135892215247388,-14.473886672124742],[-63.115918652108881,-14.493303673385293],[-63.095941611311794,-14.512718970375444],[-63.072658491760123,-14.514988193316729],[-63.04937488676147,-14.517255107797492],[-63.035584854306698,-14.496914768771372],[-63.042193238100587,-14.447689075058436],[-63.048798745712737,-14.398462998707824],[-63.02847628030792,-14.399879584328067],[-63.019460898465034,-14.47114177322999],[-63.010439792932161,-14.5424031928174],[-62.988889015184704,-14.545569319745391],[-62.967337624959789,-14.548733462330318],[-62.960127359162122,-14.585625879454712],[-62.929258454387067,-14.584679584362311],[-62.938059712806179,-14.631057496613614],[-62.946864629360292,-14.677434906402116],[-62.917900718856536,-14.682675995371124],[-62.897861654958326,-14.660701841759131],[-62.893857186262991,-14.724785883301591],[-62.875301419849073,-14.737423189100426],[-62.856743520082446,-14.750058976412021],[-62.84723548865648,-14.777595970761947],[-62.837725030025815,-14.805132484932049],[-62.807986197847647,-14.800256966262339],[-62.803722969045964,-14.770805514746135],[-62.817006363127568,-14.732920184750681],[-62.83028509729526,-14.695033916274619],[-62.843559190483582,-14.657146715738916],[-62.856828661608141,-14.619258589560845],[-62.846574650950828,-14.618166294963748],[-62.846263750901713,-14.577233261115563],[-62.8562120537227,-14.54911140988616],[-62.866157807898304,-14.52098904558858],[-62.844125151299608,-14.489633377583099],[-62.858581882816949,-14.473364382865212],[-62.87303650572845,-14.457094458388349],[-62.88748902298358,-14.440823607295702],[-62.901939437531418,-14.424551832729881],[-62.91445261670566,-14.379072462773518],[-62.931840024565538,-14.356853270544422],[-62.949223998399937,-14.334632746305887],[-62.966604545307355,-14.312410896281738],[-62.983981672384019,-14.290187726694063],[-62.962089142959833,-14.286813185820034],[-62.935441697590754,-14.314531963743899],[-62.908787712302349,-14.342247661104253],[-62.872160531829607,-14.342230751428874],[-62.874171997773182,-14.392825556693298],[-62.851685435876462,-14.398949994124758],[-62.851656178689048,-14.432474026036646],[-62.828180736450825,-14.456968216091807],[-62.804701963891958,-14.439389377041616],[-62.781226890344641,-14.421808220526993],[-62.76524223841848,-14.428947630472297],[-62.762964279917824,-14.47113101059562],[-62.786758154799969,-14.499255998227673],[-62.792017541567915,-14.536497830948996],[-62.776777227165589,-14.553454130885262],[-62.761534580932391,-14.570409380820797],[-62.763876100163777,-14.620676143897372],[-62.742972291062863,-14.612772348884025],[-62.722070003683676,-14.604866699430998],[-62.729795543491548,-14.662635079738074],[-62.737524866576528,-14.720402986176129],[-62.716996640934831,-14.714876780556953],[-62.696469480486826,-14.709348772432689],[-62.70170664765736,-14.75492879919714],[-62.706945810847863,-14.800508568920939],[-62.690009552159744,-14.801399311615215],[-62.678407086926178,-14.77917641932344],[-62.671153559348745,-14.805819500354387],[-62.671028762294327,-14.888343109521598],[-62.6796069201406,-14.915419137772806],[-62.688187160012816,-14.942494823259807],[-62.666131920805299,-14.949782088885541],[-62.644075234196251,-14.957067189634712],[-62.623426463740017,-14.944360245262718],[-62.615754970291057,-14.88327244196859],[-62.608087368688842,-14.822184161195002],[-62.587236609524922,-14.828316136653186],[-62.56638472301924,-14.834446189359991],[-62.551013139979673,-14.852281927394287],[-62.535639021822213,-14.870116538931949],[-62.520262364678871,-14.88795002007744],[-62.504883164680926,-14.905782366934412],[-62.48035468560353,-14.909045614584961],[-62.469508612018153,-14.883920311555315],[-62.468251526336367,-14.855854950155633],[-62.485566551547635,-14.821338306786997],[-62.502875949952816,-14.786820082540421],[-62.537803369795817,-14.773995514007517],[-62.572726829603212,-14.761165529764993],[-62.587800012311405,-14.729103476388056],[-62.5860904528231,-14.717136498147763],[-62.553049590576201,-14.725456433168876],[-62.520006353219593,-14.733771577512179],[-62.501765056601101,-14.726070482751114],[-62.50395247193299,-14.691638345773356],[-62.523845791509345,-14.676980602304914],[-62.543736484811255,-14.662321057282815],[-62.563624553667196,-14.647659716039275],[-62.583509999907051,-14.632996583906223],[-62.588053272628201,-14.593659620713726],[-62.56295166694882,-14.565291303014618],[-62.529820608454564,-14.581037280380547],[-62.521790153556211,-14.61211782758293],[-62.51375731007969,-14.643197947262326],[-62.505722070162001,-14.674277637418371],[-62.497684425933286,-14.70535689604977],[-62.48299307958321,-14.718986024764723],[-62.468299911383575,-14.732614146429006],[-62.455492945723783,-14.733628812351066],[-62.444968657589968,-14.709749662969312],[-62.434446579825938,-14.685870066990885],[-62.408993124520734,-14.696121946383556],[-62.383537386236881,-14.706370935486666],[-62.357713242382353,-14.701293571126689],[-62.331890410113516,-14.696213377533322],[-62.316040402198716,-14.707051834335509],[-62.300188854939776,-14.717889129966547],[-62.284335767725338,-14.728725261926801],[-62.268481139944655,-14.739560227716582],[-62.241161340300479,-14.726195857031176],[-62.251500888712251,-14.665451385423747],[-62.234045576248903,-14.655093375019746],[-62.216591946239284,-14.644734125021014],[-62.21586857524715,-14.629572692759124],[-62.232491141143775,-14.609472960161794],[-62.249110652812398,-14.589371861623107],[-62.256642812175308,-14.56501281737491],[-62.264173196397422,-14.540653402076574],[-62.282460235720222,-14.519096538177475],[-62.300743701449811,-14.497538047107948],[-62.322698374222547,-14.484920925083168],[-62.344650625498396,-14.472301631554927],[-62.36613683289815,-14.470893704915561],[-62.38762285299385,-14.469483804967517],[-62.4091086825985,-14.468071932293475],[-62.430594318525493,-14.466658087477475],[-62.444101586811719,-14.444699291339548],[-62.435136688305214,-14.425406892145615],[-62.400737531762736,-14.42532204432764],[-62.366338605920077,-14.425232182847939],[-62.352837378889085,-14.440023942707988],[-62.339334358844262,-14.454814836510367],[-62.325829543558193,-14.469604861766019],[-62.312322930803191,-14.484394015985485],[-62.298814518351421,-14.499182296678955],[-62.285304303974783,-14.513969701356219],[-62.271792285444981,-14.528756227526641],[-62.258278460533518,-14.543541872699183],[-62.233120749274832,-14.529098750888226],[-62.207966396043297,-14.51465307192346],[-62.188484417985556,-14.484464996471138],[-62.169007574996492,-14.45427550447382],[-62.171214934190957,-14.530751465625876],[-62.157335990356174,-14.569185295929003],[-62.143451905467018,-14.607617919161784],[-62.142903241674603,-14.664026235927247],[-62.159260528790654,-14.710682025324269],[-62.175624279368215,-14.757336842465522],[-62.155399868090775,-14.764668038256117],[-62.135174186465619,-14.771997386841642],[-62.114947236087495,-14.77932488548527],[-62.09471901855261,-14.786650531450986],[-62.064706165084111,-14.774126407139324],[-62.034696948484729,-14.761598569487656],[-62.024121381878111,-14.808124762144013],[-62.013540692623934,-14.854650009002764],[-61.975606963064074,-14.854311399599661],[-61.937673774957553,-14.853966533495457],[-61.914610933639345,-14.827732793664959],[-61.917206002395822,-14.797489023521743],[-61.93053773257828,-14.775758979638676],[-61.94386671314146,-14.754027948150998],[-61.957192949814761,-14.732295932650166],[-61.970516448325128,-14.710562936726475],[-61.973106739561302,-14.660797110976336],[-61.950230292122058,-14.674947092867995],[-61.927350997333946,-14.68909460931032],[-61.895759725395493,-14.691180381138722],[-61.864168169285151,-14.693261809317242],[-61.853325983572745,-14.715541924257344],[-61.842481462444361,-14.737821330844513],[-61.81258851668246,-14.733987656701485],[-61.78269691619245,-14.730150197665365],[-61.775005169064528,-14.690255019488845],[-61.787018996288218,-14.667986681527557],[-61.799030261791508,-14.645717494623936],[-61.820909215743477,-14.628139724672087],[-61.84278473810776,-14.610559613575262],[-61.864656832383936,-14.592977169053],[-61.88652550207356,-14.575392398824198],[-61.900656198820023,-14.551201964199402],[-61.914783685254164,-14.527010411785685],[-61.92890796896895,-14.502817746082446],[-61.943029057553545,-14.478623971587425],[-61.962134448188706,-14.466790916952956],[-61.981237879808752,-14.454956164617229],[-62.000339352866575,-14.443119718535936],[-62.019438867816497,-14.431281582664905],[-61.995623774399043,-14.431633554864362],[-61.971808770139944,-14.4319831172538],[-61.947993859431065,-14.432330269684277],[-61.924179046664335,-14.432675012008888],[-61.942834651422508,-14.404201667641114],[-61.961485369120943,-14.375726460077782],[-61.951387956560424,-14.3503776248041],[-61.941292642684232,-14.325028460743473],[-61.931199421197505,-14.299678970360661],[-61.921108285809382,-14.274329156119578],[-61.931326276159858,-14.236200586201624],[-61.958834877570105,-14.231576540596921],[-61.986342579394368,-14.226949248826509],[-62.013849375449325,-14.22231871405406],[-62.04135525955401,-14.217684939446775],[-62.044747045633834,-14.301290838541384],[-62.061148376896469,-14.319357017437484],[-62.077552312468413,-14.337422196710881],[-62.103314083456006,-14.340335152776625],[-62.12907668869984,-14.343245348967118],[-62.148338583382014,-14.326334424598636],[-62.167597609132187,-14.30942175435486],[-62.186853769249019,-14.292507344005585],[-62.206107067031915,-14.275591199319932],[-62.211785231776581,-14.236179162663902],[-62.192662375053672,-14.216271359891506],[-62.189905441141427,-14.174549041640475],[-62.166629942166253,-14.1805939547401],[-62.143353330873765,-14.186636536703535],[-62.120075610509041,-14.192676784549365],[-62.096796784319025,-14.198714695297822],[-62.064439242352826,-14.185516899058632],[-62.032085678855374,-14.172314949031799],[-62.015058106144188,-14.158559770066663],[-61.998032609351164,-14.144803500582386],[-61.981009186760588,-14.131046144266191],[-61.963987836656273,-14.117287704804953],[-61.994465869923317,-14.096289910165295],[-61.988975045328317,-14.067251071871397],[-61.949532458448481,-14.06675177978331],[-61.927716475206019,-14.088080804109845],[-61.905896439440127,-14.109407529022919],[-61.877687534539191,-14.110114785193483],[-61.858784730628976,-14.126686196097179],[-61.839879213743984,-14.143255892339454],[-61.801560001078776,-14.138656036605996],[-61.763242829741614,-14.134050189879117],[-61.740708254029265,-14.097834018284553],[-61.721026336875191,-14.092594010368883],[-61.704277125925302,-14.108763507943257],[-61.700900172329831,-14.151541970369948],[-61.67965078492859,-14.17058825033236],[-61.658397877884504,-14.189632309162505],[-61.658976062874672,-14.214711626492894],[-61.676350030420146,-14.232613342229783],[-61.693726722632661,-14.250514004789265],[-61.6960245144897,-14.27698801653567],[-61.669570150015971,-14.298008466530483],[-61.643110957149105,-14.319025510826572],[-61.634120169191362,-14.366860891436065],[-61.601428692235977,-14.367473673535189],[-61.568737467731893,-14.368081924876476],[-61.580416374822292,-14.403362217998891],[-61.592098475864205,-14.438642168067171],[-61.58137185296917,-14.454092456209217],[-61.552964830422013,-14.473810378906188],[-61.5245529549914,-14.493524371091167],[-61.49018550812049,-14.493442820540555],[-61.460924200106248,-14.485622688881095],[-61.455773881242607,-14.44962092599822],[-61.440716205674853,-14.444662180627159],[-61.431582189505086,-14.503836785441601],[-61.413117312431503,-14.528797567804183],[-61.379794431811682,-14.537124112527977],[-61.346469537131853,-14.545445650833161],[-61.32787998676617,-14.562023007860541],[-61.309287684120768,-14.578598568003981],[-61.317672808458774,-14.603432603545135],[-61.345315361022394,-14.619866049644491],[-61.372962254880512,-14.636296624333511],[-61.386544248699103,-14.660440115843883],[-61.40012902142346,-14.684583068931351],[-61.413716580396787,-14.708725479416614],[-61.42730693296641,-14.732867343118922],[-61.430777630157699,-14.768108734399799],[-61.411598890662574,-14.782609055260727],[-61.392417670060759,-14.797107510255124],[-61.373233966539914,-14.811604094501005],[-61.354047778289008,-14.826098803116189],[-61.320861586551125,-14.830008289443402],[-61.291567261717546,-14.815186575425564],[-61.305575968510809,-14.887756315528867],[-61.291660445722059,-14.910179723980571],[-61.267130007747973,-14.914481454923068],[-61.242598883109082,-14.918780448845139],[-61.232083874178123,-14.960812108218267],[-61.241850350015987,-14.999288322381659],[-61.251619581933618,-15.037764371697854],[-61.234243231801358,-15.048852077076164],[-61.216865169950573,-15.059938246638257],[-61.182470788995616,-15.058681908794732],[-61.148077426393321,-15.057420398436907],[-61.146204037120675,-15.080315058144119],[-61.166725216840014,-15.10286492435484],[-61.186176490079475,-15.112167376154382],[-61.205629608513739,-15.121468334032725],[-61.225084571531433,-15.130767794722862],[-61.24454137851977,-15.140065754957964],[-61.248802629005056,-15.186079692113022],[-61.232678011201898,-15.209888786040736],[-61.216549596958195,-15.233696287229542],[-61.18735810774556,-15.232205332445673],[-61.158167470215979,-15.23071062516693],[-61.159004851093336,-15.286955464921656],[-61.122542229393765,-15.286974981770172],[-61.086080314103704,-15.286988553532758],[-61.081734430009853,-15.329706443702859],[-61.077385728484757,-15.372423892031577],[-61.087095149612125,-15.395838211615581],[-61.096806478701325,-15.419252308348659],[-61.106519720976905,-15.442666180126988],[-61.116234881666671,-15.46607982484605],[-61.082414524681852,-15.467875869588989],[-61.048594207658674,-15.469666678863529],[-61.026861328949742,-15.442377393154729],[-61.005133959735808,-15.415086580259198],[-61.000140902409584,-15.449132740502758],[-60.995145525330408,-15.483178496454855],[-61.014600190321772,-15.513361800168873],[-61.034060182873652,-15.543543974903251],[-61.039108820060825,-15.612116164356102],[-61.022115315216837,-15.640283717628391],[-60.999129927316062,-15.650013472576287],[-60.976142606939916,-15.659740551803354],[-60.975990296832826,-15.675203146544638],[-61.00049936725749,-15.677647473929335],[-61.025009359111181,-15.680089120891385],[-61.049520267736234,-15.682528086010398],[-61.074032088473636,-15.684964367868265],[-61.087272046664744,-15.726489875686072],[-61.109736780078592,-15.741839199598887],[-61.132205024890226,-15.757186556271753],[-61.12240247158941,-15.792652360498263],[-61.092192830809957,-15.787078665550684],[-61.081634304115518,-15.816626390424137],[-61.071072261378959,-15.846173185606457],[-61.050669156645768,-15.859565931932798],[-61.016832469786145,-15.852608368002119],[-61.015750995805192,-15.827034068862815],[-61.027226595810426,-15.810458501871445],[-61.038700234915098,-15.79388209125181],[-61.038616229179475,-15.768240003672187],[-61.02055791225996,-15.753824537529777],[-60.996678123119871,-15.748005478079039],[-60.972799999016459,-15.742183954986784],[-60.960724069051203,-15.770184289936887],[-60.948644422408115,-15.79818349504381],[-60.917180010844518,-15.794288611761083],[-60.885717379773546,-15.790389313038689],[-60.890853954269765,-15.742418171222706],[-60.895986662969875,-15.694446416852612],[-60.881492099733507,-15.681120102091519],[-60.866999432495206,-15.667793043587169],[-60.877014535211785,-15.639524176960876],[-60.887026432060772,-15.61125444310205],[-60.897035131191302,-15.58298384472665],[-60.907040640745912,-15.554712384549145],[-60.870643308826267,-15.551682159469697],[-60.840680962038476,-15.530706121646061],[-60.833503561423818,-15.564664900717663],[-60.848652969744741,-15.634193180291685],[-60.827376129655882,-15.649312511222133],[-60.806096288540303,-15.664429357160254],[-60.774940553338361,-15.660676426149893],[-60.758210806589986,-15.643158241533396],[-60.7645705766543,-15.608524033947045],[-60.770927423121719,-15.573889261406714],[-60.758590216749212,-15.546991629143687],[-60.746255823215996,-15.520093668669562],[-60.752526701965287,-15.493246166326616],[-60.758795494266863,-15.466398210518912],[-60.732482759456261,-15.470902455400322],[-60.706169318684957,-15.47540341480097],[-60.69257901810969,-15.453565924209478],[-60.701800899906402,-15.428841286747621],[-60.711020225925715,-15.404115916660771],[-60.720237001857036,-15.379389815954514],[-60.729451233385873,-15.354662986633505],[-60.715299892311307,-15.190003854577709],[-60.74922285885993,-15.181692493518669],[-60.783143859449389,-15.173375648901485],[-60.802869612926834,-15.181300446446837],[-60.787439572549239,-15.143062360644592],[-60.802973694597334,-15.135138872863092],[-60.829440008184562,-15.149957029329482],[-60.85591030033973,-15.16477254609676],[-60.870465668473088,-15.131692755404508],[-60.906156414177623,-15.144104340637822],[-60.941851987958273,-15.156510793496848],[-60.944241292274071,-15.102991142184976],[-60.974242674619518,-15.093514942810129],[-61.004241859577306,-15.084034427924399],[-60.994236390995844,-15.047769184481714],[-60.967599935713459,-15.052042796875927],[-60.940962818771588,-15.056313146648799],[-60.911807600877793,-15.041852913856809],[-60.899483225202097,-15.013929723939603],[-60.887161650325339,-14.986006215597895],[-60.874842866955049,-14.958082392858195],[-60.86252686580535,-14.930158259745514],[-60.857903917942643,-14.861554009615912],[-60.88094215254209,-14.846932370110107],[-60.903977470464611,-14.83230799268226],[-60.907627152797673,-14.798359895397898],[-60.875129127904792,-14.795394832556346],[-60.857835313289442,-14.806112333970562],[-60.840539906169695,-14.816828298924666],[-60.830062331267271,-14.844552802611538],[-60.819581644872287,-14.872276404836752],[-60.809097838953925,-14.899999102695691],[-60.798610905475392,-14.927720893282295],[-60.783840017992844,-14.939567136032032],[-60.769067552936392,-14.951412189487773],[-60.754293509246395,-14.963256051288566],[-60.739517885863698,-14.975098719073404],[-60.732555311182075,-14.998949271167264],[-60.725590831471322,-15.022799348622023],[-60.695614279595375,-15.041131686254692],[-60.66563295543444,-15.05945931039243],[-60.660186250085289,-15.103528836812373],[-60.654735936895676,-15.147597753764286],[-60.670105807454462,-15.197553355936751],[-60.68548132225667,-15.247508725540181],[-60.670205091452587,-15.273814915683699],[-60.65492471449452,-15.300119471411],[-60.63793881675187,-15.307872658289252],[-60.620951818077224,-15.315624370305994],[-60.603963719050356,-15.323374605437921],[-60.586974520251871,-15.331123361662097],[-60.578763787612083,-15.295156444582423],[-60.569050050921682,-15.296536344630908],[-60.5573675972703,-15.311442096352421],[-60.545683417634706,-15.326346975712218],[-60.533997509848376,-15.341250980837282],[-60.52230987174449,-15.356154109854216],[-60.496887946369753,-15.367492696747853],[-60.460129282151925,-15.366134184142375],[-60.456256090457337,-15.32451847919496],[-60.425734510875358,-15.324155702364109],[-60.395213721338919,-15.323788763892496],[-60.382270826261596,-15.301855459021178],[-60.389321205764709,-15.277233355298454],[-60.396369495063134,-15.252610722269941],[-60.416464898452638,-15.228536362554758],[-60.436555569041282,-15.204459442322328],[-60.456641516194757,-15.180379970502102],[-60.47672274927686,-15.156297956021062],[-60.472374339015111,-15.058548863332495],[-60.491744467287894,-15.039608503178112],[-60.511111166548304,-15.020665934038846],[-60.530474441537656,-15.001721162417811],[-60.549834296997886,-14.98277419481715],[-60.569190737671491,-14.96382503773804],[-60.588543768301584,-14.944873697680759],[-60.607893393631777,-14.925920181144585],[-60.627239618406335,-14.906964494627893],[-60.649376895113939,-14.880995812495813],[-60.671508714514765,-14.855024163386583],[-60.693635088392043,-14.82904955899471],[-60.715756028526826,-14.803072011011349],[-60.737871546697917,-14.777091531124361],[-60.759981654681823,-14.751108131018253],[-60.782086364252834,-14.725121822374225],[-60.804185687182979,-14.699132616870179],[-60.824111494348806,-14.684410259917849],[-60.844034736233311,-14.669685807255625],[-60.863955414635178,-14.654959264217782],[-60.883873531354801,-14.640230636138526],[-60.90378908819423,-14.625499928352053],[-60.923702086957292,-14.610767146192487],[-60.943612529449425,-14.596032294993892],[-60.963520417477838,-14.581295380090282],[-60.970673484389636,-14.559123606884381],[-60.946655243028886,-14.540819846192306],[-60.924737724238781,-14.541039038012995],[-60.902820448773333,-14.541256171099519],[-60.875619341534168,-14.520075007937535],[-60.874461339848679,-14.492918466634006],[-60.898890234777163,-14.467245728107269],[-60.871911436450716,-14.442739410556909],[-60.844938610422098,-14.418230763821862],[-60.853295467148683,-14.38747494705007],[-60.877076071942305,-14.378797916299373],[-60.900855136201947,-14.370118235221105],[-60.924632657321773,-14.361435908251325],[-60.948408632698658,-14.352750939827844],[-60.951325723939838,-14.294241086407062],[-60.975382301490164,-14.296756804238441],[-60.999439747926367,-14.299270156789145],[-61.023498058904948,-14.301781142657656],[-61.047557230081161,-14.304289760444375],[-61.071617257109033,-14.30679600875159],[-61.095678135641357,-14.309299886183519],[-61.119739861329755,-14.311801391346323],[-61.143802429824596,-14.314300522848106],[-61.139379910199587,-14.292618282054946],[-61.098173826221228,-14.291280671432634],[-61.05696915984732,-14.289935980072661],[-61.025893219301025,-14.278912814287306],[-60.99482078292651,-14.2678859701177],[-60.990901723695977,-14.232913424195948],[-61.002164102669148,-14.20223992044537],[-61.013422949731442,-14.17156541496027],[-60.991628479346417,-14.150456468486313],[-61.012596643311987,-14.126052844611269],[-61.033560229030954,-14.101646758418289],[-61.042366565367765,-14.049151640182117],[-61.017531056253993,-14.037625397330332],[-60.992698305800246,-14.026096919823599],[-60.984066929530343,-14.001683088425565],[-61.007796223846263,-13.99652633668747],[-61.031524766523155,-13.991367118481007],[-61.058487847306424,-13.973436858229753],[-61.085446969070112,-13.955503035955543],[-61.108808159881519,-13.954937749275171],[-61.132169534423554,-13.954370202346395],[-61.139949934839564,-14.017119614345345],[-61.165368455196408,-14.022938775978067],[-61.174412585209211,-14.000196095003927],[-61.183454691975513,-13.9774528193528],[-61.210882318575358,-13.980256628094956],[-61.23831099392077,-13.983057415074599],[-61.25865317736573,-13.957511875680739],[-61.292644210815538,-13.943134977674013],[-61.326631494512753,-13.928752832129254],[-61.340769967933703,-13.905798321721459],[-61.354905483349562,-13.882842639356902],[-61.388379727714195,-13.873547062488917],[-61.400619477528942,-13.851131374001545],[-61.412856705199658,-13.828714780565685],[-61.440276831204869,-13.812621281941524],[-61.433408437146092,-13.785415231572694],[-61.411309213476713,-13.781349837886692],[-61.389210971324637,-13.777282539520829],[-61.367113713786935,-13.773213338338545],[-61.345017443959435,-13.769142236204425],[-61.341213213216946,-13.733804331149308],[-61.354517809808897,-13.7017174674176],[-61.367818365196371,-13.66962940166016],[-61.365222925123028,-13.556166472937944],[-61.348728732024746,-13.537737827672206],[-61.316408521504897,-13.535922679195945],[-61.296362656836571,-13.547192215795878],[-61.276315035524789,-13.558459910810953],[-61.266458543330486,-13.604097591663848],[-61.256597226724899,-13.649734270755744],[-61.226955566230338,-13.66523881239717],[-61.197310348768696,-13.680739317418489],[-61.187675303598638,-13.715937212793964],[-61.178036753063054,-13.751134281256295],[-61.162375011338185,-13.76828857443563],[-61.146710950472702,-13.785441562320806],[-61.143046264341329,-13.821896142790088],[-61.139379696721441,-13.858350422581697],[-61.123013167267629,-13.874772479913325],[-61.106644324668935,-13.8911931282355],[-61.090273165893699,-13.907612363507308],[-61.073899687910377,-13.924030181687366],[-61.049824004236001,-13.927156007292995],[-61.025747993573638,-13.930279366333705],[-61.007955988028549,-13.918540074012681],[-60.995174430441843,-13.885572210260959],[-60.982395924735769,-13.852604082314265],[-60.99881231977124,-13.833809131558729],[-61.01522601823725,-13.81501269668955],[-61.031637024557497,-13.796214782367626],[-61.048045343155223,-13.777415393253003],[-61.062685926423697,-13.739634419769914],[-61.043465906256884,-13.709351294989988],[-61.017831978001503,-13.721520361598069],[-60.992195693098637,-13.733686396257813],[-60.978301313380989,-13.71055438946339],[-60.964409441900784,-13.687421936703101],[-60.982295307247355,-13.67631997585265],[-61.000179606118422,-13.665216481418195],[-61.018062338856275,-13.654111456638315],[-61.035943505804255,-13.643004904751798],[-61.044276409656277,-13.612747897116291],[-61.035761908857737,-13.596848618751357],[-61.003101872073202,-13.592752309085252],[-60.985427874261156,-13.608590420381015],[-60.967751552457628,-13.624426929743231],[-60.939981355839059,-13.629324503929992],[-60.916432149761455,-13.622304363419293],[-60.892884638789361,-13.615282186530251],[-60.888510688967173,-13.601882171064672],[-60.89231003765515,-13.541492072540866],[-60.904985807506122,-13.526500889525476],[-60.917659944749943,-13.51150881645901],[-60.930332451592079,-13.496515855559378],[-60.943003330237737,-13.481522009044125],[-60.956533049250027,-13.450417821049834],[-60.970058783236489,-13.419312334345268],[-60.9947172435255,-13.429075706674057],[-61.019377995809975,-13.438836936442858],[-61.044041037704844,-13.448596018130674],[-61.068706366821907,-13.458352946217458],[-61.093373980769805,-13.468107715183967],[-61.118043877154015,-13.477860319511892],[-61.142716053576891,-13.487610753683828],[-61.167390507637606,-13.497359012183225],[-61.189760799100853,-13.485564373779251],[-61.212129080029797,-13.473767452845713],[-61.250672425266437,-13.469883075717622],[-61.289215270215792,-13.465992629265582],[-61.315968384405515,-13.466173318794073],[-61.342721887997634,-13.466351163546081],[-61.363253383801919,-13.475046332889317],[-61.38378652710491,-13.483739986631646],[-61.40432131672118,-13.492432121372611],[-61.42485775146374,-13.501122733712197],[-61.461482527082147,-13.498677855792524],[-61.493787240569425,-13.486536724967221],[-61.526089077188153,-13.474391080765457],[-61.54148799467356,-13.461173660521697],[-61.556885244443066,-13.447955111275185],[-61.572280828013881,-13.434735435902578],[-61.587674746903595,-13.42151463728038],[-61.609215015020169,-13.427666164550491],[-61.630756552177125,-13.433815953898838],[-61.652299355998771,-13.439964002672859],[-61.673843424107922,-13.446110308220863],[-61.697499911600659,-13.446245484415776],[-61.721156636807329,-13.446378438813655],[-61.744813595455383,-13.446509171307328],[-61.768470783272001,-13.446637681791438],[-61.790334103899724,-13.433478718457755],[-61.812195144228347,-13.420317642050719],[-61.83405390466546,-13.407154458328066],[-61.855910385621037,-13.393989173047954],[-61.872617789730171,-13.378531384975483],[-61.889323072335671,-13.363072305492242],[-61.906026235940416,-13.347611938566972],[-61.922727283047699,-13.332150288167959],[-61.939426216161067,-13.31668735826306],[-61.956123037784444,-13.301223152819771],[-61.97281775042206,-13.285757675805094],[-61.989510356578478,-13.270290931185686],[-62.004700873113585,-13.246752745659055],[-62.019888369264244,-13.223213406596416],[-62.035072852374725,-13.199672919046266],[-62.050254329786377,-13.176131288055592],[-62.065432808837585,-13.152588518669923],[-62.080608296863872,-13.129044615933298],[-62.095780801197776,-13.105499584888234],[-62.110950329168958,-13.081953430575757],[-62.135535824331093,-13.077361169810642],[-62.160120555884696,-13.072766510217013],[-62.184704519550529,-13.068169454317394],[-62.209287711050941,-13.06357000463634],[-62.250105941432359,-13.068225159627623],[-62.290926059460958,-13.072873948592727],[-62.331748044160406,-13.077516364306781],[-62.372571874545827,-13.082152399560053],[-62.405994337255301,-13.07357505124625],[-62.439414669926585,-13.064993274724831],[-62.472832862976119,-13.056407078754278],[-62.50624890682753,-13.047816472099409],[-62.526852116691764,-13.030293804987231],[-62.547452442977558,-13.012769377187263],[-62.568049889207821,-12.995243195550056],[-62.588644458906494,-12.977715266925449],[-62.606923185807183,-12.951803055609066],[-62.625198092998126,-12.925889402894866],[-62.643469190820596,-12.899974316821577],[-62.661736489611791,-12.87405780542554],[-62.702159282878078,-12.861665517201899],[-62.742578236100734,-12.849266902191285],[-62.782993334236082,-12.836861978968866],[-62.823404562258339,-12.824450766121892],[-62.845763955337034,-12.803719129091855],[-62.868119697038175,-12.782985520410213],[-62.887070176561686,-12.77388290528512],[-62.906019308581612,-12.764778912418546],[-62.924967092480991,-12.755673544815819],[-62.943913527643986,-12.746566805482589],[-62.963100175257345,-12.706223420251598],[-62.982280756103791,-12.665878508910854],[-63.001455299122199,-12.62553208545665],[-63.020623833226935,-12.585184163877983],[-63.054799046653663,-12.575103660327345],[-63.088971577197775,-12.56501880112981],[-63.132156689838247,-12.56852748033671],[-63.175342901533391,-12.572029189057007],[-63.218530186957636,-12.575523921317872],[-63.261718520778928,-12.579011671165649],[-63.290640594129542,-12.567566260436204],[-63.319560048179319,-12.556117775872607],[-63.348476878967027,-12.544666226294554],[-63.377391082536974,-12.533211620523989],[-63.406302654938962,-12.521753967385129],[-63.43521159222832,-12.510293275704353],[-63.464117890465879,-12.498829554310312],[-63.493021545717937,-12.487362812033824],[-63.511712636506225,-12.477028060664935],[-63.530402208962215,-12.466692064723004],[-63.549090262992834,-12.456354827537984],[-63.567776798505989,-12.446016352440001],[-63.586461815410715,-12.435676642759292],[-63.605145313617065,-12.425335701826153],[-63.623827293036172,-12.414993532971062],[-63.642507753580233,-12.404650139524536],[-63.667787985207767,-12.396635343890747],[-63.693066559991351,-12.388618268786692],[-63.718343474393095,-12.38059891894447],[-63.743618724877848,-12.372577299097726],[-63.784885933477703,-12.378253768738237],[-63.826154541188664,-12.383923863794296],[-63.867424526757624,-12.389587575515819],[-63.908695868923367,-12.395244895168512],[-63.922057667516299,-12.405201738370648],[-63.923130398984405,-12.440534765090145],[-63.950766961187256,-12.440942799509843],[-63.978403397135672,-12.441348004513548],[-64.00603970006604,-12.441750379860487],[-64.033675863214739,-12.442149925313123],[-64.045414633358888,-12.425985988558008],[-64.067879084025876,-12.425394651047274],[-64.090343275518208,-12.424801458542213],[-64.112807204212615,-12.42420641134383],[-64.13527086648611,-12.423609509754469],[-64.155509314330985,-12.413525105412404],[-64.175746100593727,-12.403439320737982],[-64.195981224696084,-12.393352159551121],[-64.216214686061193,-12.383263625671955],[-64.25551474344995,-12.386479528565621],[-64.294815199816227,-12.389689651240099],[-64.334116036073894,-12.39289398930708],[-64.373417233133637,-12.396092538391656],[-64.402589679578469,-12.373078920297196],[-64.431756890843587,-12.3500626854083],[-64.450353367639451,-12.307255327111111],[-64.449912659519526,-12.226673893473798],[-64.470256452937107,-12.203918711271911],[-64.490596824048765,-12.181162388757935],[-64.510933780660011,-12.15840493467366],[-64.531267330574465,-12.135646357758709],[-64.571389392220283,-12.138419340495664],[-64.611511545798237,-12.141186403079704],[-64.613056543112094,-12.086509615251291],[-64.632045455647642,-12.05355209396749],[-64.656339270641254,-12.047084885126466],[-64.680631655889613,-12.040615708357668],[-64.70492260785781,-12.0341445672174],[-64.729212123013085,-12.02767146526325],[-64.757644719741819,-11.994257161182675],[-64.786070487573753,-11.960840872583328],[-64.812153859030062,-11.954863405474569],[-64.838235741999284,-11.948883677800222],[-64.864316131784193,-11.942901693362662],[-64.890395023690019,-11.936917455966078],[-64.916525140955883,-11.920496475327111],[-64.942651885498876,-11.904073533275778],[-64.968775258703488,-11.887648640201265],[-64.994895261957566,-11.871221806491972],[-65.006133024432586,-11.841579826247488],[-65.002660928758942,-11.785848052766656],[-64.999192110706034,-11.730115804925543],[-65.014375850200508,-11.693594632307963],[-65.029556281641518,-11.657073225067206],[-65.071662337485506,-11.656494425002348],[-65.113767137542993,-11.655909484536023],[-65.155870658060266,-11.655318404935612],[-65.197972875287661,-11.654721187484757],[-65.21036223978858,-11.613491815859279],[-65.222748996328249,-11.572262467675181],[-65.20110714385406,-11.547181421716671],[-65.179469258818898,-11.522098016560721],[-65.172995227135772,-11.476784100366903],[-65.190966198172603,-11.44661117010547],[-65.225312053788556,-11.430793960770776],[-65.259653489178106,-11.414973417484628],[-65.265954617889349,-11.355640494753516],[-65.249441615106306,-11.33186027449997],[-65.249095841382839,-11.287557597384012],[-65.260938760108033,-11.236443737259471],[-65.272779197126809,-11.185330051971228],[-65.261105894293564,-11.159472198162526],[-65.249435026414261,-11.133613445234653],[-65.237766586338722,-11.107753796515347],[-65.226100566920152,-11.081893255331165],[-65.214436961015181,-11.056031825007535],[-65.202775761483778,-11.030169508868815],[-65.191116961189309,-11.004306310238164],[-65.179460552998563,-10.978442232437711],[-65.17945902047353,-10.926166943312808],[-65.198135961770419,-10.858994714806888],[-65.216807322124936,-10.791822711781055],[-65.236431455443807,-10.768844724047998],[-65.256052712710073,-10.745866058526302],[-65.275671101660805,-10.722886723445447],[-65.295286630030759,-10.699906727032941],[-65.317426141126276,-10.648116146849324],[-65.339559710372271,-10.59632541860474],[-65.336398300388126,-10.54056119849079],[-65.333240222368389,-10.484796523051385],[-65.330085466036962,-10.429031393869273],[-65.32693402113938,-10.373265812526704],[-65.310359344276293,-10.345626507666072],[-65.293787918256243,-10.317985677212041],[-65.277219732284522,-10.290343328237388],[-65.260654775570259,-10.262699467812931],[-65.244093037326437,-10.235054103007467],[-65.227534506769814,-10.207407240887809],[-65.210979173121046,-10.179758888518794],[-65.194427025604554,-10.152109052963231],[-65.181253432194652,-10.109111177595338],[-65.182099292841741,-10.002182867522391],[-65.203210828899515,-9.9160143666674418],[-65.202801477767864,-9.8545518637093448],[-65.202394797351531,-9.7930891207018487],[-65.201990785255518,-9.7316261390942671],[-65.201589439101724,-9.6701629203368089],[-65.235979258703324,-9.6371340125637008],[-65.270362330213217,-9.6041031273545538],[-65.319535529774257,-9.6024170263576583],[-65.368706570506689,-9.6007240425001008],[-65.417875415196704,-9.5990241800134122],[-65.467042026640428,-9.5973174431536155],[-65.501684137051569,-9.6175152621929119],[-65.536329780263813,-9.6377085362756052],[-65.570978956452123,-9.6578972432943164],[-65.60563166577991,-9.6780813611461358],[-65.652075695733629,-9.6777256595450343],[-65.69186137776515,-9.6466936675939703],[-65.720884371900382,-9.6464655365769865],[-65.749906643300918,-9.6462349663663964],[-65.778928184283203,-9.6460019572548088],[-65.807948987164693,-9.6457665095379266],[-65.836969044263839,-9.6455286235145206],[-65.865988347900171,-9.6452882994864328],[-65.895006890394171,-9.6450455377585982],[-65.924024664067446,-9.6448003386390049],[-65.96757468485653,-9.6501868883581885],[-66.011124439308986,-9.6555675007035369],[-66.054673902507375,-9.6609421667413233],[-66.098223049530972,-9.6663108775554516],[-66.122865396461677,-9.6704065167511821],[-66.147507791726241,-9.6745001954320138],[-66.172150230975973,-9.678591911399625],[-66.196792709861569,-9.6826816624575525],[-66.221435224033044,-9.6867694464111604],[-66.246077769139831,-9.6908552610677088],[-66.270720340830735,-9.6949391042363118],[-66.295362934753911,-9.699020973727956],[-66.320005546556914,-9.7031008673554897],[-66.344648171886703,-9.7071787829336422],[-66.369290806389614,-9.7112547182790259],[-66.393933445711383,-9.7153286712101181],[-66.418576085497122,-9.7194006395473185],[-66.443218721391361,-9.7234706211128419],[-66.46786134903806,-9.7275386137308626],[-66.492503964080541,-9.7316046152274236],[-66.520579689341318,-9.7402634213802415],[-66.548656119429566,-9.7489193959536493],[-66.576733249282327,-9.757572532829867],[-66.604811073833844,-9.7662228258944097],[-66.632889588015715,-9.7748702690360751],[-66.660968786756712,-9.7835148561469776],[-66.689048664982977,-9.7921565811225975],[-66.717129217617867,-9.8007954378617583],[-66.748801688495377,-9.8188572324986989],[-66.780476856634735,-9.836914759552684],[-66.81215472162522,-9.8549680026102244],[-66.843835283047511,-9.8730169452621972],[-66.865598879945722,-9.8921148556061436],[-66.887364883418911,-9.9112103770314199],[-66.909133297699029,-9.9303035012829746],[-66.930904127015964,-9.9493942201059209],[-66.952677375597574,-9.9684825252454736],[-66.974453047669627,-9.987568408446915],[-66.996231147455831,-10.00665186145571],[-67.018011679177832,-10.025732876017377],[-67.037211604631267,-10.039787119677479],[-67.056412993498739,-10.053839588481722],[-67.075615847102341,-10.067890277723095],[-67.094820166762815,-10.081939182694983],[-67.114025953799484,-10.095986298691173],[-67.133233209530346,-10.110031621005838],[-67.152441935272023,-10.12407514493356],[-67.171652132339759,-10.138116865769314],[-67.211943561189841,-10.152939450581162],[-67.252236963860398,-10.167755553695377],[-67.292532327742293,-10.182565153593591],[-67.332829640211429,-10.197368228772604],[-67.35460927120134,-10.208560108614167],[-67.376389983906606,-10.21974988960768],[-67.398171777582945,-10.230937566973036],[-67.419954651484247,-10.242123135931294],[-67.441738604862493,-10.253306591704687],[-67.463523636967835,-10.264487929516639],[-67.485309747048461,-10.275667144591811],[-67.507096934350741,-10.286844232156071],[-67.526998712881294,-10.309125460768174],[-67.546903454203331,-10.331404241701328],[-67.547456488760545,-10.369724051215663],[-67.548011683307791,-10.408043740290797],[-67.548569039120068,-10.446363308487449],[-67.549128557477715,-10.484682755366382],[-67.558254066411578,-10.5052965866447],[-67.567381267325231,-10.52590962648928],[-67.587979336231996,-10.545704124442874],[-67.608580021280034,-10.565496145120084],[-67.636514585198427,-10.579417255966055],[-67.664450882430941,-10.593334798016096],[-67.692388911068278,-10.607248761520269],[-67.720328669195993,-10.621159136732018],[-67.734503723113988,-10.640778722608342],[-67.748680871775605,-10.660396865947325],[-67.7628601195172,-10.680013563118287],[-67.77704147067567,-10.699628810489966],[-67.770449490402356,-10.773187499502317],[-67.73231596003852,-10.781913636383111],[-67.702174221593367,-10.7785417739194],[-67.672031908582852,-10.775166675832256],[-67.637132392373246,-10.763017169641666],[-67.602234223258108,-10.750862540334706],[-67.567337410035421,-10.738702801072934],[-67.532441961494925,-10.726537965027012],[-67.492838417695012,-10.719876733621245],[-67.453234588013174,-10.713209730807888],[-67.413630490609549,-10.706536965619847],[-67.374026143640265,-10.699858447104358],[-67.34301358276484,-10.678039036649984],[-67.312004860477941,-10.656214767857595],[-67.280999972334058,-10.634385659737447],[-67.249998913877974,-10.612551731302975],[-67.218998747984358,-10.612969941881202],[-67.194837414689601,-10.643969204023403],[-67.148338260448327,-10.644546063530024],[-67.120610720853591,-10.627289723797292],[-67.092885743367191,-10.61002974001592],[-67.065163326996284,-10.592766124190151],[-67.037443470742204,-10.575498888326614],[-67.02356400685234,-10.553042111978028],[-67.009686951537532,-10.530583955273107],[-66.995812298887301,-10.508124422225787],[-66.98194004299269,-10.485663516849083],[-66.960412840594685,-10.495190670897482],[-66.961197132636016,-10.55654868399531],[-66.976950800076253,-10.58650115374652],[-66.992708329337276,-10.616451675651057],[-67.008469732895151,-10.646400242750072],[-67.024235023231327,-10.676346848082126],[-67.021886382891665,-10.74184738084988],[-67.019541949941356,-10.807348055475213],[-66.974854635863764,-10.800256175379344],[-66.930167138528702,-10.793157058267417],[-66.885479484272381,-10.786050716442906],[-66.840791699424628,-10.778937162231895],[-66.825240231325964,-10.753685250649839],[-66.809691826251225,-10.728431635037687],[-66.796764637045868,-10.682063843846345],[-66.78384367105393,-10.635694059985179],[-66.760494726763739,-10.629134082083477],[-66.75384846008653,-10.719474758564296],[-66.734792057270042,-10.744394627711907],[-66.715732816857809,-10.769314343235916],[-66.696670729479834,-10.794233896685201],[-66.67760578576204,-10.819153279606343],[-66.640484595556416,-10.823497200553369],[-66.603360867442234,-10.827836985222563],[-66.579547390928028,-10.839625643061824],[-66.555731592625961,-10.851413041522354],[-66.528562701572454,-10.851726030006679],[-66.501392982922866,-10.852036629555124],[-66.474222443014483,-10.852344839823379],[-66.447051088185646,-10.852650660469759],[-66.42068980661756,-10.841432180495651],[-66.394329923061662,-10.830210831819548],[-66.361628943701263,-10.832488307414868],[-66.32892640967458,-10.834762451420273],[-66.296222331835352,-10.837033261384969],[-66.263516721040702,-10.839300734863144],[-66.230809588150976,-10.841564869414105],[-66.198100944029846,-10.843825662602177],[-66.165390799544255,-10.846083111996746],[-66.132679165564355,-10.848337215172332],[-66.099852350692231,-10.829444424639902],[-66.06702900894291,-10.810546973043202],[-66.034209140445526,-10.791644878874219],[-66.001392745318682,-10.772738160629281],[-65.978868205584789,-10.750913701701213],[-65.956346893770274,-10.729086711449643],[-65.933828803203625,-10.707257200022012],[-65.911313927211737,-10.685425177565028],[-65.888802259120041,-10.663590654224638],[-65.866293792252407,-10.641753640146092],[-65.843788519931209,-10.619914145473844],[-65.821286435477319,-10.598072180351609],[-65.790310917763151,-10.598277459232897],[-65.759334565353669,-10.598479694190415],[-65.739947908523163,-10.585209213622599],[-65.72056276375929,-10.571937110423484],[-65.701179130121744,-10.55866338914349],[-65.681797006668972,-10.545388054333371],[-65.673401260545219,-10.552451764708417],[-65.674067516503072,-10.629249530170561],[-65.695105417861342,-10.660478059068057],[-65.72118792293098,-10.6897893755309],[-65.745741709182269,-10.702913857744949],[-65.77029726523557,-10.716035868822855],[-65.794854590395829,-10.729155401572971],[-65.81941368396491,-10.742272448804991],[-65.837844808662283,-10.759086524230833],[-65.856277938050795,-10.775898965649896],[-65.874713075140747,-10.792709767829892],[-65.893150222941571,-10.809518925538336],[-65.893445115626889,-10.840231813074086],[-65.869853503223595,-10.856945130829509],[-65.846259031648586,-10.873657289244232],[-65.82266169852474,-10.890368279682871],[-65.799061501476444,-10.907078093508785],[-65.778090896743763,-10.966257230911127],[-65.782393566858602,-11.010704713627696],[-65.78669918048945,-11.055151706090131],[-65.806441392162597,-11.087346066213222],[-65.826188491697721,-11.11953801645608],[-65.845940496596171,-11.151727545147683],[-65.865697424366729,-11.183914640612892],[-65.869912699889767,-11.217040881803024],[-65.87412987719101,-11.250166762491329],[-65.858408939266369,-11.324840149354692],[-65.842684445774367,-11.399514348876709],[-65.845302785555816,-11.441267725582676],[-65.847923391516815,-11.483020791317514],[-65.850546268561345,-11.524773545356718],[-65.853171421601701,-11.566525986975446],[-65.830015492096081,-11.60019230244305],[-65.806854523344583,-11.633857988324468],[-65.783688493427817,-11.66752302773522],[-65.760517380412892,-11.701187403784362],[-65.74937616037073,-11.75263537462604],[-65.738232898370512,-11.804083672988789],[-65.743447887882738,-11.846792383909271],[-65.748665995508944,-11.889500525726458],[-65.76746595558761,-11.924835371947045],[-65.786271552054416,-11.960167801706502],[-65.805082806003739,-11.995497803321367],[-65.823899738542721,-12.030825365102729],[-65.840753364946139,-12.043750044192691],[-65.857608513996666,-12.056673328936911],[-65.874465186894327,-12.069595215985927],[-65.891323384838273,-12.082515701990367],[-65.908183109026936,-12.095434783600911],[-65.925044360657864,-12.108352457468236],[-65.941907140927867,-12.121268720243135],[-65.958771451032931,-12.134183568576441],[-65.975637292168201,-12.147096999118999],[-65.992504665528074,-12.16000900852176],[-66.009373572306075,-12.172919593435719],[-66.026244013694949,-12.185828750511943],[-66.043115990886605,-12.19873647640151],[-66.059989505072167,-12.211642767755613],[-66.076864557441894,-12.224547621225504],[-66.093741149185234,-12.237451033462454],[-66.115534011881067,-12.249295738315652],[-66.137328522573256,-12.261138228402093],[-66.159124680879486,-12.272978498626951],[-66.18092248641527,-12.284816543896346],[-66.198130750970861,-12.31750265024181],[-66.215344046303386,-12.350186549230015],[-66.232562389070381,-12.382868231807858],[-66.24978579593909,-12.415547688918112],[-66.26228437923605,-12.453929105447786],[-66.274787956094528,-12.492308935183795],[-66.287296544487162,-12.530687172286047],[-66.29981016240346,-12.569063810910418],[-66.313345341140135,-12.587543675539681],[-66.326882628818495,-12.606022347717413],[-66.340422029219212,-12.624499824321415],[-66.353963546123637,-12.642976102228877],[-66.371280319328818,-12.657556808954469],[-66.388598987656479,-12.672135875118501],[-66.388888669447752,-12.634883631057665],[-66.403433138001347,-12.643763040859771],[-66.416571589790067,-12.672987923110298],[-66.42971375871393,-12.702211334834502],[-66.444873847431637,-12.721586401200906],[-66.46003640482823,-12.74095998312651],[-66.475201435417276,-12.76033207651472],[-66.490368943713008,-12.77970267726818],[-66.51401710063071,-12.775535674666775],[-66.537663924480356,-12.771366747154211],[-66.568546083699232,-12.793254242578451],[-66.585238437855793,-12.832741521566351],[-66.601937422750154,-12.872226261995014],[-66.615525450987448,-12.890458314200167],[-66.629115622831648,-12.908689115577721],[-66.642707941961362,-12.926918663028088],[-66.656302412055766,-12.945146953451044],[-66.641794376459487,-13.075043285958515],[-66.656036318643345,-13.101626803269165],[-66.670281896356144,-13.128208681160892],[-66.684531118792961,-13.154788914600973],[-66.698783995153519,-13.181367498554678],[-66.679597573537308,-13.270571669952947],[-66.683678489596389,-13.3117789536042],[-66.687762669472903,-13.352985705626326],[-66.710173919867813,-13.351970037597596],[-66.732584441661686,-13.350952428413548],[-66.7549942312708,-13.349932878637118],[-66.777403285112214,-13.348911388832658],[-66.790172204628661,-13.370842079446842],[-66.802943815676571,-13.392771476571886],[-66.824422362895476,-13.387555779013326],[-66.845899500269738,-13.382338495818297],[-66.854474860276525,-13.413624637462052],[-66.863053510744635,-13.444909825734971],[-66.881996510398096,-13.472985257693782],[-66.913002288143204,-13.484425389685741],[-66.922686445993619,-13.504677166912023],[-66.932372625935926,-13.524928096819613]]]},"properties":{"FID":0,"Id":0,"InPoly_FID":0,"MaxSimpTol":1000,"MinSimpTol":1000}}]}