{
  "type" : "FeatureCollection",
  "features" : [{"type":"Feature","id":1,"geometry":{"type":"Polygon","coordinates":[[[-62.651367870330887,-22.252360225244161],[-62.633668859929912,-22.216783260039392],[-62.260665159569442,-21.058500007169528],[-62.266645605310373,-20.562743267687608],[-61.922404907560406,-20.089239512993061],[-61.735471105806823,-19.634178195966911],[-60.600998482394004,-19.455933679795464],[-60.058666907251904,-19.315952532383392],[-60.114200000429662,-19.223464407756182],[-60.114200000429662,-19.082664407836091],[-60.237399999910053,-18.906664407936034],[-60.906100000314723,-18.677964406831848],[-61.310800000419647,-18.625164408210821],[-61.750699999605274,-18.484364408290787],[-62.049899999885042,-18.449164407411445],[-62.278600000089909,-18.572364406891836],[-62.524999999950012,-18.889064406597015],[-62.718500000174856,-19.311364407141639],[-62.947299999595259,-19.89206440714662],[-63.140899999935016,-20.578364407091669],[-63.31679999972016,-21.035964406831852],[-63.457599999640252,-21.634264407276532],[-63.51917268696991,-22.003501347609074],[-62.804782782899053,-22.002229801564056],[-62.80123886228364,-22.016125650078664],[-62.816982402116139,-22.033522082677905],[-62.814657272415161,-22.047072922477355],[-62.793094105408613,-22.06398288929887],[-62.810881181021671,-22.090764592811638],[-62.806495250355454,-22.109535751573617],[-62.812145077433343,-22.133828363687996],[-62.782212792486348,-22.174525410319404],[-62.765625238913628,-22.154872942931945],[-62.755518790859469,-22.152658992818203],[-62.732730391993982,-22.175541770136533],[-62.720418841356377,-22.210754489228236],[-62.709379508557447,-22.211213218115461],[-62.691048514877025,-22.1910529881049],[-62.679365647006989,-22.226875541972618],[-62.651367870330887,-22.252360225244161]]]},"properties":{"OBJECTID":1,"id_no":4015,"sci_name":"Catagonus wagneri","presence":1,"origin":1,"seasonal":1,"compiler":"IUCN","yrcompiled":2008,"citation":"IUCN (International Union for Conservation of Nature)","subspecies":" ","subpop":" ","source":" ","island":" ","tax_comm":" ","dist_comm":" ","generalisd":0,"legend":"Extant (resident)","kingdom":"ANIMALIA","phylum":"CHORDATA","class":"MAMMALIA","order_":"ARTIODACTYLA","family":"TAYASSUIDAE","genus":"Catagonus","category":"EN","marine":"false","terrestria":"true","freshwater":"false","SHAPE_Leng":21.624413147399999,"nom_comun":"Solitario","InPoly_FID":0,"SimPgnFlag":0,"MaxSimpTol":0.0044966102303778295,"MinSimpTol":0.0044966102303778295}}]
}