{
  "type" : "FeatureCollection",
  "features" : [{"type":"Feature","id":0,"geometry":{"type":"Polygon","coordinates":[[[-62.857977048999942,-20.125516252389701],[-62.858189676008806,-19.888305275697913],[-62.85839925799997,-19.651087982401744],[-62.882245019509995,-19.651089703970808],[-62.906090799259587,-19.651088263662409],[-62.929936592629375,-19.651083661473017],[-62.953782394999962,-19.651075897401711],[-62.977632654217516,-19.65107445692955],[-63.001482915999986,-19.651069853401722],[-63.025329857481267,-19.651077899630451],[-63.049176796957994,-19.651082783682224],[-63.073023729810089,-19.651084505556007],[-63.096870651417518,-19.651083065253367],[-63.120717557160219,-19.651078462778518],[-63.144564442418194,-19.651070698138238],[-63.168411302571421,-19.651059771341959],[-63.192258132999939,-19.651045682401719],[-63.192608474999986,-19.944733446394299],[-63.168717797348066,-19.944760386028726],[-63.144827085999964,-19.944784112394281],[-63.144907933999946,-20.03514663039201],[-63.121003794838785,-20.035164133426811],[-63.09709963217108,-20.035178407445947],[-63.073195450667797,-20.03518945243745],[-63.049291254999957,-20.035197268392018],[-63.049309220999987,-20.08038435839083],[-63.049305628999946,-20.080384359390873],[-63.025394274602036,-20.080390196402092],[-63.00148291499994,-20.080392796390854],[-63.001482915999986,-20.125566860389743],[-62.983544663109676,-20.125566922515794],[-62.965606411843808,-20.125565159458915],[-62.947668164178062,-20.125561571220064],[-62.929729922088121,-20.125556157801064],[-62.91179168754968,-20.125548919204576],[-62.893853462538388,-20.12553985543413],[-62.875915249029909,-20.125528966494098],[-62.857977048999942,-20.125516252389701]]]},"properties":{"FID":0,"pais":"Bolivia","codigo":"Bolivia-1238","nombre":"OVAI","cia":"YPFB","situacion":"Área Reservada a favor de YPFB","fuente":"DS Nº 3107 del 09/03/2017","fecha_atua":"mayo/2023","area_sig_h":161872.41745000001,"area_ofici":161250,"leyenda":"potencial","institucio":"FAN","pressiones":"A","limraisg":"s","amzbiog":"n","globalid":"{9ADCDE0D-79B1-441F-8379-90061C57A102}","shape_Leng":1.61742931119,"shape_Area":0.13919633669600001}},{"type":"Feature","id":1,"geometry":{"type":"Polygon","coordinates":[[[-62.883399374999954,-17.979130868445342],[-62.883609334999967,-17.979130982445337],[-62.907116563695674,-17.97914516637983],[-62.930623809999986,-17.979156501445345],[-62.930623809999986,-18.00174670144472],[-62.954236022326356,-18.001756683693827],[-62.977848243999972,-18.001763788444716],[-62.977839260999986,-18.092146842442332],[-63.007373634014691,-18.092147220308501],[-63.036908004617999,-18.09214307675963],[-63.06644236416227,-18.092134411800672],[-63.095976703999952,-18.092121225442334],[-63.096102406999933,-18.327004725436073],[-63.09610246799997,-18.327118826436088],[-63.072548023207091,-18.327128770906874],[-63.04899356499994,-18.327135807436129],[-63.048788201999969,-18.327135881436085],[-63.048806167999949,-18.408477574433949],[-63.02513666896197,-18.408482563894086],[-63.001467165077592,-18.408484605755536],[-62.977797660811177,-18.408483700016756],[-62.954128160627043,-18.408479846678606],[-62.930458668989544,-18.408473045744344],[-62.906789190362993,-18.408463297219676],[-62.883119729211714,-18.408450601112694],[-62.859450289999984,-18.408434957433933],[-62.859540119999956,-18.295461859436912],[-62.883192750737628,-18.295476116878284],[-62.906845402999977,-18.295487446436955],[-62.906845493999981,-18.295372505436962],[-62.906863369999932,-18.272892503437561],[-62.907067369999943,-18.27289257743756],[-62.930516010999959,-18.272901034437535],[-62.930516055999981,-18.272786766437545],[-62.930542960999965,-18.205115634439334],[-62.930745809999962,-18.205115707439319],[-62.95417763599994,-18.205124167439322],[-62.954177668999939,-18.205006690439326],[-62.954222551999976,-18.046952580443552],[-62.930704588560182,-18.046945507320537],[-62.907186637999978,-18.046935573443552],[-62.906980151999967,-18.046935498443553],[-62.906971211999974,-18.069413748442965],[-62.906971167999991,-18.069525545442936],[-62.883550176999968,-18.069517078442953],[-62.883345476999978,-18.06951700444295],[-62.883399374999954,-17.979130868445342]]]},"properties":{"FID":1,"pais":"Bolivia","codigo":"Bolivia-1240","nombre":"MENONITA","cia":"YPFB","situacion":"Área Reservada a favor de YPFB","fuente":"DS Nº 3107 del 09/03/2017","fecha_atua":"mayo/2023","area_sig_h":72028.889264700003,"area_ofici":71750,"leyenda":"potencial","institucio":"FAN","pressiones":"A","limraisg":"s","amzbiog":"n","globalid":"{E89EC5A8-D2E8-4D01-BF01-ECF8415C0E89}","shape_Leng":1.5185310488599999,"shape_Area":0.061336836573099997}},{"type":"Feature","id":2,"geometry":{"type":"Polygon","coordinates":[[[-63.286360972999944,-18.916539740420632],[-63.286124195591668,-18.775379978292726],[-63.285889536999953,-18.634218083427999],[-63.30662732182401,-18.634185652000308],[-63.327365062215598,-18.634150934290357],[-63.348102755166032,-18.634113930320009],[-63.368840397666695,-18.634074640112555],[-63.389577986708943,-18.634033063692733],[-63.410315519284239,-18.633989201086727],[-63.431052992384075,-18.633943052322142],[-63.451790402999968,-18.633894617428005],[-63.452152671695877,-18.769459353226676],[-63.452518037999937,-18.905022118420963],[-63.428775564999967,-18.905073110420975],[-63.428946244999963,-18.972852466419159],[-63.393324542165139,-18.972932824941882],[-63.357702669854916,-18.973006333537455],[-63.32208064336713,-18.973072992070716],[-63.286458477999986,-18.973132800419187],[-63.286455474999975,-18.973132806419169],[-63.286360972999944,-18.916539740420632]]]},"properties":{"FID":2,"pais":"Bolivia","codigo":"Bolivia-1247","nombre":"ABAPÓ","cia":"YPF S.A.","situacion":"Área con CSP en etapa de Protocolización","fuente":"DS Nº 3107 del 09/03/2017","fecha_atua":"mayo/2023","area_sig_h":63996.6853988,"area_ofici":63750,"leyenda":"solicitud","institucio":"FAN","pressiones":"A","limraisg":"s","amzbiog":"n","globalid":"{D2ADA80B-CAB7-4B46-B7FC-3CC0E9A0CBF7}","shape_Leng":1.00995799868,"shape_Area":0.0546747243248}},{"type":"Feature","id":3,"geometry":{"type":"Polygon","coordinates":[[[-62.435418526999968,-17.774987883450773],[-62.470795757130261,-17.775086163585431],[-62.506173208752841,-17.775178055240271],[-62.541550867049978,-17.775263558246305],[-62.57692871720338,-17.775342672446271],[-62.612306744394374,-17.775415397694651],[-62.647684933803852,-17.775481733857628],[-62.683063270612323,-17.775541680813117],[-62.718441739999946,-17.775595238450755],[-62.718262076999956,-17.888578752447732],[-62.741860751903893,-17.888610824024003],[-62.765459474807244,-17.888640037065063],[-62.789058241306968,-17.888666391546874],[-62.812657046999952,-17.888689887447725],[-62.81245043399997,-18.092052913442348],[-62.788820230742211,-18.092028743598735],[-62.765190066999935,-18.092001679442333],[-62.765073285999968,-18.182389459439939],[-62.741434094416732,-18.182356775410366],[-62.717794951999956,-18.182321182439928],[-62.717723086999975,-18.22751461343876],[-62.694076950265625,-18.227477894033264],[-62.670430871140141,-18.2274382577802],[-62.646784854066958,-18.227395704711867],[-62.623138903489419,-18.22735023486295],[-62.599493023850776,-18.227301848270528],[-62.575847219594266,-18.227250544974062],[-62.552201495162976,-18.227196325015392],[-62.528555854999979,-18.227139188438755],[-62.528439073999941,-18.27232951243753],[-62.504788534169634,-18.272269921597836],[-62.481138087427929,-18.272207406783394],[-62.457487738222255,-18.272141968045425],[-62.433837490999963,-18.272073605437537],[-62.434237552452046,-18.147804582834908],[-62.434634405336119,-18.023533948611004],[-62.435028060077336,-17.899261712296127],[-62.435418526999968,-17.774987883450773]]]},"properties":{"FID":3,"pais":"Bolivia","codigo":"Bolivia-1248","nombre":"AVISPA","cia":"YPFB","situacion":"Área Reservada a favor de YPFB","fuente":"DS Nº 3107 del 09/03/2017","fecha_atua":"mayo/2023","area_sig_h":183232.90916099999,"area_ofici":182500,"leyenda":"potencial","institucio":"FAN","pressiones":"A","limraisg":"s","amzbiog":"n","globalid":"{22422664-3524-4140-BE86-3FF00B974481}","shape_Leng":1.7499340544399999,"shape_Area":0.15582481538000001}},{"type":"Feature","id":4,"geometry":{"type":"Polygon","coordinates":[[[-62.058790861999967,-17.637972274454494],[-62.082355354687202,-17.638083278522299],[-62.105920017707739,-17.638191467566042],[-62.129484846688896,-17.638296841497585],[-62.153049837257811,-17.638399400231037],[-62.176614985041482,-17.638499143682822],[-62.200180285666718,-17.638596071771666],[-62.223745734760215,-17.638690184418561],[-62.247311327948438,-17.638781481546815],[-62.270877060857799,-17.638869963082026],[-62.294442929114481,-17.638955628952065],[-62.318008928344589,-17.639038479087123],[-62.341575054174065,-17.639118513419664],[-62.365141302228693,-17.639195731884467],[-62.388707668134195,-17.639270134418577],[-62.412274147516129,-17.639341720961355],[-62.435840735999932,-17.639410491454456],[-62.435328029891203,-17.803229186058001],[-62.434809794781017,-17.96704512620191],[-62.434286007106337,-18.130858289944943],[-62.433756642999981,-18.294668655436944],[-62.413059843913892,-18.294606570809758],[-62.392363129295553,-18.294542244664708],[-62.371666502126011,-18.29447567704219],[-62.35096996538622,-18.294406867983998],[-62.330273522057112,-18.294335817533366],[-62.309577175119493,-18.294262525734872],[-62.288880927554132,-18.294186992634554],[-62.268184782341699,-18.294109218279825],[-62.247488742462778,-18.294029202719521],[-62.226792810897884,-18.293946946003846],[-62.206096990627422,-18.293862448184456],[-62.185401284631737,-18.293775709314374],[-62.164705695891065,-18.293686729448037],[-62.144010227385529,-18.293595508641292],[-62.123314882095187,-18.293502046951392],[-62.102619662999984,-18.293406344436974],[-62.102502881999946,-18.31599861343641],[-62.072934941764139,-18.315856868193389],[-62.043367274320588,-18.315710544202755],[-62.013799888361,-18.315559641651415],[-61.984232792576663,-18.315404160732179],[-61.954665995658331,-18.31524410164365],[-61.925099506296327,-18.315079464590319],[-61.895533333180445,-18.314910249782528],[-61.865967484999949,-18.314736457436439],[-61.866551390999966,-18.224374665438834],[-61.84291189402412,-18.224233982466959],[-61.819272614240774,-18.224090385730875],[-61.795633556087083,-18.223943875348166],[-61.77199472399996,-18.223794451438813],[-61.77246737508645,-18.156019706382285],[-61.772937954999975,-18.088244472442447],[-61.79655952012147,-18.088393352044225],[-61.820181310694963,-18.08853934102811],[-61.843803322298818,-18.088682439274834],[-61.867425550511157,-18.088822646667509],[-61.891047990909875,-18.088959963091593],[-61.914670639072639,-18.089094388434923],[-61.938293490576918,-18.089225922587669],[-61.961916540999937,-18.089354565442381],[-61.962579227152411,-17.97639105262661],[-61.963237064999994,-17.86342620244843],[-61.986831036987077,-17.863550183340962],[-62.010425197914685,-17.863671311037304],[-62.034019543384964,-17.863789585438635],[-62.05761406899996,-17.86390500644843],[-62.058204654205852,-17.750939299709625],[-62.058790861999967,-17.637972274454494]]]},"properties":{"FID":4,"pais":"Bolivia","codigo":"Bolivia-1249","nombre":"MONTEVERDE","cia":"YPFB","situacion":"Área Reservada a favor de YPFB","fuente":"DS Nº 3107 del 09/03/2017","fecha_atua":"mayo/2023","area_sig_h":382672.11528199998,"area_ofici":381250,"leyenda":"potencial","institucio":"FAN","pressiones":"A","limraisg":"s","amzbiog":"n","globalid":"{C8865A4B-50AB-43E3-8319-39350B5BD7A7}","shape_Leng":2.67828828664,"shape_Area":0.32545456080399998}},{"type":"Feature","id":5,"geometry":{"type":"Polygon","coordinates":[[[-62.765190066999935,-18.092001679442333],[-62.788820230742211,-18.092028743598735],[-62.81245043399997,-18.092052913442348],[-62.812279753999981,-18.250226368438149],[-62.835927887933593,-18.250249156706776],[-62.859576052999962,-18.25026902443815],[-62.859540119999956,-18.295461859436912],[-62.859450289999984,-18.408434957433933],[-62.859414404999946,-18.453566959432742],[-62.859414355999952,-18.453629037432776],[-62.829817999202952,-18.453604724850205],[-62.80022169263561,-18.45357579405955],[-62.770625445029232,-18.453542245097829],[-62.741029265115017,-18.453504078007967],[-62.711433161624093,-18.45346129283881],[-62.681837143287403,-18.45341388964513],[-62.652241218835812,-18.45336186848759],[-62.622645396999985,-18.453305229432772],[-62.622744211999979,-18.408111064433957],[-62.587240268825866,-18.408037907549488],[-62.551736500557674,-18.407958119154294],[-62.516232922260748,-18.407871699395884],[-62.480729548999932,-18.407778648433986],[-62.480729766999957,-18.407705582433962],[-62.480999048999927,-18.31739720543635],[-62.481133790999934,-18.272210089437536],[-62.504786386129503,-18.272271263194952],[-62.528439073999941,-18.27232951243753],[-62.528555854999979,-18.227139188438755],[-62.552201495162976,-18.227196325015392],[-62.575847219594266,-18.227250544974062],[-62.599493023850776,-18.227301848270528],[-62.623138903489419,-18.22735023486295],[-62.646784854066958,-18.227395704711867],[-62.670430871140141,-18.2274382577802],[-62.694076950265625,-18.227477894033264],[-62.717723086999975,-18.22751461343876],[-62.717794951999956,-18.182321182439928],[-62.741434094416732,-18.182356775410366],[-62.765073285999968,-18.182389459439939],[-62.765190066999935,-18.092001679442333]]]},"properties":{"FID":5,"pais":"Bolivia","codigo":"Bolivia-1250","nombre":"ABEJA","cia":"YPFB","situacion":"Área Reservada a favor de YPFB","fuente":"DS Nº 3107 del 09/03/2017","fecha_atua":"mayo/2023","area_sig_h":99133.017298699997,"area_ofici":98750,"leyenda":"potencial","institucio":"FAN","pressiones":"A","limraisg":"s","amzbiog":"n","globalid":"{C1FA68D8-4693-4CF0-81D7-11E4FC7EC90B}","shape_Leng":1.4801612446100001,"shape_Area":0.084458208801200002}},{"type":"Feature","id":6,"geometry":{"type":"Polygon","coordinates":[[[-62.764013271999943,-18.95061075341976],[-62.764013624999961,-18.950373865419763],[-62.764148019999944,-18.8602371424221],[-62.734481941349287,-18.860196305876794],[-62.704815942017113,-18.860150742320201],[-62.675150030830196,-18.860100451810446],[-62.645484216615138,-18.860045434411678],[-62.615818508198416,-18.859985690194115],[-62.586152914406277,-18.859921219234078],[-62.556487444064835,-18.859852021613925],[-62.526822105999941,-18.859778097422105],[-62.527199397999937,-18.724219608425642],[-62.503486881220674,-18.72415779720977],[-62.479774458839849,-18.724092984586118],[-62.456062135358998,-18.724025170607785],[-62.432349915279531,-18.723954355330292],[-62.408637803102756,-18.723880538811638],[-62.384925803329864,-18.723803721112294],[-62.361213920461942,-18.72372390229517],[-62.337502158999932,-18.723641082425683],[-62.337672839999982,-18.678458921426859],[-62.313966235146829,-18.678375317670795],[-62.290259759999962,-18.678288720426856],[-62.290914782999948,-18.520132939430994],[-62.291382653999968,-18.407164954433963],[-62.315050630728479,-18.407242847050703],[-62.338718734210332,-18.407317792899118],[-62.362386959982807,-18.407389791915094],[-62.386055303583014,-18.40745884403696],[-62.409723760547983,-18.407524949205435],[-62.433392326414626,-18.407588107363647],[-62.457060996719733,-18.407648318457174],[-62.480729766999957,-18.407705582433962],[-62.516233074528863,-18.407816899597751],[-62.551736594581605,-18.407921585770872],[-62.587240312093662,-18.408019640772473],[-62.622744211999979,-18.408111064433957],[-62.622645396999985,-18.453305229432772],[-62.65224123426696,-18.453354108857404],[-62.681837171490898,-18.453398370338061],[-62.711433199941048,-18.453438013814388],[-62.741029310886546,-18.453473039231952],[-62.770625495596384,-18.453503446542225],[-62.8002217453394,-18.45352923570259],[-62.829818051384372,-18.45355040667636],[-62.859414404999946,-18.453566959432742],[-62.883089457388259,-18.45359756316515],[-62.90676453583059,-18.453625211754368],[-62.93043963585761,-18.453649905182164],[-62.954114752999942,-18.453671643432742],[-62.954078820999932,-18.58924199542918],[-62.989620662312241,-18.589249603406707],[-63.025162508999983,-18.589250509429196],[-63.025216406999959,-18.950755189419755],[-62.992565923975484,-18.950757257662449],[-62.959915443437254,-18.950753576515712],[-62.927264977163567,-18.950744145985549],[-62.894614536932686,-18.950728966086924],[-62.861964134522793,-18.950708036843711],[-62.829313781712038,-18.950681358288783],[-62.796663490278455,-18.950648930463892],[-62.764013271999943,-18.95061075341976]]]},"properties":{"FID":6,"pais":"Bolivia","codigo":"Bolivia-1251","nombre":"COLIBRÍ","cia":"YPFB","situacion":"Área Reservada a favor de YPFB","fuente":"DS Nº 3107 del 09/03/2017","fecha_atua":"mayo/2023","area_sig_h":343830.57262699999,"area_ofici":342500,"leyenda":"potencial","institucio":"FAN","pressiones":"A","limraisg":"s","amzbiog":"n","globalid":"{79F21662-4BF3-4B41-8CF5-F5A05D7449DA}","shape_Leng":2.5540678092400002,"shape_Area":0.29350586048499999}},{"type":"Feature","id":7,"geometry":{"type":"Polygon","coordinates":[[[-63.240907893999974,-20.283543682385744],[-63.240560544999937,-20.057636331391425],[-63.264464714999974,-20.057602577391421],[-63.264276067999958,-19.944640558394248],[-63.285180034851059,-19.944609057544429],[-63.306083959343368,-19.944575096675752],[-63.326987838356068,-19.944538675809955],[-63.347891668768398,-19.944499794970334],[-63.368795447459611,-19.944458454181753],[-63.389699171309033,-19.944414653470634],[-63.410602837196009,-19.944368392864956],[-63.431506441999936,-19.944319672394261],[-63.431815142999938,-20.056018243391485],[-63.431881036999982,-20.079860850390887],[-63.43225563499994,-20.215402865387478],[-63.432755075999978,-20.39611746438295],[-63.432755088999947,-20.396122269382968],[-63.432755098999969,-20.396125885382915],[-63.416784850999925,-20.396156753382932],[-63.394822144829426,-20.396208886737558],[-63.37285937300765,-20.39625825384022],[-63.350896539170236,-20.396304854656673],[-63.328933646952883,-20.396348689154621],[-63.306970699991339,-20.396389757303684],[-63.285007701921444,-20.396428059075451],[-63.263044656379016,-20.396463594443397],[-63.241081566999988,-20.396496363382948],[-63.240907893999974,-20.283543682385744]]]},"properties":{"FID":7,"pais":"Bolivia","codigo":"Bolivia-1252","nombre":"ORIENTAL","cia":"YPFB","situacion":"Área Libre","fuente":"DS Nº 3107 del 09/03/2017","fecha_atua":"mayo/2023","area_sig_h":97220.627061199993,"area_ofici":96875,"leyenda":"potencial","institucio":"FAN","pressiones":"A","limraisg":"s","amzbiog":"n","globalid":"{464CDC7A-CE59-42A8-82AF-E4EEFC15B2F8}","shape_Leng":1.2864393132600001,"shape_Area":0.083775587102099994}},{"type":"Feature","id":8,"geometry":{"type":"Polygon","coordinates":[[[-62.102619662999984,-18.293406344436974],[-62.123314882095187,-18.293502046951392],[-62.144010227385529,-18.293595508641292],[-62.164705695891065,-18.293686729448037],[-62.185401284631737,-18.293775709314374],[-62.206096990627422,-18.293862448184456],[-62.226792810897884,-18.293946946003846],[-62.247488742462778,-18.294029202719521],[-62.268184782341699,-18.294109218279825],[-62.288880927554132,-18.294186992634554],[-62.309577175119493,-18.294262525734872],[-62.330273522057112,-18.294335817533366],[-62.35096996538622,-18.294406867983998],[-62.371666502126011,-18.29447567704219],[-62.392363129295553,-18.294542244664708],[-62.413059843913892,-18.294606570809758],[-62.433756642999981,-18.294668655436944],[-62.433684777999979,-18.317269286436336],[-62.457341862867679,-18.317334711834786],[-62.480999048999927,-18.31739720543635],[-62.480729766999957,-18.407705582433962],[-62.480729548999932,-18.407778648433986],[-62.457060797233879,-18.407712250961573],[-62.43339214793906,-18.40764290643321],[-62.409723605578712,-18.407570614905648],[-62.386055174615997,-18.40749537643801],[-62.362386859513919,-18.407417191091842],[-62.338718664735403,-18.407336058931126],[-62.315050594743205,-18.407251980022231],[-62.291382653999968,-18.407164954433963],[-62.290915529999943,-18.520132942431022],[-62.290914782999948,-18.520132939430994],[-62.267231005059827,-18.520044985448948],[-62.243547364999984,-18.519954065431033],[-62.243448549999975,-18.54254215943045],[-62.219764393716432,-18.542445699988356],[-62.196080384999952,-18.542346271430446],[-62.196394795999943,-18.474572968432206],[-62.172715125934872,-18.474467945224642],[-62.149035612999974,-18.474359963432239],[-62.149152393999948,-18.451771397432818],[-62.113641411240067,-18.451608809524895],[-62.07813080493613,-18.451439575178878],[-62.042620590164347,-18.451263694706771],[-62.007110781999984,-18.451081168432836],[-62.00763180499996,-18.360713906435187],[-62.031293338371093,-18.360834736615281],[-62.054955053999947,-18.3609526284352],[-62.055197599999985,-18.315768355436418],[-62.078850154187741,-18.315884949439646],[-62.102502881999946,-18.31599861343641],[-62.102619662999984,-18.293406344436974]]]},"properties":{"FID":8,"pais":"Bolivia","codigo":"Bolivia-1254","nombre":"TITA-TECHI","cia":"YPFB","situacion":"Área Reservada a favor de YPFB","fuente":"DS Nº 3107 del 09/03/2017","fecha_atua":"mayo/2023","area_sig_h":81568.385877699999,"area_ofici":81250,"leyenda":"potencial","institucio":"FAN","pressiones":"A","limraisg":"s","amzbiog":"n","globalid":"{E6A0C433-D54A-492E-946A-484EDCDA99FF}","shape_Leng":1.44362044968,"shape_Area":0.069519141089099998}},{"type":"Feature","id":9,"geometry":{"type":"Polygon","coordinates":[[[-63.072593554999969,-18.679616278426828],[-63.096300095999936,-18.679599258426798],[-63.096300030999942,-18.679489899426841],[-63.09627314699997,-18.634413864427998],[-63.096484390999933,-18.634413674428018],[-63.120081753124389,-18.634393968107897],[-63.143679090999967,-18.634371301428036],[-63.167380728912562,-18.634354501279482],[-63.191082335878079,-18.634334714551496],[-63.214783907404531,-18.634311941261171],[-63.238485438999987,-18.634286181428056],[-63.238485439999984,-18.634286579428039],[-63.238673931999976,-18.769739219424483],[-63.238674084999964,-18.769848833424479],[-63.215057856102796,-18.76987996414816],[-63.191441585999932,-18.769908111424449],[-63.191234054999939,-18.769908371424481],[-63.191584396999978,-19.077182321416462],[-63.201088572999943,-19.077173831416491],[-63.201205353999967,-19.176584863413904],[-63.224983781148879,-19.176556707433132],[-63.24876216499996,-19.176525471413939],[-63.24876199999995,-19.176414580413912],[-63.248546569999974,-19.031934054417661],[-63.239042393999966,-19.031942546417675],[-63.238772899999958,-18.837631868422687],[-63.238976964999949,-18.837631649422686],[-63.262497405999966,-18.837606362422704],[-63.262497220999933,-18.837490119422664],[-63.262461473999963,-18.81500654542328],[-63.262672175999967,-18.815006243423294],[-63.286185980999967,-18.814972532423283],[-63.286360972999944,-18.916539740420632],[-63.286458477999986,-18.973132800419187],[-63.286886665999994,-19.221657817412773],[-63.263101594501485,-19.221694258257042],[-63.239316472291939,-19.221727611222878],[-63.215531303936388,-19.221757876283018],[-63.191746093999939,-19.221785053412734],[-63.191799992999961,-19.266972813411538],[-63.168010401559066,-19.266994416271064],[-63.144220778365629,-19.267012923901017],[-63.120431127989342,-19.267028336285616],[-63.09664145499994,-19.267040653411588],[-63.096614504999934,-19.221861394412731],[-63.072831614848219,-19.221871420606671],[-63.049048710999955,-19.221878359412724],[-63.049021761999938,-19.13149957541507],[-63.072791191338695,-19.131492624234767],[-63.096560606999958,-19.131482601415058],[-63.096479758999976,-18.995923622418584],[-63.120231226701378,-18.995908158707678],[-63.143982670999954,-18.995889646418586],[-63.143829957999969,-18.815142595423264],[-63.12010546206966,-18.815156858462494],[-63.096380943999968,-18.815168104423279],[-63.096380940999957,-18.815163851423289],[-63.096353994999951,-18.769976415424466],[-63.072629487999954,-18.769993425424431],[-63.072593554999969,-18.679616278426828]]]},"properties":{"FID":9,"pais":"Bolivia","codigo":"Bolivia-1258","nombre":"ARENALES","cia":"YPFB","situacion":"Área Reservada a favor de YPFB","fuente":"DS Nº 3107 del 09/03/2017","fecha_atua":"mayo/2023","area_sig_h":99247.694827900006,"area_ofici":98875,"leyenda":"potencial","institucio":"FAN","pressiones":"A","limraisg":"s","amzbiog":"n","globalid":"{491AE875-5259-47E0-9DFE-683C23AC34E0}","shape_Leng":2.71969597438,"shape_Area":0.0848837524495}},{"type":"Feature","id":10,"geometry":{"type":"Polygon","coordinates":[[[-63.048922947999976,-18.815185111423276],[-63.072651951607206,-18.815175990535916],[-63.096380940999957,-18.815163851423289],[-63.120105460271454,-18.81515473196421],[-63.143829957999969,-18.815142595423264],[-63.143982670999954,-18.995889646418586],[-63.120231226701378,-18.995908158707678],[-63.096479758999976,-18.995923622418584],[-63.096560606999958,-19.131482601415058],[-63.072791191338695,-19.131492624234767],[-63.049021761999938,-19.13149957541507],[-63.049048710999955,-19.221878359412724],[-63.072831614848219,-19.221871420606671],[-63.096614504999934,-19.221861394412731],[-63.09664145499994,-19.267040653411588],[-63.120431127989342,-19.267028336285616],[-63.144220778365629,-19.267012923901017],[-63.168010401559066,-19.266994416271064],[-63.191799992999961,-19.266972813411538],[-63.191746093999939,-19.221785053412734],[-63.215533503433228,-19.221756909162078],[-63.239320870999954,-19.221725676412724],[-63.239518500999971,-19.357285520409228],[-63.215920722999961,-19.357314925409256],[-63.191907789999959,-19.357344848409255],[-63.191880840999943,-19.33474804640981],[-63.168289839999943,-19.334773257409797],[-63.168084468999943,-19.334773476409815],[-63.168102434999973,-19.357361798409215],[-63.138348041187101,-19.357388159569272],[-63.108593605283637,-19.357409659639629],[-63.078839136238329,-19.357426298593218],[-63.049084642999951,-19.357438076409206],[-63.049156508999943,-19.583360222403449],[-63.025319715079185,-19.583366029087284],[-63.001482915999986,-19.583368685403475],[-63.001482915999986,-19.651069853401722],[-63.001482915999986,-19.651147201401731],[-62.977632643146016,-19.651144553434548],[-62.953782374999946,-19.651138742401709],[-62.953782394999962,-19.651075897401711],[-62.953818306999949,-19.538175615404583],[-62.977650611999934,-19.538184081404587],[-62.977674567999941,-19.357438070409223],[-62.977704511999946,-19.131508062415069],[-63.001473934113854,-19.131509598237624],[-63.025243355999976,-19.131508062415076],[-63.025243356999965,-19.086317083416251],[-63.049003795999958,-19.086317083416247],[-63.048922947999976,-18.815185111423276]]]},"properties":{"FID":10,"pais":"Bolivia","codigo":"Bolivia-1268","nombre":"CUPECITO","cia":"YPFB","situacion":"Área Reservada a favor de YPFB","fuente":"DS Nº 3107 del 09/03/2017","fecha_atua":"mayo/2023","area_sig_h":95994.7065994,"area_ofici":95625,"leyenda":"potencial","institucio":"FAN","pressiones":"A","limraisg":"s","amzbiog":"n","globalid":"{D0FFB05F-800B-44D5-A865-7221FF68D715}","shape_Leng":2.5686385328300001,"shape_Area":0.082224460708800004}},{"type":"Feature","id":11,"geometry":{"type":"Polygon","coordinates":[[[-63.00148291499994,-20.261120221386289],[-63.001485909999978,-20.261120220386307],[-63.025424517110544,-20.26111764116045],[-63.049363118999963,-20.261111793386291],[-63.049305628999946,-20.080384359390873],[-63.049291254999957,-20.035197268392018],[-63.073195450667797,-20.03518945243745],[-63.09709963217108,-20.035178407445947],[-63.121003794838785,-20.035164133426811],[-63.144907933999946,-20.03514663039201],[-63.145141495999944,-20.283644792385758],[-63.169083149533293,-20.283624423394958],[-63.193024770180756,-20.283600782050915],[-63.216966353237808,-20.283573868373612],[-63.240907893999974,-20.283543682385744],[-63.240910886999977,-20.283543679385772],[-63.241081566999988,-20.396496363382948],[-63.265039661833363,-20.396460119295273],[-63.288997703999939,-20.396420583382916],[-63.289252696924592,-20.531959689754892],[-63.289509749999979,-20.667496676376231],[-63.265509083949404,-20.667535305992438],[-63.241508365260771,-20.667570596050304],[-63.217507598691725,-20.667602546520424],[-63.193506788999969,-20.667631157376182],[-63.193165429999972,-20.396555302382929],[-63.169205947080144,-20.396579455325735],[-63.145246431053664,-20.396600315991765],[-63.121286886640952,-20.396617884363437],[-63.097327318562442,-20.396632160425913],[-63.07336773153861,-20.396643144167086],[-63.049408130289919,-20.396650835577617],[-63.02544851953688,-20.396655234650854],[-63.001488903999991,-20.396656341382929],[-63.00148291499994,-20.39665634238294],[-63.00148291499994,-20.261120221386289]]]},"properties":{"FID":11,"pais":"Bolivia","codigo":"Bolivia-1275","nombre":"BOYUIBE","cia":"YPFB","situacion":"Área Reservada a favor de YPFB","fuente":"DS Nº 3107 del 09/03/2017","fecha_atua":"mayo/2023","area_sig_h":90322.219417999993,"area_ofici":90000,"leyenda":"potencial","institucio":"FAN","pressiones":"A","limraisg":"s","amzbiog":"n","globalid":"{E59EF49E-668C-44F9-BF9E-61593FF54087}","shape_Leng":1.8399225239599999,"shape_Area":0.077913427036999994}},{"type":"Feature","id":12,"geometry":{"type":"Polygon","coordinates":[[[-62.431591701999935,-18.949888570419791],[-62.452367605822261,-18.949936360181194],[-62.47314358598728,-18.949981822226846],[-62.493919639460714,-18.950024956524668],[-62.514695763208259,-18.950065763044062],[-62.535471954195543,-18.950104241755884],[-62.556248209388151,-18.950140392632459],[-62.57702452575159,-18.950174215647596],[-62.59780090025135,-18.950205710776533],[-62.618577329852855,-18.950234877995996],[-62.639353811521488,-18.950261717284192],[-62.660130342222608,-18.950286228620758],[-62.680906918921508,-18.950308411986814],[-62.701683538583467,-18.950328267364966],[-62.722460198173735,-18.950345794739249],[-62.743236894657514,-18.950360994095192],[-62.764013624999961,-18.950373865419763],[-62.796663758840296,-18.95044165300671],[-62.829313977353323,-18.950503691562936],[-62.861964268761398,-18.95055998100878],[-62.894614621286735,-18.950610521273507],[-62.92726502315135,-18.950655312295343],[-62.959915462577207,-18.950694354021444],[-62.99256592778616,-18.950727646407898],[-63.025216406999959,-18.950755189419755],[-63.025243355999976,-19.131508062415076],[-63.001473934113854,-19.131509598237624],[-62.977704511999946,-19.131508062415069],[-62.97767756199994,-19.357438076409206],[-62.977674567999941,-19.357438070409223],[-62.956102107149448,-19.357434238115495],[-62.934529653215229,-19.357427850572908],[-62.912957209607718,-19.357418907785817],[-62.891384779737322,-19.357407409760302],[-62.869812367014447,-19.35739335650419],[-62.84823997484947,-19.357376748027004],[-62.826667606652748,-19.357357584340036],[-62.805095265834645,-19.357335865456282],[-62.783522955805452,-19.357311591390488],[-62.761950679975484,-19.357284762159122],[-62.740378441754984,-19.357255377780376],[-62.718806244554187,-19.357223438274197],[-62.697234091783301,-19.357188943662226],[-62.67566198685244,-19.357151893967877],[-62.654089933171747,-19.357112289216261],[-62.632517934151259,-19.357070129434245],[-62.610945993201028,-19.357025414650408],[-62.589374113730969,-19.356978144895063],[-62.567802299151012,-19.356928320200268],[-62.546230552871016,-19.356875940599792],[-62.524658878300748,-19.356821006129159],[-62.503087278849954,-19.356763516825591],[-62.481515757928271,-19.356703472728082],[-62.459944318945297,-19.356640873877314],[-62.438372965310556,-19.356575720315721],[-62.41680170043346,-19.356508012087478],[-62.395230527723385,-19.356437749238459],[-62.373659450589614,-19.356364931816309],[-62.352088472441324,-19.356289559870358],[-62.330517596687613,-19.356211633451707],[-62.308946826737525,-19.356131152613159],[-62.287376165999937,-19.356048117409262],[-62.287768027680272,-19.265684829795202],[-62.288157699999942,-19.175320642413947],[-62.311936040037239,-19.175411272180988],[-62.335714511999981,-19.175498822413914],[-62.335894174999972,-19.130311391415088],[-62.359663535984531,-19.130393554000875],[-62.383433018999931,-19.130472645415061],[-62.383603698999941,-19.085289873416272],[-62.407364081816318,-19.085367809302213],[-62.431124577999974,-19.085442682416243],[-62.431591701999935,-18.949888570419791]]]},"properties":{"FID":12,"pais":"Bolivia","codigo":"Bolivia-1278","nombre":"AYOREO","cia":"YPFB","situacion":"Área Reservada a favor de YPFB","fuente":"DS Nº 3107 del 09/03/2017","fecha_atua":"mayo/2023","area_sig_h":307338.67238599999,"area_ofici":306250,"leyenda":"potencial","institucio":"FAN","pressiones":"A","limraisg":"s","amzbiog":"n","globalid":"{21F55F0C-1B4D-46CE-ACFC-C16CA26D9E2B}","shape_Leng":2.2874222197499998,"shape_Area":0.26314856655699997}},{"type":"Feature","id":13,"geometry":{"type":"Polygon","coordinates":[[[-63.358484291999957,-19.334496783409826],[-63.358435032999985,-19.311904148410395],[-63.358385841999961,-19.289311456410974],[-63.358336720999944,-19.266718708411602],[-63.382127018999938,-19.266670545411557],[-63.405917243987361,-19.266619287517411],[-63.429707390999958,-19.266564934411591],[-63.429825281999968,-19.311749986410383],[-63.429943502999954,-19.356934811409264],[-63.43006205599994,-19.402119409408087],[-63.430180939999957,-19.447303780406937],[-63.406364577684741,-19.447358682661058],[-63.382548136999965,-19.447410458406939],[-63.382654151999994,-19.492594869405767],[-63.358831038135968,-19.49264364211869],[-63.335007854999958,-19.492689280405788],[-63.335007623999964,-19.492576781405777],[-63.334915038999945,-19.447504633406897],[-63.334822480999954,-19.402319759408094],[-63.334730180999941,-19.35713465840923],[-63.358533619999939,-19.357089362409237],[-63.358484291999957,-19.334496783409826]]]},"properties":{"FID":13,"pais":"Bolivia","codigo":"Bolivia-1326","nombre":"CAROHUAICHO 8B","cia":"YPFB","situacion":"Área Reservada a favor de YPFB","fuente":"DS Nº 3107 del 09/03/2017","fecha_atua":"mayo/2023","area_sig_h":20074.722342599998,"area_ofici":20000,"leyenda":"potencial","institucio":"FAN","pressiones":"A","limraisg":"s","amzbiog":"n","globalid":"{3568FB16-EFB0-4ADA-B2E5-2376991235E8}","shape_Leng":0.64230340769500005,"shape_Area":0.0172109378767}},{"type":"Feature","id":14,"geometry":{"type":"Polygon","coordinates":[[[-63.381452712999987,-18.972960489419162],[-63.405200959999952,-18.972910071419168],[-63.428949128999925,-18.972856609419178],[-63.452697216999979,-18.972800103419157],[-63.476445217999988,-18.972740553419147],[-63.476509456999963,-18.99533368941858],[-63.476638206999944,-19.040519793417445],[-63.476702717999956,-19.063112761416825],[-63.452941882999937,-19.063172616416846],[-63.429180961999968,-19.063229411416835],[-63.429239124999974,-19.08582247241625],[-63.429355697999945,-19.131008425415068],[-63.405585020841002,-19.131062366806383],[-63.381814265999935,-19.131113236415079],[-63.358148300494676,-19.131160817825684],[-63.334482266999935,-19.131205354415091],[-63.334272540999962,-19.131205762415103],[-63.334181782999963,-19.08601930741623],[-63.334091279999939,-19.040832629417409],[-63.334001032999929,-18.995645727418577],[-63.357752623160643,-18.995601341154131],[-63.381504144999951,-18.995553906418564],[-63.381452712999987,-18.972960489419162]]]},"properties":{"FID":14,"pais":"Bolivia","codigo":"Bolivia-1328","nombre":"CAROHUAICHO 8A","cia":"YPFB","situacion":"Área Reservada a favor de YPFB","fuente":"DS Nº 3107 del 09/03/2017","fecha_atua":"mayo/2023","area_sig_h":21330.369417599999,"area_ofici":21250,"leyenda":"potencial","institucio":"FAN","pressiones":"A","limraisg":"s","amzbiog":"n","globalid":"{A1B4FD20-89AF-4E97-B501-384206674836}","shape_Leng":0.60140681968999998,"shape_Area":0.018250899379099999}},{"type":"Feature","id":15,"geometry":{"type":"Polygon","coordinates":[[[-63.310755924926092,-19.266805748241289],[-63.334546356036789,-19.266763775549023],[-63.358336722882093,-19.26671870752606],[-63.358533621914276,-19.357089360083414],[-63.334730182991599,-19.35713465656184],[-63.335007856737498,-19.492689278536112],[-63.31118460810977,-19.492731783110813],[-63.287361299407749,-19.492771153186698],[-63.287722320628838,-19.696100134016472],[-63.288087861301129,-19.899424506757558],[-63.264204264807347,-19.899461561099436],[-63.264467885308925,-20.057599798297073],[-63.240560407103324,-20.057633938849584],[-63.240906964563514,-20.283541161611218],[-63.216964997746203,-20.283572449202865],[-63.193022988294636,-20.283600464370704],[-63.169080940913531,-20.28362520709145],[-63.145138860307654,-20.283646677344546],[-63.144950820460821,-20.080329292244173],[-63.16886188204608,-20.080308054408405],[-63.168765382323322,-19.989943357946927],[-63.192662746397147,-19.989919002099388],[-63.192362892902267,-19.741411594699684],[-63.192067557724201,-19.492897295653297],[-63.2158910602475,-19.492870461666879],[-63.239714521092445,-19.492840493067238],[-63.239648105948554,-19.447655468176585],[-63.263464920785786,-19.447622447968971],[-63.263428488711121,-19.425029892160936],[-63.287241959120564,-19.424993791237327],[-63.287044165366375,-19.312030386409294],[-63.310841183131387,-19.311991408554164],[-63.310755924926092,-19.266805748241289]],[[-63.211962503202457,-20.125443557173131],[-63.192828218767445,-20.125465520170888],[-63.192855929997322,-20.148056402350456],[-63.183287403475951,-20.148066616926474],[-63.183313775317743,-20.170657452827236],[-63.173743866289172,-20.170667159991339],[-63.173768896047925,-20.19325794946073],[-63.202482740112622,-20.193227229455047],[-63.202453575408605,-20.17063647769427],[-63.212023465572578,-20.170625208881955],[-63.211962503202457,-20.125443557173131]]]},"properties":{"FID":15,"pais":" ","codigo":" ","nombre":" ","cia":" ","situacion":" ","fuente":" ","fecha_atua":" ","area_sig_h":0,"area_ofici":0,"leyenda":" ","institucio":" ","pressiones":" ","limraisg":" ","amzbiog":" ","globalid":" ","shape_Leng":312934.00062800001,"shape_Area":1127787686.7}},{"type":"Feature","id":16,"geometry":{"type":"Polygon","coordinates":[[[-63.573715117349629,-19.627639958259341],[-63.59755730860217,-19.627562405759107],[-63.62139938415838,-19.627481695826763],[-63.621922622670411,-19.763026517666134],[-63.622450209123215,-19.898569275303753],[-63.598567821096658,-19.898651191806856],[-63.574685316476284,-19.898729903712464],[-63.550802699913469,-19.898805410955369],[-63.526919976059659,-19.898877713473023],[-63.526325294036518,-19.718150558062653],[-63.550181066930641,-19.71807896496728],[-63.574036733085975,-19.718004198608817],[-63.573715117349629,-19.627639958259341]]]},"properties":{"FID":16,"pais":" ","codigo":" ","nombre":" ","cia":" ","situacion":" ","fuente":" ","fecha_atua":" ","area_sig_h":0,"area_ofici":0,"leyenda":" ","institucio":" ","pressiones":" ","limraisg":" ","amzbiog":" ","globalid":" ","shape_Leng":85386.952874499999,"shape_Area":283996906.39999998}},{"type":"Feature","id":17,"geometry":{"type":"Polygon","coordinates":[[[-62.474537540915783,-20.350688233011653],[-62.501483011428789,-20.350767201171966],[-62.528428606108569,-20.350842013248744],[-62.555374318244382,-20.3509126691633],[-62.582320141125336,-20.350979168841285],[-62.60926606804037,-20.351041512212728],[-62.636212092278278,-20.351099699212046],[-62.663158207127736,-20.351153729778019],[-62.690104405877257,-20.351203603853786],[-62.717050681815259,-20.351249321386874],[-62.743997028230034,-20.351290882329195],[-62.770943438409809,-20.35132828663701],[-62.797889905642663,-20.351361534270954],[-62.824836423216667,-20.351390625196053],[-62.851782984419735,-20.351415559381692],[-62.878729582539805,-20.351436336801633],[-62.905676210864691,-20.35145295743402],[-62.905565925595567,-20.532174442562219],[-62.929546509620977,-20.532185841997119],[-62.953527107569975,-20.532193925317969],[-62.977507714703194,-20.53219869251804],[-63.001488326281262,-20.532200143593357],[-63.001490304371522,-20.735507548173381],[-62.977477823417665,-20.73550608140506],[-62.953465346935566,-20.735501262745672],[-62.929452879693272,-20.735493092199214],[-62.905440426458796,-20.73548156977251],[-62.905370047947869,-20.848427881844586],[-62.929400373173394,-20.848439472139628],[-62.953430712453923,-20.848447690644392],[-62.953402837730657,-20.938803752115561],[-62.923346936338504,-20.938792907358383],[-62.893291058838315,-20.938776769262699],[-62.863235214599413,-20.938755337849557],[-62.833179412991157,-20.938728613146925],[-62.803123663382735,-20.938696595189697],[-62.773067975143334,-20.938659284019671],[-62.743012357641952,-20.938616679685538],[-62.71295682024752,-20.938568782242893],[-62.682901372328786,-20.93851559175426],[-62.652846023254369,-20.938457108289072],[-62.622790782392684,-20.938393331923649],[-62.59273565911198,-20.938324262741212],[-62.562680662780267,-20.938249900831927],[-62.532625802765345,-20.938170246292838],[-62.502571088434792,-20.938085299227893],[-62.472516529155875,-20.937995059747948],[-62.47302840228329,-20.79117212081966],[-62.473535849111805,-20.644346660318558],[-62.474038888955,-20.497518692831576],[-62.474537540915783,-20.350688233011653]]]},"properties":{"FID":17,"pais":" ","codigo":" ","nombre":" ","cia":" ","situacion":" ","fuente":" ","fecha_atua":" ","area_sig_h":0,"area_ofici":0,"leyenda":" ","institucio":" ","pressiones":" ","limraisg":" ","amzbiog":" ","globalid":" ","shape_Leng":267980.97193900001,"shape_Area":3675497235.9200001}},{"type":"Feature","id":18,"geometry":{"type":"Polygon","coordinates":[[[-60.001324927041374,-18.610541355590396],[-60.020028329881484,-18.610838498208338],[-60.038732084654484,-18.611133787498275],[-60.0574361891615,-18.611427223309331],[-60.076140641203381,-18.611718805491584],[-60.094845438580769,-18.612008533896034],[-60.113550579094081,-18.61229640837464],[-60.132256060543497,-18.612582428780314],[-60.150961880728978,-18.612866594966867],[-60.169668037450265,-18.613148906789085],[-60.188374528506849,-18.6134293641027],[-60.207081351698044,-18.613707966764363],[-60.225788504822908,-18.613984714631677],[-60.24449598568031,-18.614259607563202],[-60.263203792068872,-18.614532645418411],[-60.281911921787021,-18.614803828057752],[-60.300620372632956,-18.615073155342579],[-60.299906941068905,-18.660212259990043],[-60.299191464589256,-18.705351121599076],[-60.298473940697704,-18.7504897396412],[-60.297754366889258,-18.795628113588339],[-60.274057308179074,-18.795283466662287],[-60.250360767058673,-18.794935818455325],[-60.249074468639208,-18.873924238815071],[-60.24778176106831,-18.952911904370076],[-60.246482630490526,-19.031898812283469],[-60.245177062966171,-19.110884959722089],[-60.221436510604974,-19.110527976067807],[-60.220681142435396,-19.155661658472471],[-60.185061662231227,-19.155119080695943],[-60.14944339383009,-19.154569612954617],[-60.148666546942067,-19.199700274145041],[-60.124915266047005,-19.199329197634864],[-60.101164535728046,-19.198955051915643],[-60.100372569679834,-19.244083571604683],[-60.099578380430891,-19.289211837535394],[-60.075015421286714,-19.288819900546748],[-60.050453061746147,-19.288424668343151],[-60.025891306821528,-19.288026141271779],[-60.001330161524557,-19.28762431968266],[-60.001344224090388,-19.219917885652588],[-60.001354111840698,-19.15221101950069],[-60.001359828198652,-19.084503722971288],[-60.001361376552985,-19.01679599781151],[-60.001358760258157,-18.949087845771324],[-60.001351982634411,-18.881379268603514],[-60.00134104696788,-18.813670268063653],[-60.001325956510705,-18.745960845910158],[-60.001327524218027,-18.678251310954209],[-60.001324927041374,-18.610541355590396]]]},"properties":{"FID":18,"pais":" ","codigo":" ","nombre":" ","cia":" ","situacion":" ","fuente":" ","fecha_atua":" ","area_sig_h":0,"area_ofici":0,"leyenda":" ","institucio":" ","pressiones":" ","limraisg":" ","amzbiog":" ","globalid":" ","shape_Leng":224787.768262,"shape_Area":2059130907.8699999}},{"type":"Feature","id":19,"geometry":{"type":"Polygon","coordinates":[[[-62.905812397258387,-20.125545798659164],[-62.929730392480238,-20.12555695313408],[-62.953648401460974,-20.125564862754665],[-62.977566419517331,-20.125569527514379],[-63.001484441965985,-20.12557094740934],[-63.001488326281262,-20.532200143593357],[-62.977507714703194,-20.53219869251804],[-62.953527107569975,-20.532193925317969],[-62.929546509620977,-20.532185841997119],[-62.905565925595567,-20.532174442562219],[-62.905812397258387,-20.125545798659164]]]},"properties":{"FID":19,"pais":" ","codigo":" ","nombre":" ","cia":" ","situacion":" ","fuente":" ","fecha_atua":" ","area_sig_h":0,"area_ofici":0,"leyenda":" ","institucio":" ","pressiones":" ","limraisg":" ","amzbiog":" ","globalid":" ","shape_Leng":117873.305054,"shape_Area":514783248.67799997}},{"type":"Feature","id":20,"geometry":{"type":"Polygon","coordinates":[[[-63.501283667631867,-19.334160110952173],[-63.525083252571001,-19.334093128026002],[-63.548882736498079,-19.334023038410397],[-63.572682114835274,-19.333949842163175],[-63.596481383004829,-19.333873539344708],[-63.596810364068048,-19.424240368603396],[-63.597141185699542,-19.514606294084803],[-63.620966661194444,-19.51452608580923],[-63.62139938415838,-19.627481695826763],[-63.59755730860217,-19.627562405759107],[-63.573715117349629,-19.627639958259341],[-63.574036733085975,-19.718004198608817],[-63.550181066930641,-19.71807896496728],[-63.526325294036518,-19.718150558062653],[-63.526770690890615,-19.853696262121822],[-63.52721977800595,-19.989239897825968],[-63.50332336434969,-19.989309336467048],[-63.503611151329061,-20.079670927278038],[-63.485678529798889,-20.079721138745992],[-63.46774585483525,-20.07976952972961],[-63.449813128410895,-20.079816100206308],[-63.431880352498602,-20.079860850154368],[-63.43149532048843,-19.938668974272016],[-63.431113574754292,-19.797474849498919],[-63.430735102032834,-19.65627848910686],[-63.430359889201547,-19.515079906422425],[-63.466099134823104,-19.514991360844835],[-63.501838177893823,-19.514895754446115],[-63.501283667631867,-19.334160110952173]]]},"properties":{"FID":20,"pais":" ","codigo":" ","nombre":" ","cia":" ","situacion":" ","fuente":" ","fecha_atua":" ","area_sig_h":0,"area_ofici":0,"leyenda":" ","institucio":" ","pressiones":" ","limraisg":" ","amzbiog":" ","globalid":" ","shape_Leng":218779.494542,"shape_Area":1106213482.25}},{"type":"Feature","id":21,"geometry":{"type":"Polygon","coordinates":[[[-59.274055480127139,-18.485252284423275],[-59.309532513730389,-18.484823140400255],[-59.34501065016638,-18.48438729414449],[-59.380489874413989,-18.483944745683804],[-59.415970171450205,-18.483495495058346],[-59.451451526250189,-18.483039542320661],[-59.486933923787319,-18.482576887535615],[-59.522417349033184,-18.482107530780464],[-59.557901786957636,-18.481631472144826],[-59.593387222528897,-18.481148711730679],[-59.628873640713465,-18.480659249652359],[-59.664361026476257,-18.480163086036583],[-59.69984936478059,-18.479660221022439],[-59.735338640588239,-18.479150654761348],[-59.770828838859465,-18.478634387417149],[-59.806319944553046,-18.478111419166016],[-59.841811942626322,-18.477581750196514],[-59.842942889644092,-18.545282865078946],[-59.844070345641668,-18.612983695737157],[-59.845194312930943,-18.680684240291466],[-59.846314793802044,-18.74838449686564],[-59.822623418957896,-18.748743660642074],[-59.798932434338219,-18.749099801587796],[-59.775241844428876,-18.749452919643389],[-59.751551653715481,-18.749803014751908],[-59.727861866683313,-18.750150086858888],[-59.704172487817431,-18.75049413591238],[-59.680483521602561,-18.750835161862874],[-59.656794972523137,-18.751173164663378],[-59.657688583930103,-18.80759799565789],[-59.658579568324242,-18.864022632580287],[-59.659467926739815,-18.92044707433282],[-59.660353660199284,-18.976871319819416],[-59.695935490778247,-18.976356567278135],[-59.731518247724239,-18.975834924469712],[-59.767101915805767,-18.975306391563905],[-59.802686479789919,-18.974770968743258],[-59.804028053989754,-19.053753896204473],[-59.80536485968333,-19.132736429938969],[-59.806696900561498,-19.211718566979449],[-59.808024180274941,-19.290700304365142],[-59.772367899212632,-19.291245465369499],[-59.736712503661977,-19.291783611679179],[-59.701058008995545,-19.292314743104306],[-59.665404430584523,-19.292838859468084],[-59.629751783798596,-19.2933559606067],[-59.594100084006001,-19.293866046369359],[-59.55844934657344,-19.294369116618313],[-59.522799586866014,-19.294865171228803],[-59.521608488066491,-19.215865074260837],[-59.520411956143739,-19.136864595083519],[-59.519209988914675,-19.057863736721593],[-59.518002584147148,-18.978862502206326],[-59.486836205891777,-18.97928437776628],[-59.455670606939186,-18.979700964982126],[-59.424505797521903,-18.980112263797459],[-59.393341787871471,-18.980518274163444],[-59.362178588218356,-18.980918996038699],[-59.331016208792001,-18.981314429389396],[-59.299854659820745,-18.981704574189173],[-59.268693951531858,-18.982089430419197],[-59.237534094151506,-18.982468998068146],[-59.206375097904683,-18.982843277132179],[-59.175216973015274,-18.983212267614981],[-59.144059729705965,-18.983575969527713],[-59.112903378198283,-18.983934382889071],[-59.081747928712517,-18.98428750772522],[-59.05059339146775,-18.984635344069851],[-59.019439776681821,-18.984977891964132],[-58.988287094571312,-18.985315151456746],[-58.957135355351483,-18.985647122603872],[-58.925984569236348,-18.985973805469165],[-58.894834746438541,-18.986295200123802],[-58.863685897169432,-18.986611306646424],[-58.832538031638961,-18.986922125123204],[-58.801391160055722,-18.987227655647761],[-58.770245292626946,-18.98752789832125],[-58.739100439558371,-18.987822853252275],[-58.707956611054378,-18.988112520556953],[-58.676813817317871,-18.988396900358882],[-58.645672068550255,-18.988675992789137],[-58.614531374951476,-18.988949797986304],[-58.583391746719975,-18.989218316096402],[-58.552253194052646,-18.989481547272995],[-58.521115727144867,-18.989739491677067],[-58.520505843222345,-18.921981237405983],[-58.519890220281432,-18.85422274183847],[-58.555468165821821,-18.853929136393759],[-58.591047531585339,-18.853628670459464],[-58.626628302383033,-18.853321343798395],[-58.662210463023307,-18.853007156186013],[-58.697793998311944,-18.852686107410506],[-58.733378893052183,-18.852358197272732],[-58.768965132044748,-18.852023425586239],[-58.804552700087847,-18.851681792177253],[-58.803834132476567,-18.78393230301144],[-58.803110305778858,-18.716182566000569],[-58.826804170196759,-18.715953208787894],[-58.850498614802135,-18.715720828585926],[-58.874193635113059,-18.715485425352465],[-58.897889226647102,-18.71524699904775],[-58.921585384921407,-18.71500554963453],[-58.945282105452641,-18.714761077078034],[-58.968979383757031,-18.714513581345955],[-58.992677215350326,-18.714263062408492],[-59.01637559574786,-18.714009520238317],[-59.040074520464522,-18.713752954810566],[-59.063773985014741,-18.713493366102895],[-59.08747398491257,-18.713230754095424],[-59.111174515671571,-18.71296511877074],[-59.134875572804944,-18.712696460113953],[-59.158577151825433,-18.712424778112613],[-59.182279248245393,-18.712150072756799],[-59.181706397581358,-18.666993451181003],[-59.181131492330707,-18.621836714086545],[-59.180554532427919,-18.576679862060139],[-59.179975517800969,-18.531522895689175],[-59.203643895572959,-18.531248345484265],[-59.227312783499393,-18.530970805445261],[-59.250982177118608,-18.530690275569086],[-59.274652071968575,-18.530406755855086],[-59.274055480127139,-18.485252284423275]]]},"properties":{"FID":21,"pais":" ","codigo":" ","nombre":" ","cia":" ","situacion":" ","fuente":" ","fecha_atua":" ","area_sig_h":0,"area_ofici":0,"leyenda":" ","institucio":" ","pressiones":" ","limraisg":" ","amzbiog":" ","globalid":" ","shape_Leng":518569.65934700001,"shape_Area":6723893793.8599997}},{"type":"Feature","id":22,"geometry":{"type":"Polygon","coordinates":[[[-59.656794972523137,-18.751173164663378],[-59.678325689532173,-18.750866124420423],[-59.699856751493066,-18.750556586704892],[-59.721388155038625,-18.750244551551777],[-59.742919896801489,-18.749930018997812],[-59.764451973414069,-18.749612989081399],[-59.785984381508584,-18.749293461842633],[-59.807517117717097,-18.748971437323334],[-59.829050178671437,-18.748646915566969],[-59.850583561003262,-18.748319896618746],[-59.872117261344059,-18.74799038052555],[-59.893651276325116,-18.747658367335941],[-59.915185602577552,-18.747323857100209],[-59.936720236732313,-18.746986849870328],[-59.958255175420177,-18.746647345699941],[-59.979790415271736,-18.746305344644433],[-60.001325952917433,-18.745960846760838],[-60.001341058826561,-18.813670269013951],[-60.001352009957451,-18.881379269655142],[-60.001358803058046,-18.949087846926023],[-60.001361434842302,-19.016795999070983],[-60.001359901990028,-19.084503724337253],[-60.001354201146867,-19.152211020974885],[-60.001344328924141,-19.219917887236715],[-60.001330281898795,-19.287624321378452],[-59.977165704353219,-19.288020090889987],[-59.953001492906722,-19.288412640092407],[-59.928837652344761,-19.28880196890281],[-59.9046741874525,-19.289188077241029],[-59.880511103014861,-19.289570965029672],[-59.856348403816497,-19.289950632194053],[-59.83218609464182,-19.290327078662269],[-59.808024180274941,-19.290700304365142],[-59.806696900561498,-19.211718566979449],[-59.80536485968333,-19.132736429938969],[-59.804028053989754,-19.053753896204473],[-59.802686479789919,-18.974770968743258],[-59.767101915805767,-18.975306391563905],[-59.731518247724239,-18.975834924469712],[-59.695935490778247,-18.976356567278135],[-59.660353660199284,-18.976871319819416],[-59.659467926739815,-18.92044707433282],[-59.658579568324242,-18.864022632580287],[-59.657688583930103,-18.80759799565789],[-59.656794972523137,-18.751173164663378]]]},"properties":{"FID":22,"pais":" ","codigo":" ","nombre":" ","cia":" ","situacion":" ","fuente":" ","fecha_atua":" ","area_sig_h":0,"area_ofici":0,"leyenda":" ","institucio":" ","pressiones":" ","limraisg":" ","amzbiog":" ","globalid":" ","shape_Leng":203288.68791400001,"shape_Area":1825562303.3}}]
}