{
  "type" : "FeatureCollection",
  "features" : [{"type":"Feature","id":0,"geometry":{"type":"Polygon","coordinates":[[[-63.323445590999931,-19.209138473999928],[-63.342471556999961,-19.209103914999961],[-63.342508994999953,-19.227178533999968],[-63.323480948999986,-19.22721312799996],[-63.323445590999931,-19.209138473999928]]]},"properties":{"FID":0,"OBJECTID":2902,"Entity":" ","MSLINK":23864,"NROFOR":23864,"PADRONACIO":"707-02464","NOMCON":"MARIA JOSE","NOMPET":"JOSE PADILLA ROJAS","NOMEMP":"*","CUASOL":"16","DEPARTAMEN":"SANTA CRUZ","PROVIN":"CORDILLERA","CANTON":"SAIPURU","ASIGNADAS":16,"Shape_Leng":0.0742034211902,"Shape_Le_1":0.0742034211902,"Shape_Area":0.00034390747564900002}},{"type":"Feature","id":1,"geometry":{"type":"Polygon","coordinates":[[[-63.375085682999952,-18.906284635999953],[-63.394077037999985,-18.906245322999958],[-63.394066458999987,-18.901726540999956],[-63.403561863999975,-18.901706161999979],[-63.403572697999948,-18.906224938999973],[-63.398824869999942,-18.90623519199994],[-63.39885700899999,-18.919791517999954],[-63.375115908999994,-18.919840998999973],[-63.375085682999952,-18.906284635999953]]]},"properties":{"FID":1,"OBJECTID":2992,"Entity":" ","MSLINK":25338,"NROFOR":25338,"PADRONACIO":"707-02631","NOMCON":"ROCA  DURA  II","NOMPET":"INVERSIONES SUCRE S.A. ISSA","NOMEMP":"INVERSIONES SUCRE S.A. ISSA","CUASOL":"17","DEPARTAMEN":"SANTA CRUZ","PROVIN":"CORDILLERA","CANTON":"ABAPO","ASIGNADAS":17,"Shape_Leng":0.093126158357799999,"Shape_Le_1":0.093126158357799999,"Shape_Area":0.00036473695663600002}},{"type":"Feature","id":2,"geometry":{"type":"Polygon","coordinates":[[[-63.341786512999988,-18.874717052999923],[-63.351280451999976,-18.874699369999977],[-63.351261627999975,-18.865661728999957],[-63.370248456999946,-18.865624927999932],[-63.370228625999964,-18.856587296999976],[-63.374975071999991,-18.856577798999982],[-63.374954997999964,-18.847540163999948],[-63.389193555999952,-18.847510959999969],[-63.389235240999945,-18.865586190999974],[-63.384488548999968,-18.865596056999948],[-63.384498849999943,-18.870114861999983],[-63.370258375999988,-18.870143740999932],[-63.370288152999926,-18.883700163999947],[-63.379782567999932,-18.883681017999947],[-63.379823328999976,-18.901756199999966],[-63.394066458999987,-18.901726540999956],[-63.394077037999985,-18.906245322999958],[-63.367963912435606,-18.906298877059044],[-63.341850701999981,-18.906348760999943],[-63.341786512999988,-18.874717052999923]]]},"properties":{"FID":2,"OBJECTID":2993,"Entity":" ","MSLINK":25337,"NROFOR":25337,"PADRONACIO":"707-02630","NOMCON":"ROCA  DURA","NOMPET":"INVERSIONES SUCRE S.A. ISSA","NOMEMP":"INVERSIONES SUCRE S.A. ISSA","CUASOL":"80","DEPARTAMEN":"SANTA CRUZ","PROVIN":"CORDILLERA","CANTON":"ABAPO","ASIGNADAS":80,"Shape_Leng":0.25990642037400002,"Shape_Le_1":0.25990642037400002,"Shape_Area":0.00171607932581}},{"type":"Feature","id":3,"geometry":{"type":"Polygon","coordinates":[[[-63.422632114999935,-18.933295265999963],[-63.427380692999975,-18.933284389999987],[-63.427369201999966,-18.928765639999945],[-63.432117648999963,-18.928754644999966],[-63.432164144999938,-18.946829620999953],[-63.422666224999951,-18.946851511999959],[-63.422632114999935,-18.933295265999963]]]},"properties":{"FID":3,"OBJECTID":3057,"Entity":" ","MSLINK":26092,"NROFOR":26092,"PADRONACIO":"707-02761","NOMCON":"QUIMERA","NOMPET":"MARCO LUCIANO MEDINACELI RICO","NOMEMP":"*","CUASOL":"7","DEPARTAMEN":"SANTA CRUZ","PROVIN":"CORDILLERA","CANTON":"ABAPO","ASIGNADAS":7,"Shape_Leng":0.055145084738799997,"Shape_Le_1":0.055145084738799997,"Shape_Area":0.000150208824864}},{"type":"Feature","id":4,"geometry":{"type":"Polygon","coordinates":[[[-63.403496920999942,-18.874593453999974],[-63.417737712999951,-18.874562024999939],[-63.417782523999968,-18.892637139999973],[-63.408287646999952,-18.892658235999928],[-63.40827669399993,-18.888139454999934],[-63.403529377999973,-18.888149817999931],[-63.403496920999942,-18.874593453999974]]]},"properties":{"FID":4,"OBJECTID":3058,"Entity":" ","MSLINK":26091,"NROFOR":26091,"PADRONACIO":"707-02760","NOMCON":"ILUSION","NOMPET":"MARCO LUCIANO MEDINACELI RICO","NOMEMP":"*","CUASOL":"34","DEPARTAMEN":"SANTA CRUZ","PROVIN":"CORDILLERA","CANTON":"ABAPO","ASIGNADAS":11,"Shape_Leng":0.0646334221036,"Shape_Le_1":0.0646334221036,"Shape_Area":0.000235967805868}},{"type":"Feature","id":5,"geometry":{"type":"Polygon","coordinates":[[[-60.542200833999971,-18.50657543799997],[-60.546933273999976,-18.506636891999964],[-60.546868911999979,-18.511151807999969],[-60.556334094999954,-18.511274393999933],[-60.556269961999988,-18.515789338999983],[-60.561002704999957,-18.515850470999961],[-60.560938676999974,-18.520365429999973],[-60.56567156299996,-18.520426458999964],[-60.565607640999986,-18.524941431999942],[-60.570340667999972,-18.525002358999927],[-60.570276851999949,-18.529517344999935],[-60.579743210999943,-18.529638875999979],[-60.57961601899995,-18.538668904999952],[-60.570149163999986,-18.538547310999949],[-60.570021402999949,-18.547577266999951],[-60.565287753999939,-18.547516260999942],[-60.565223721999985,-18.552031218999957],[-60.560489967999956,-18.551970078999947],[-60.560425792999972,-18.556485018999982],[-60.555691932999935,-18.556423743999972],[-60.555627615999981,-18.560938665999966],[-60.550893649999978,-18.560877255999969],[-60.55076470999996,-18.569907060999981],[-60.546030514999984,-18.569845500999975],[-60.545965892999959,-18.574360383999934],[-60.541231590999992,-18.574298688999935],[-60.541102042999974,-18.583328414999986],[-60.536367510999987,-18.583266568999928],[-60.536302584999987,-18.587781412999963],[-60.531567946999992,-18.587719431999975],[-60.531437788999938,-18.596749079999938],[-60.526702920999973,-18.596686947999956],[-60.526637689999973,-18.601201751999955],[-60.521902715999943,-18.601139485999962],[-60.521837340999973,-18.605654270999935],[-60.517102260999934,-18.605591869999952],[-60.516971205999944,-18.614621400999969],[-60.512235895999936,-18.614558847999948],[-60.512170214999969,-18.619073593999921],[-60.507434798999945,-18.619010905999968],[-60.50736897499997,-18.623525632999932],[-60.502633452999987,-18.623462809999978],[-60.502501498999955,-18.632492223999975],[-60.493030012999959,-18.632366154999936],[-60.492897482999979,-18.641395494999927],[-60.488161518999959,-18.641332248999959],[-60.488095100999942,-18.645846898999931],[-60.483359029999974,-18.645783516999927],[-60.483225886999939,-18.654812776999954],[-60.478489585999966,-18.654749242999966],[-60.478422860999956,-18.65926385299997],[-60.473686453999953,-18.659200183999925],[-60.473619583999955,-18.663714773999963],[-60.468883070999929,-18.663650969999939],[-60.468749024999966,-18.672680110999984],[-60.464012280999945,-18.672616153999968],[-60.463945103999947,-18.677130703999978],[-60.459208253999975,-18.67706661099993],[-60.459140932999951,-18.68158114199997],[-60.45440397699997,-18.681516912999943],[-60.45426902599997,-18.690545935999975],[-60.449531838999974,-18.69048155399997],[-60.449464208999984,-18.694996044999982],[-60.444726915999979,-18.694931526999941],[-60.444659140999939,-18.699445998999977],[-60.439921742999964,-18.699381344999949],[-60.439853822999972,-18.703895796999969],[-60.435116318999974,-18.703831006999962],[-60.434980170999957,-18.712859871999964],[-60.430242434999968,-18.712794927999941],[-60.430174206999929,-18.717309339999929],[-60.425436363999957,-18.717244259999976],[-60.425367990999973,-18.721758652999934],[-60.42063004299996,-18.721693436999942],[-60.420561524999989,-18.726207809999952],[-60.415823470999953,-18.726142456999977],[-60.41568612399994,-18.735171162999965],[-60.410947837999963,-18.735105656999959],[-60.410879009999981,-18.739619988999948],[-60.406140618999984,-18.739554346999963],[-60.406002651999984,-18.748582969999976],[-60.401264027999957,-18.748517172999978],[-60.401194889999942,-18.753031464999928],[-60.396456160999946,-18.752965530999976],[-60.396317571999987,-18.761994071999936],[-60.39157861099995,-18.761927984999943],[-60.391509161999984,-18.766442234999939],[-60.386770094999974,-18.766376009999927],[-60.386700498999971,-18.770890240999965],[-60.381961326999942,-18.770823878999987],[-60.381891584999948,-18.775338089999938],[-60.377152306999953,-18.775271591999967],[-60.377012512999961,-18.784299971999932],[-60.372273001999986,-18.784233318999949],[-60.372202948999991,-18.788747487999956],[-60.367463331999936,-18.788680697999954],[-60.36739313399994,-18.793194847999924],[-60.362653410999947,-18.79312792099995],[-60.362583065999949,-18.797642049999975],[-60.35784323699994,-18.797574985999965],[-60.357702234999969,-18.806603202999955],[-60.35296217399997,-18.806535983999932],[-60.352891516999932,-18.811050071999944],[-60.348151349999966,-18.810982714999966],[-60.348080545999949,-18.815496782999954],[-60.343340272999974,-18.815429288999951],[-60.343198352999941,-18.824457382999984],[-60.338457846999972,-18.824389733999965],[-60.33838673099995,-18.82890375999995],[-60.333646118999987,-18.828835972999968],[-60.333503571999984,-18.837863982999977],[-60.324021904999938,-18.837727977999975],[-60.323878770999954,-18.846755907999977],[-60.319137714999947,-18.846687689999946],[-60.318994246999971,-18.855715574999977],[-60.309511689999965,-18.855578706999946],[-60.309295575999954,-18.86912041099993],[-60.299812340999949,-18.868982954999975],[-60.299884652999935,-18.864469091999975],[-60.295143192999944,-18.864400200999963],[-60.295215609999957,-18.859886351999933],[-60.290474296999946,-18.859817358999972],[-60.290546820999964,-18.855303525999943],[-60.28580565499994,-18.85523442899995],[-60.285878284999967,-18.850720610999932],[-60.281137265999973,-18.85065141199993],[-60.281210001999959,-18.846137609999971],[-60.276469129999953,-18.846068307999928],[-60.276541970999979,-18.841554520999978],[-60.281282715999964,-18.84162380499993],[-60.281428082999987,-18.832596187999965],[-60.286168596999978,-18.832665315999979],[-60.286241122999975,-18.828151485999971],[-60.290981529999947,-18.828220475999952],[-60.291053909999953,-18.823706625999932],[-60.295794210999979,-18.823775477999952],[-60.295866443999955,-18.819261606999923],[-60.300606639999955,-18.819330320999942],[-60.300750790999984,-18.810302537999974],[-60.305490754999937,-18.810371096999972],[-60.305562673999994,-18.80585718399993],[-60.31030253199998,-18.805925603999981],[-60.310446055999932,-18.796897735999952],[-60.315185682999974,-18.796966000999934],[-60.315257287999934,-18.792452044999951],[-60.319996808999967,-18.792520172999957],[-60.320068267999936,-18.788006197999948],[-60.32480768399995,-18.788074187999943],[-60.324878995999939,-18.783560191999985],[-60.329618305999986,-18.78362804499994],[-60.329760617999973,-18.774600011999951],[-60.334499695999966,-18.774667708999974],[-60.334570695999957,-18.770153670999942],[-60.339309668999931,-18.770221231999926],[-60.339451355999984,-18.761193113999983],[-60.344190096999959,-18.761260519999954],[-60.34426078499996,-18.756746439999969],[-60.348999419999991,-18.756813707999981],[-60.349069961999987,-18.752299608999976],[-60.353808491999985,-18.752366739999953],[-60.353949263999937,-18.743338497999957],[-60.358687561999936,-18.743405474999975],[-60.358757791999949,-18.738891333999959],[-60.363495984999986,-18.738958173999947],[-60.363566069999941,-18.734444011999923],[-60.368304156999962,-18.734510714999946],[-60.368444014999966,-18.725482350999986],[-60.373181870999979,-18.725548899999978],[-60.373251644999975,-18.72103469699994],[-60.377989395999968,-18.721101108999957],[-60.378128631999964,-18.712072660999979],[-60.382866151999963,-18.712138919999973],[-60.383005057999981,-18.703110427999945],[-60.392479654999931,-18.703242516999978],[-60.392617980999944,-18.694213947999966],[-60.397355058999942,-18.694279778999949],[-60.397424065999985,-18.689765473999952],[-60.402161038999964,-18.689831168999941],[-60.402298744999932,-18.680802515999968],[-60.407035485999991,-18.680868057999934],[-60.407104184999987,-18.67635371099993],[-60.411840820999942,-18.676419116999966],[-60.411909373999947,-18.671904750999946],[-60.416645904999939,-18.67197001999995],[-60.416782702999967,-18.662941246999935],[-60.421519002999958,-18.663006362999965],[-60.42158724799998,-18.658491955999985],[-60.426323441999948,-18.658556935999968],[-60.426391542999966,-18.654042509999957],[-60.431127631999978,-18.654107353999965],[-60.431195586999941,-18.649592907999935],[-60.435931570999969,-18.649657616999949],[-60.43599938199997,-18.645143151999942],[-60.44073525999994,-18.645207723999928],[-60.440870574999963,-18.636178753999957],[-60.44560622299997,-18.636243173999961],[-60.445673725999931,-18.631728667999937],[-60.450409268999969,-18.631792952999945],[-60.450476627999926,-18.627278427999954],[-60.455212064999955,-18.627342576999975],[-60.455279279999957,-18.622828032999958],[-60.460014610999956,-18.622892045999951],[-60.460148734999954,-18.613862917999938],[-60.464883835999956,-18.613926778999936],[-60.465017633999935,-18.604897607999934],[-60.469752504999974,-18.604961316999944],[-60.469819249999944,-18.60044671199995],[-60.47455401499996,-18.600510284999931],[-60.474620616999978,-18.595995660999968],[-60.479355276999961,-18.596059098999948],[-60.47942173499996,-18.591544455999951],[-60.484156289999987,-18.591607758999945],[-60.484288899999967,-18.582578431999931],[-60.489023224999976,-18.58264158399993],[-60.489155509999925,-18.573612214999965],[-60.493889604999929,-18.573675213999934],[-60.493955594999932,-18.569160509999964],[-60.498689583999976,-18.569223374999972],[-60.498755430999942,-18.564708651999982],[-60.503489314999968,-18.56477138199995],[-60.50362070299996,-18.555741894999979],[-60.508354357999956,-18.555804473999963],[-60.508419898999932,-18.551289710999974],[-60.513153447999969,-18.551352154999961],[-60.513218846999955,-18.54683737299996],[-60.517952289999982,-18.546899682999939],[-60.518082782999954,-18.537870079999948],[-60.522815996999952,-18.537932237999936],[-60.522881090999988,-18.533417416999956],[-60.52761419999996,-18.533479440999937],[-60.527679150999973,-18.528964600999924],[-60.532412154999975,-18.529026489999982],[-60.532476962999972,-18.524511631999928],[-60.537209860999951,-18.524573386999968],[-60.537339173999953,-18.515543630999957],[-60.542071842999967,-18.515605234999949],[-60.542200833999971,-18.50657543799997]]]},"properties":{"FID":5,"OBJECTID":3154,"Entity":" ","MSLINK":28231,"NROFOR":28231,"PADRONACIO":"707-02928","NOMCON":"CALIZA SANTA CRUZ","NOMPET":"EMPRESA MINERA CALIZA SANTA CRUZ S.A.","NOMEMP":"EMPRESA MINERA CALIZA SANTA CRUZ S.A.","CUASOL":"794","DEPARTAMEN":"SANTA CRUZ","PROVIN":"CORDILLERA","CANTON":"IZOZOG","ASIGNADAS":794,"Shape_Leng":1.32833513068,"Shape_Le_1":1.32833513068,"Shape_Area":0.016982895453499999}},{"type":"Feature","id":6,"geometry":{"type":"Polygon","coordinates":[[[-60.913511784999969,-19.107221426999953],[-60.937264398999957,-19.107489164999947],[-60.937152349999963,-19.116520853999923],[-60.932401536999969,-19.116467523999969],[-60.93234535999995,-19.120983350999946],[-60.913341754999976,-19.120768750999954],[-60.913511784999969,-19.107221426999953]]]},"properties":{"FID":6,"OBJECTID":3156,"Entity":" ","MSLINK":28235,"NROFOR":28235,"PADRONACIO":"707-02929","NOMCON":"GRANADA","NOMPET":"MARIA ELIZABETH ABULARACH DANTAS","NOMEMP":"*","CUASOL":"36","DEPARTAMEN":"SANTA CRUZ","PROVIN":"CORDILLERA","CANTON":"IZOZOG","ASIGNADAS":14,"Shape_Leng":0.074607003287600004,"Shape_Le_1":0.074607003287600004,"Shape_Area":0.00030039103117499998}},{"type":"Feature","id":7,"geometry":{"type":"Polygon","coordinates":[[[-63.375005203999933,-18.87013423499997],[-63.389245668999934,-18.870104992999927],[-63.389256100999951,-18.874623793999945],[-63.384509154999932,-18.874633664999973],[-63.384529771999951,-18.883671262999936],[-63.375035361999942,-18.883690651999935],[-63.375005203999933,-18.87013423499997]]]},"properties":{"FID":7,"OBJECTID":3317,"Entity":" ","MSLINK":29616,"NROFOR":29616,"PADRONACIO":"707-03134","NOMCON":"ABAPO","NOMPET":"HUGO ESCALANTE ALARCON","NOMEMP":"*","CUASOL":"7","DEPARTAMEN":"SANTA CRUZ","PROVIN":"CORDILLERA","CANTON":"ABAPO","ASIGNADAS":7,"Shape_Leng":0.055594766186899999,"Shape_Le_1":0.055594766186899999,"Shape_Area":0.00015015669346999999}},{"type":"Feature","id":8,"geometry":{"type":"Polygon","coordinates":[[[-60.867964329999943,-19.32348042599995],[-60.863207777999946,-19.323424737999972],[-60.86338388299999,-19.309878150999968],[-60.858627739999974,-19.30982238099995],[-60.858686538999962,-19.305306860999966],[-60.853930542999926,-19.305250980999968],[-60.854107231999933,-19.29170445099993],[-60.868374098999944,-19.291871592999943],[-60.868315609999961,-19.296387147999951],[-60.873071394999954,-19.296442628999955],[-60.872954627999938,-19.305473758999938],[-60.877710689999958,-19.305529143999927],[-60.877652411999975,-19.310044719999947],[-60.882408620999961,-19.310099994999977],[-60.882292276999969,-19.319131166999966],[-60.887048762999939,-19.319186345999984],[-60.88687451699996,-19.33273312699993],[-60.863090292999971,-19.33245578299994],[-60.863149043999961,-19.327940261999974],[-60.867905724999964,-19.327995963999971],[-60.867964329999943,-19.32348042599995]]]},"properties":{"FID":8,"OBJECTID":3464,"Entity":" ","MSLINK":31680,"NROFOR":31680,"PADRONACIO":"707-03253","NOMCON":"SANTIAGO","NOMPET":"PABLO VICTOR COCA SORUCO","NOMEMP":"*","CUASOL":"37","DEPARTAMEN":"SANTA CRUZ","PROVIN":"CORDILLERA","CANTON":"IZOZOG","ASIGNADAS":37,"Shape_Leng":0.15739292742700001,"Shape_Le_1":0.15739292742700001,"Shape_Area":0.000794772397899}},{"type":"Feature","id":9,"geometry":{"type":"Polygon","coordinates":[[[-60.571422740999942,-18.44824722899995],[-60.566691815999945,-18.448186572999923],[-60.566882589999977,-18.434641526999936],[-60.562152052999984,-18.434580799999939],[-60.562215730999974,-18.430065795999948],[-60.557485335999957,-18.430004966999949],[-60.557549118999987,-18.425489976999931],[-60.552818865999939,-18.42542904699997],[-60.552882752999956,-18.420914069999981],[-60.548152641999934,-18.420853037999962],[-60.548216633999971,-18.416338074999942],[-60.562406654999968,-18.416520768999927],[-60.562343031999944,-18.421035779999951],[-60.567073198999942,-18.421096458999958],[-60.566946143999992,-18.430126506999954],[-60.571676575999966,-18.430187099999952],[-60.571486226999973,-18.443732199999939],[-60.57621704699995,-18.443792722999945],[-60.576153683999962,-18.448307767999946],[-60.580884644999969,-18.448368188999947],[-60.580441456999942,-18.479973546999926],[-60.575709630999938,-18.479913014999966],[-60.575519047999926,-18.493458085999976],[-60.566054708999957,-18.493336572999961],[-60.565990896999949,-18.497851559999958],[-60.551794153999928,-18.497668356999949],[-60.551858336999935,-18.493153417999963],[-60.556590441999951,-18.493214586999954],[-60.556654482999939,-18.488699629999932],[-60.566118501999938,-18.48882158299995],[-60.566309771999954,-18.475276600999965],[-60.571041437999952,-18.475337352999929],[-60.571422740999942,-18.44824722899995]]]},"properties":{"FID":9,"OBJECTID":3811,"Entity":" ","MSLINK":1000473,"NROFOR":1000473,"PADRONACIO":"707-03323","NOMCON":"EL TREBOL","NOMPET":"CARLOS FERNANDO JUSTINIANO AZOGUE","NOMEMP":"S/D","CUASOL":"40","DEPARTAMEN":"SANTA CRUZ","PROVIN":"CORDILLERA","CANTON":"IZOGZOG","ASIGNADAS":40,"Shape_Leng":0.26665063959800001,"Shape_Le_1":0.26665063959800001,"Shape_Area":0.00085461655656200004}},{"type":"Feature","id":10,"geometry":{"type":"Polygon","coordinates":[[[-60.483113024999973,-18.338720636999938],[-60.487840663999968,-18.338783018999948],[-60.48738336699995,-18.370386517999972],[-60.506297544999946,-18.370635333999928],[-60.506167700999988,-18.37966501499994],[-60.51089653799994,-18.379726958999985],[-60.510831710999973,-18.384241811999971],[-60.51556068999998,-18.384303653999947],[-60.515495965999946,-18.388818520999962],[-60.529683382999956,-18.389003392999932],[-60.529619009999976,-18.393518305999979],[-60.534348308999938,-18.393579710999973],[-60.534284040999978,-18.398094637999971],[-60.543742940999948,-18.398217128999931],[-60.543678898999993,-18.402732085999954],[-60.548408499999937,-18.402793170999932],[-60.548280607999978,-18.411823108999954],[-60.538820931999965,-18.411700756999949],[-60.538885133999941,-18.407185820999924],[-60.529425778999951,-18.407063030999954],[-60.529490207999977,-18.402548124999949],[-60.520031173999939,-18.402424897999929],[-60.520095829999946,-18.397910021999959],[-60.505907787999938,-18.39772434799994],[-60.506037781999972,-18.388694685999955],[-60.496579672999985,-18.388570381999958],[-60.496644887999942,-18.384055579999938],[-60.491915983999945,-18.383993268999976],[-60.491981302999932,-18.379478480999982],[-60.47070202414362,-18.379196700450976],[-60.449423130999946,-18.378912544999935],[-60.449688635999962,-18.360853964999936],[-60.454416753999965,-18.360917248999954],[-60.454350529999942,-18.365431913999942],[-60.473263685999939,-18.365683945999937],[-60.473460830999954,-18.352139744999931],[-60.478188798999952,-18.352202409999961],[-60.478319888999977,-18.343172897999974],[-60.483047630999977,-18.343235412999945],[-60.483113024999973,-18.338720636999938]]]},"properties":{"FID":10,"OBJECTID":3816,"Entity":" ","MSLINK":1001632,"NROFOR":1001632,"PADRONACIO":"707-03328","NOMCON":"POR FE","NOMPET":"BALDOMERO VACA SERRANO","NOMEMP":"S/D","CUASOL":"78","DEPARTAMEN":"SANTA CRUZ","PROVIN":"CORDILLERA","CANTON":"IZOGZOG","ASIGNADAS":77,"Shape_Leng":0.35214964325600001,"Shape_Le_1":0.35214964325600001,"Shape_Area":0.0016441783413200001}},{"type":"Feature","id":11,"geometry":{"type":"Polygon","coordinates":[[[-59.281671192999973,-18.432007110999962],[-59.291133140999932,-18.431893103999979],[-59.291073302999962,-18.427377618999969],[-59.305265724999977,-18.427205769999944],[-59.305205533999974,-18.422690327999931],[-59.314666815999942,-18.422575203999944],[-59.314606395999931,-18.418059788999923],[-59.328797816999959,-18.417886265999982],[-59.329041080999957,-18.435947729999949],[-59.333772012999987,-18.435889592999956],[-59.334016050999942,-18.453950957999947],[-59.324553181999924,-18.454067235999958],[-59.32461398899995,-18.458582601999979],[-59.310419183999947,-18.458756179999966],[-59.31047963799994,-18.46327158899993],[-59.301016100999959,-18.463386748999934],[-59.301076323999958,-18.467902185999947],[-59.286880516999979,-18.468074085999945],[-59.286940387999948,-18.472589564999964],[-59.272744054999968,-18.472760447999978],[-59.272803570999933,-18.477275969999937],[-59.258606712999956,-18.477445835999962],[-59.258665874999956,-18.481961398999943],[-59.239735996999961,-18.482186292999923],[-59.239794681999967,-18.486701912999933],[-59.225596724999939,-18.486869386999956],[-59.225655054999947,-18.491385048999973],[-59.220922244999947,-18.491440651999941],[-59.22098046899999,-18.495956325999938],[-59.211514550999944,-18.49606720699995],[-59.21145657499995,-18.491551503999968],[-59.206723714999953,-18.491606751999942],[-59.206665879999953,-18.48709103299996],[-59.201933126999961,-18.487146148999958],[-59.201875431999952,-18.482630411999935],[-59.197142786999962,-18.482685395999962],[-59.197085231999942,-18.478169642999941],[-59.192352692999975,-18.478224493999964],[-59.192180500999946,-18.464677176999942],[-59.20637695399995,-18.464512398999943],[-59.206319218999958,-18.459996665999938],[-59.220515151999962,-18.459830868999976],[-59.220457062999976,-18.455315176999935],[-59.225188882999987,-18.455259689999934],[-59.225247095999983,-18.459775367999953],[-59.239442826999948,-18.459608155999945],[-59.23938424399995,-18.455092521999976],[-59.244115996999945,-18.455036563999954],[-59.244057306999942,-18.450520941999969],[-59.258252094999939,-18.450352402999957],[-59.258429326999988,-18.463899129999959],[-59.272625072999979,-18.463729397999938],[-59.272565607999979,-18.459213868999939],[-59.277297364999981,-18.45915707099994],[-59.277118701999932,-18.445610514999945],[-59.272387314999946,-18.445667268999955],[-59.272268538999974,-18.436636189999948],[-59.281730801999977,-18.436522623999963],[-59.281671192999973,-18.432007110999962]]]},"properties":{"FID":11,"OBJECTID":3982,"Entity":" ","MSLINK":26490,"NROFOR":26490,"PADRONACIO":"705-02795","NOMCON":"LA  ESPERANZA","NOMPET":"EMPRESA MINERA KYLENO S.A.","NOMEMP":"EMPRESA MINERA KYLENO S.A.","CUASOL":"200","DEPARTAMEN":"SANTA CRUZ","PROVIN":"CHIQUITOS","CANTON":"SANTIAGO","ASIGNADAS":200,"Shape_Leng":0.48306339976899998,"Shape_Le_1":0.48306339976899998,"Shape_Area":0.0042739642833100003}},{"type":"Feature","id":12,"geometry":{"type":"Polygon","coordinates":[[[-59.723683712999964,-18.259121251999943],[-59.747306887999969,-18.258783373999957],[-59.747448994999949,-18.267811320999954],[-59.733274420999976,-18.268014503999947],[-59.733557419999961,-18.286070583999958],[-59.72410662599998,-18.286205599999963],[-59.723683712999964,-18.259121251999943]]]},"properties":{"FID":12,"OBJECTID":3984,"Entity":" ","MSLINK":26902,"NROFOR":26902,"PADRONACIO":"705-02821","NOMCON":"9 DE AGOSTO - II","NOMPET":"EMPRESA MINERA 9 DE AGOSTO S.R.L.","NOMEMP":"EMPRESA MINERA 9 DE AGOSTO S.R.L.","CUASOL":"18","DEPARTAMEN":"SANTA CRUZ","PROVIN":"CHIQUITOS","CANTON":"ROBORE","ASIGNADAS":18,"Shape_Leng":0.101428392358,"Shape_Le_1":0.101428392358,"Shape_Area":0.00038400150858700001}},{"type":"Feature","id":13,"geometry":{"type":"Polygon","coordinates":[[[-59.16395711499996,-18.478551120999949],[-59.178154977999952,-18.478388338999935],[-59.178097934999975,-18.47387252599998],[-59.182830399999943,-18.473818042999934],[-59.183517487999957,-18.528007470999967],[-59.178783536999958,-18.528062124999963],[-59.178840776999941,-18.532577909999933],[-59.16937257699994,-18.532686889999976],[-59.169315584999943,-18.528171076999961],[-59.164581583999954,-18.52822537599997],[-59.16395711499996,-18.478551120999949]]]},"properties":{"FID":13,"OBJECTID":4019,"Entity":" ","MSLINK":28271,"NROFOR":28271,"PADRONACIO":"705-02971","NOMCON":"CARMEN","NOMPET":"EMPRESA SIDERURGICA DEL ESTE S.A. SIDERESTE S.A.","NOMEMP":"EMPRESA SIDERURGICA DEL ESTE S.A. SIDERESTE S.A.","CUASOL":"47","DEPARTAMEN":"SANTA CRUZ","PROVIN":"CHIQUITOS","CANTON":"SANTIAGO","ASIGNADAS":47,"Shape_Leng":0.15528943821399999,"Shape_Le_1":0.15528943821399999,"Shape_Area":0.00100476179252}},{"type":"Feature","id":14,"geometry":{"type":"Polygon","coordinates":[[[-59.136008965999963,-18.515000930999975],[-59.140742691999939,-18.514947384999971],[-59.140798890999974,-18.51946328899993],[-59.164467896999952,-18.519193713999979],[-59.164581583999954,-18.52822537599997],[-59.169315584999943,-18.528171076999961],[-59.16937257699994,-18.532686889999976],[-59.178840776999941,-18.532577909999933],[-59.178783536999958,-18.528062124999963],[-59.18825142299994,-18.527952698999972],[-59.188366416999941,-18.536984208999968],[-59.155226789999972,-18.537365325999925],[-59.155170153999961,-18.532849472999942],[-59.150435979999941,-18.53290342999998],[-59.150379484999981,-18.528387560999938],[-59.136177238999949,-18.528548679999968],[-59.136008965999963,-18.515000930999975]]]},"properties":{"FID":14,"OBJECTID":4027,"Entity":" ","MSLINK":28809,"NROFOR":28809,"PADRONACIO":"705-03055","NOMCON":"ALEJANDRA","NOMPET":"EMPRESA SIDERURGICA DEL ESTE S.A. SIDERESTE S.A.","NOMEMP":"EMPRESA SIDERURGICA DEL ESTE S.A. SIDERESTE S.A.","CUASOL":"26","DEPARTAMEN":"SANTA CRUZ","PROVIN":"CHIQUITOS","CANTON":"SANTIAGO","ASIGNADAS":26,"Shape_Leng":0.158350105706,"Shape_Le_1":0.158350105706,"Shape_Area":0.00055589954982600005}},{"type":"Feature","id":15,"geometry":{"type":"Polygon","coordinates":[[[-59.131219288999937,-18.510538422999957],[-59.164354275999983,-18.51016204299998],[-59.164467896999952,-18.519193713999979],[-59.140798890999974,-18.51946328899993],[-59.140742691999939,-18.514947384999971],[-59.136008965999963,-18.515000930999975],[-59.136177238999949,-18.528548679999968],[-59.131443123999986,-18.528602148999941],[-59.131219288999937,-18.510538422999957]]]},"properties":{"FID":15,"OBJECTID":4029,"Entity":" ","MSLINK":29600,"NROFOR":29600,"PADRONACIO":"705-03097","NOMCON":"NATHALY","NOMPET":"EMPRESA SIDERURGICA DEL ESTE S.A. SIDERESTE S.A.","NOMEMP":"EMPRESA SIDERURGICA DEL ESTE S.A. SIDERESTE S.A.","CUASOL":"15","DEPARTAMEN":"SANTA CRUZ","PROVIN":"CHIQUITOS","CANTON":"SANTIAGO","ASIGNADAS":15,"Shape_Leng":0.11143865754899999,"Shape_Le_1":0.11143865754899999,"Shape_Area":0.00032071005216200002}},{"type":"Feature","id":16,"geometry":{"type":"Polygon","coordinates":[[[-59.23535510499994,-18.509335995999951],[-59.240088359999959,-18.509279979999974],[-59.24044133099995,-18.536373582999943],[-59.235707331999947,-18.536429686999952],[-59.23535510499994,-18.509335995999951]]]},"properties":{"FID":16,"OBJECTID":4032,"Entity":" ","MSLINK":29601,"NROFOR":29601,"PADRONACIO":"705-03114","NOMCON":"KATHERINE","NOMPET":"EMPRESA SIDERURGICA DEL ESTE S.A. SIDERESTE S.A.","NOMEMP":"EMPRESA SIDERURGICA DEL ESTE S.A. SIDERESTE S.A.","CUASOL":"12","DEPARTAMEN":"SANTA CRUZ","PROVIN":"CHIQUITOS","CANTON":"SANTIAGO","ASIGNADAS":6,"Shape_Leng":0.063659800455399998,"Shape_Le_1":0.063659800455399998,"Shape_Area":0.00012827098566800001}},{"type":"Feature","id":17,"geometry":{"type":"Polygon","coordinates":[[[-59.183288194999925,-18.509944365999949],[-59.202221553592231,-18.50972480566146],[-59.221155238999984,-18.509503333999927],[-59.221271836999968,-18.518534660999929],[-59.192870164999931,-18.51886631799993],[-59.19298534099994,-18.527897808999963],[-59.183517487999957,-18.528007470999967],[-59.183288194999925,-18.509944365999949]]]},"properties":{"FID":17,"OBJECTID":4036,"Entity":" ","MSLINK":30197,"NROFOR":30197,"PADRONACIO":"705-03130","NOMCON":"PEDRO","NOMPET":"SIDERURGICA DEL ESTE S.A. SIDERESTE S.A.","NOMEMP":"SIDERURGICA DEL ESTE S.A. SIDERESTE S.A.","CUASOL":"20","DEPARTAMEN":"SANTA CRUZ","PROVIN":"CHIQUITOS","CANTON":"SANTIAGO","ASIGNADAS":20,"Shape_Leng":0.111870573938,"Shape_Le_1":0.111870573938,"Shape_Area":0.00042758660536599999}},{"type":"Feature","id":18,"geometry":{"type":"Polygon","coordinates":[[[-59.390541811999981,-18.435182765999976],[-59.390479366999962,-18.430667603999943],[-59.409401565999985,-18.430428290999945],[-59.40946450399997,-18.43494338999994],[-59.404733857999986,-18.435003410999965],[-59.400003193999964,-18.43506331399993],[-59.400065903999966,-18.43957844199997],[-59.390604274999987,-18.439697925999948],[-59.390666755999966,-18.444213082999962],[-59.38120480799995,-18.444332126999942],[-59.381267060999967,-18.448847312999927],[-59.367073633999937,-18.44902504199996],[-59.366949886999976,-18.439994574999961],[-59.348026055999981,-18.440229773999928],[-59.347964701999956,-18.435714474999944],[-59.366888040999974,-18.435479336999947],[-59.366826211999978,-18.430964097999951],[-59.371556878999961,-18.430905033999981],[-59.371618830999964,-18.435420258999955],[-59.390541811999981,-18.435182765999976]]]},"properties":{"FID":18,"OBJECTID":4037,"Entity":" ","MSLINK":30199,"NROFOR":30199,"PADRONACIO":"705-03132","NOMCON":"ANGEL","NOMPET":"SIDERURGICA DEL ESTE S.A. SIDERESTE S.A.","NOMEMP":"SIDERURGICA DEL ESTE S.A. SIDERESTE S.A.","CUASOL":"24","DEPARTAMEN":"SANTA CRUZ","PROVIN":"CHIQUITOS","CANTON":"SANTIAGO","ASIGNADAS":24,"Shape_Leng":0.16816724384199999,"Shape_Le_1":0.16816724384199999,"Shape_Area":0.00051274909181899995}},{"type":"Feature","id":19,"geometry":{"type":"Polygon","coordinates":[[[-59.348026055999981,-18.440229773999928],[-59.366949886999976,-18.439994574999961],[-59.367073633999937,-18.44902504199996],[-59.357611259999942,-18.449142938999955],[-59.357672912999988,-18.453658199999953],[-59.348210220999931,-18.453775656999934],[-59.348026055999981,-18.440229773999928]]]},"properties":{"FID":19,"OBJECTID":4038,"Entity":" ","MSLINK":30200,"NROFOR":30200,"PADRONACIO":"705-03133","NOMCON":"LIMBERG","NOMPET":"SIDERURGICA DEL ESTE S.A. SIDERESTE S.A.","NOMEMP":"SIDERURGICA DEL ESTE S.A. SIDERESTE S.A.","CUASOL":"10","DEPARTAMEN":"SANTA CRUZ","PROVIN":"CHIQUITOS","CANTON":"SANTIAGO","ASIGNADAS":10,"Shape_Leng":0.064945953535900006,"Shape_Le_1":0.064945953535900006,"Shape_Area":0.00021366111434099999}},{"type":"Feature","id":20,"geometry":{"type":"Polygon","coordinates":[[[-59.324553181999924,-18.454067235999958],[-59.334016050999942,-18.453950957999947],[-59.333893996999961,-18.444920279999966],[-59.343356300999972,-18.444803591999975],[-59.343295052999963,-18.440288279999951],[-59.348026055999981,-18.440229773999928],[-59.348271644999954,-18.458290945999973],[-59.32461398899995,-18.458582601999979],[-59.324553181999924,-18.454067235999958]]]},"properties":{"FID":20,"OBJECTID":4039,"Entity":" ","MSLINK":30198,"NROFOR":30198,"PADRONACIO":"705-03131","NOMCON":"MARTHA","NOMPET":"SIDERURGICA DEL ESTE S.A. SIDERESTE S.A.","NOMEMP":"SIDERURGICA DEL ESTE S.A. SIDERESTE S.A.","CUASOL":"12","DEPARTAMEN":"SANTA CRUZ","PROVIN":"CHIQUITOS","CANTON":"SANTIAGO","ASIGNADAS":12,"Shape_Leng":0.083443272512799996,"Shape_Le_1":0.083443272512799996,"Shape_Area":0.00025640004867600002}},{"type":"Feature","id":21,"geometry":{"type":"Polygon","coordinates":[[[-59.747448994999949,-18.267811320999954],[-59.761623382999964,-18.267607089999956],[-59.762123969999948,-18.299204451999969],[-59.757398340999941,-18.299272770999941],[-59.757255455999939,-18.290244929999972],[-59.752530049999962,-18.290313096999967],[-59.752387492999951,-18.281285209999965],[-59.747662309999953,-18.281353223999922],[-59.747448994999949,-18.267811320999954]]]},"properties":{"FID":21,"OBJECTID":4040,"Entity":" ","MSLINK":29625,"NROFOR":29625,"PADRONACIO":"705-03128","NOMCON":"ALFREDO","NOMPET":"SIDERURGICA DEL ESTE S.A.  SIDERESTE S.A.","NOMEMP":"SIDERURGICA DEL ESTE S.A.  SIDERESTE S.A.","CUASOL":"15","DEPARTAMEN":"SANTA CRUZ","PROVIN":"CHIQUITOS","CANTON":"ROBORE","ASIGNADAS":15,"Shape_Leng":0.091556446382500004,"Shape_Le_1":0.091556446382500004,"Shape_Area":0.00032001004535399998}},{"type":"Feature","id":22,"geometry":{"type":"Polygon","coordinates":[[[-59.691097905999982,-18.291188655999981],[-59.714726062999944,-18.290854234999927],[-59.714444932999982,-18.272797879999928],[-59.723895076999952,-18.272663436999949],[-59.724247759999962,-18.295233696999958],[-59.691167628999949,-18.29570282699996],[-59.691097905999982,-18.291188655999981]]]},"properties":{"FID":22,"OBJECTID":4041,"Entity":" ","MSLINK":30196,"NROFOR":30196,"PADRONACIO":"705-03129","NOMCON":"MARIO","NOMPET":"SIDERURGICA DEL ESTE S.A. SIDERESTE S.A.","NOMEMP":"SIDERURGICA DEL ESTE S.A. SIDERESTE S.A.","CUASOL":"15","DEPARTAMEN":"SANTA CRUZ","PROVIN":"CHIQUITOS","CANTON":"ROBORE","ASIGNADAS":15,"Shape_Leng":0.11131134929,"Shape_Le_1":0.11131134929,"Shape_Area":0.00032003025714599998}},{"type":"Feature","id":23,"geometry":{"type":"Polygon","coordinates":[[[-59.517607398999992,-18.388383041999933],[-59.517541814999959,-18.383868289999953],[-59.531728297999955,-18.383679946999965],[-59.531662364999924,-18.379165240999946],[-59.541119678999962,-18.379039125999949],[-59.541053519999927,-18.374524450999949],[-59.545782025999991,-18.374461233999966],[-59.545715762999983,-18.369946573999979],[-59.550444125999945,-18.36988325599998],[-59.550377759999954,-18.365368609999958],[-59.555105981999994,-18.365305191999933],[-59.555039510999961,-18.360790559999941],[-59.559767590999961,-18.360727040999961],[-59.559634463999942,-18.351697803999969],[-59.564362278999965,-18.351634201999953],[-59.564295621999982,-18.34711959599997],[-59.569023294999973,-18.347055893999936],[-59.56882307099994,-18.33351211299993],[-59.573550357999977,-18.333448343999972],[-59.573884773999964,-18.356021215999927],[-59.569156874999976,-18.356085068999956],[-59.569290530999979,-18.365114234999968],[-59.564562366999951,-18.365178003999972],[-59.564629101999977,-18.369692599999954],[-59.559900795999958,-18.369756269999979],[-59.55996742699994,-18.374270879999923],[-59.555238978999967,-18.374334448999946],[-59.55530550699995,-18.378849073999959],[-59.550576916999944,-18.378912541999966],[-59.550643340999962,-18.383427180999945],[-59.541185857999942,-18.383553797999983],[-59.541252055999962,-18.388068467999975],[-59.527065318999973,-18.388257564999947],[-59.527131166999936,-18.39277228199995],[-59.517673000999935,-18.392897792999975],[-59.517738621999975,-18.397412539999941],[-59.50355086299998,-18.397599974999935],[-59.503616133999969,-18.402114769999965],[-59.49415728699995,-18.402239171999948],[-59.494222330999946,-18.406753996999949],[-59.484763162999975,-18.406877960999964],[-59.484827979999977,-18.411392816999985],[-59.475368490999983,-18.411516343999949],[-59.475433079999952,-18.416031228999937],[-59.456513385999983,-18.41627693799995],[-59.456577501999966,-18.420791884999975],[-59.451847408999988,-18.420853033999947],[-59.451911418999941,-18.425367994999931],[-59.418799389999947,-18.425792858999952],[-59.418862556999954,-18.430307928999984],[-59.390479366999962,-18.430667603999943],[-59.390541811999981,-18.435182765999976],[-59.371618830999964,-18.435420258999955],[-59.371556878999961,-18.430905033999981],[-59.385748771999943,-18.430727137999945],[-59.385686467999953,-18.42621195799995],[-59.409338645999973,-18.425913189999957],[-59.409275743999956,-18.42139808599995],[-59.428196666999959,-18.421157016999931],[-59.428133290999938,-18.416641973999965],[-59.442323420999962,-18.416459984999968],[-59.441814115999932,-18.38033993799996],[-59.451272142999983,-18.380218279999951],[-59.451208316999953,-18.375703294999937],[-59.455937180999967,-18.375642305999975],[-59.455873249999961,-18.371127334999986],[-59.470059359999944,-18.370943712999978],[-59.469995079999926,-18.366428787999951],[-59.488909141999962,-18.366182380999934],[-59.488973912999938,-18.370697241999949],[-59.493702503999941,-18.37063533099996],[-59.493767416999951,-18.375150171999962],[-59.498496111999948,-18.375088127999959],[-59.498561165999938,-18.379602950999981],[-59.503289965999954,-18.379540772999967],[-59.503355161999934,-18.384055576999977],[-59.508084064999935,-18.383993264999955],[-59.508149402999948,-18.388508049999928],[-59.517607398999992,-18.388383041999933]]]},"properties":{"FID":23,"OBJECTID":4045,"Entity":" ","MSLINK":30208,"NROFOR":30208,"PADRONACIO":"705-03154","NOMCON":"LA DOBLADA","NOMPET":"EMPRESA GRANIER ARNES PARTICIPACIONES S.A.","NOMEMP":"EMPRESA GRANIER ARNES PARTICIPACIONES S.A.","CUASOL":"180","DEPARTAMEN":"SANTA CRUZ","PROVIN":"CHIQUITOS","CANTON":"SANTIAGO","ASIGNADAS":180,"Shape_Leng":0.65059125571300003,"Shape_Le_1":0.65059125571300003,"Shape_Area":0.0038440392610899999}},{"type":"Feature","id":24,"geometry":{"type":"Polygon","coordinates":[[[-59.706469144999971,-18.367728034999963],[-59.711196835999942,-18.367660733999966],[-59.711126298999936,-18.363146671999974],[-59.734763833999978,-18.362808496999946],[-59.734977347999966,-18.376350408999944],[-59.706610035999979,-18.376756187999952],[-59.706469144999971,-18.367728034999963]]]},"properties":{"FID":24,"OBJECTID":4066,"Entity":" ","MSLINK":31684,"NROFOR":31684,"PADRONACIO":"712-03277","NOMCON":"ESTRELLA DE LA BUENA SUERTE I","NOMPET":"BONNIE YILL COCA DE BARBERY","NOMEMP":"*","CUASOL":"22","DEPARTAMEN":"SANTA CRUZ","PROVIN":"CHIQUITOS","CANTON":"SANTIAGO","ASIGNADAS":17,"Shape_Leng":0.083825798526,"Shape_Le_1":0.083825798526,"Shape_Area":0.00036287376999499999}},{"type":"Feature","id":25,"geometry":{"type":"Polygon","coordinates":[[[-59.540195187999984,-18.315833463999976],[-59.549648993999945,-18.315707344999964],[-59.549715148999958,-18.320222017999985],[-59.554442145999985,-18.320158765999963],[-59.554508442999968,-18.324673418999964],[-59.559235542999943,-18.324610033999932],[-59.559301981999965,-18.329124668999953],[-59.564029183999935,-18.329061149999973],[-59.564095764999934,-18.333575764999978],[-59.56882307099994,-18.33351211299993],[-59.569023294999973,-18.347055893999936],[-59.564295621999982,-18.34711959599997],[-59.564362278999965,-18.351634201999953],[-59.559634463999942,-18.351697803999969],[-59.559767590999961,-18.360727040999961],[-59.555039510999961,-18.360790559999941],[-59.555105981999994,-18.365305191999933],[-59.550377759999954,-18.365368609999958],[-59.550444125999945,-18.36988325599998],[-59.545715762999983,-18.369946573999979],[-59.545782025999991,-18.374461233999966],[-59.541053519999927,-18.374524450999949],[-59.541119678999962,-18.379039125999949],[-59.531662364999924,-18.379165240999946],[-59.531728297999955,-18.383679946999965],[-59.517541814999959,-18.383868289999953],[-59.517607398999992,-18.388383041999933],[-59.508149402999948,-18.388508049999928],[-59.508084064999935,-18.383993264999955],[-59.503355161999934,-18.384055576999977],[-59.503289965999954,-18.379540772999967],[-59.498561165999938,-18.379602950999981],[-59.498496111999948,-18.375088127999959],[-59.493767416999951,-18.375150171999962],[-59.493702503999941,-18.37063533099996],[-59.488973912999938,-18.370697241999949],[-59.488909141999962,-18.366182380999934],[-59.47945214799995,-18.366305818999937],[-59.479323152999946,-18.357276026999955],[-59.488779655999956,-18.357152653999947],[-59.488714940999955,-18.352637786999935],[-59.498171122999956,-18.352513977999934],[-59.498106181999958,-18.347999140999949],[-59.517017830999983,-18.347750183999946],[-59.516952417999953,-18.343235409999984],[-59.521680159999953,-18.343172893999959],[-59.521614643999953,-18.338658134999946],[-59.526342244999974,-18.338595518999966],[-59.52627662499998,-18.334080772999986],[-59.53100408399996,-18.33401805599993],[-59.530938360999983,-18.329503324999958],[-59.535665678999969,-18.329440507999944],[-59.535599851999969,-18.324925789999952],[-59.540327028999975,-18.324862872999979],[-59.540195187999984,-18.315833463999976]]]},"properties":{"FID":25,"OBJECTID":4088,"Entity":" ","MSLINK":1001917,"NROFOR":1001917,"PADRONACIO":"705-03380","NOMCON":"CLAUDIA DE HIERRO","NOMPET":"MONTECARLO S.A. SUCURSAL BOLIVIA","NOMEMP":"MONTECARLO S.A. SUCURSAL BOLIVIA","CUASOL":"150","DEPARTAMEN":"SANTA CRUZ","PROVIN":"CHIQUITOS","CANTON":"SANTIAGO","ASIGNADAS":150,"Shape_Leng":0.32416863557499997,"Shape_Le_1":0.32416863557499997,"Shape_Area":0.0032024856498800002}}]
}