{
  "type" : "FeatureCollection",
  "features" : [{"type":"Feature","id":0,"geometry":{"type":"Polygon","coordinates":[[[-62.907186637999978,-18.046935573443552],[-62.907186700999951,-18.046817614443533],[-62.930808351007251,-18.046827628454317],[-62.954430013999961,-18.046834756443527],[-62.954388103999975,-18.205006752439346],[-62.954177668999939,-18.205006690439326],[-62.930745855999994,-18.204999778439308],[-62.930745809999962,-18.205115707439319],[-62.930719188999944,-18.272786849437516],[-62.930516055999981,-18.272786766437545],[-62.907067431999955,-18.272777214437557],[-62.907067369999943,-18.27289257743756],[-62.907055362999991,-18.295372633436916],[-62.906845493999981,-18.295372505436962],[-62.88329529961355,-18.295359553213629],[-62.859745126999933,-18.29534369843693],[-62.859781551999951,-18.250152547438145],[-62.859889501999987,-18.114577712441744],[-62.883520645999958,-18.114593200441721],[-62.883550176999968,-18.069517078442953],[-62.883550252999953,-18.069401029442911],[-62.906971211999974,-18.069413748442965],[-62.907174672999986,-18.069413858442928],[-62.907186637999978,-18.046935573443552]]]},"properties":{"FID":0,"pais":"Bolivia","codigo":"Bolivia-1334","nombre":"Río Grande","cia":"YPFB ANDINA S.A.","situacion":"en explotación","fuente":"VMEEH, 2017","fecha_atua":"mayo/2023","area_sig_h":21961.461369799999,"area_ofici":0,"leyenda":"en explotación","institucio":"FAN","pressiones":"P","limraisg":"s","amzbiog":"n","globalid":"{18102A4E-0416-4FC5-BE4E-5E5B3CB6BE27}","shape_Leng":0.68621211308499996,"shape_Area":0.018694289198300001}},{"type":"Feature","id":1,"geometry":{"type":"Polygon","coordinates":[[[-63.193037045999965,-20.12535362038971],[-63.212171467999951,-20.125331824389704],[-63.212232336999925,-20.170513578388569],[-63.202663452999957,-20.170524695388604],[-63.202692159999977,-20.193115619388021],[-63.173978499999983,-20.193146383388001],[-63.17395320299994,-20.170555455388552],[-63.183523286999957,-20.170545632388595],[-63.183496856999973,-20.147954924389168],[-63.193065803999957,-20.147944672389123],[-63.193037045999965,-20.12535362038971]]]},"properties":{"FID":1,"pais":"Bolivia","codigo":"Bolivia-1371","nombre":"Itatiqui","cia":"REPSOL YPF E&P","situacion":"en explotación","fuente":"VMEEH, 2017","fecha_atua":"mayo/2023","area_sig_h":2007.2722761299999,"area_ofici":0,"leyenda":"en explotación","institucio":"FAN","pressiones":"P","limraisg":"s","amzbiog":"n","globalid":"{525DDCA2-FF53-4A75-8AA1-E44FC25294FA}","shape_Leng":0.21210151605499999,"shape_Area":0.0017294240000299999}},{"type":"Feature","id":2,"geometry":{"type":"Polygon","coordinates":[[[-62.902548845999945,-17.888726066447735],[-62.902548892999967,-17.888640887447739],[-62.921429292165428,-17.888649459863309],[-62.940309700723873,-17.88865620250402],[-62.959190116420366,-17.888661115366343],[-62.978070536999958,-17.888664198447746],[-62.97807052699995,-17.888756461447734],[-62.978068016999941,-17.911260703447176],[-62.954464144999982,-17.911256398447154],[-62.954458854999984,-17.93385320144656],[-62.930852218999966,-17.933846247446539],[-62.930834920999978,-17.979039026445324],[-62.90722215680011,-17.979028967189137],[-62.883609409999963,-17.979016033445312],[-62.883609334999967,-17.979130982445337],[-62.883550252999953,-18.069401029442911],[-62.883550176999968,-18.069517078442953],[-62.883520645999958,-18.114593200441721],[-62.859889501999987,-18.114577712441744],[-62.859781551999951,-18.250152547438145],[-62.838493256184535,-18.250135668800628],[-62.817204984999933,-18.250116423438119],[-62.81747213899996,-18.00156155944476],[-62.836364781999976,-18.001578416444747],[-62.836385099999973,-17.978981885445322],[-62.845829723999948,-17.978989674445369],[-62.845850109999951,-17.956393436445971],[-62.860014793999945,-17.956404321445962],[-62.860033517999966,-17.933807806446534],[-62.883638958999931,-17.933823263446538],[-62.883653724999981,-17.911227036447144],[-62.902536341999962,-17.911237383447144],[-62.902548845999945,-17.888726066447735]]]},"properties":{"FID":2,"pais":"Bolivia","codigo":"Bolivia-1383","nombre":"Grigotá - Los Sauces","cia":"YPFB ANDINA S.A.","situacion":"en explotación","fuente":"VMEEH, 2017","fecha_atua":"mayo/2023","area_sig_h":24850.680886800001,"area_ofici":0,"leyenda":"en explotación","institucio":"FAN","pressiones":"P","limraisg":"s","amzbiog":"n","globalid":"{E88739F3-E497-4A62-A16B-AA9FC465904A}","shape_Leng":1.0442306508999999,"shape_Area":0.021138113553499999}},{"type":"Feature","id":3,"geometry":{"type":"Polygon","coordinates":[[[-63.191441585999932,-18.769908111424449],[-63.191441454999961,-18.769793456424459],[-63.215057713751847,-18.769767829642699],[-63.238673931999976,-18.769739219424483],[-63.238865545999943,-18.769738999424479],[-63.238881721999967,-18.769738978424471],[-63.238882151999974,-18.769738978424474],[-63.238945600999948,-18.814927453423262],[-63.262672006999928,-18.814895373423298],[-63.262672175999967,-18.815006243423294],[-63.262706501999958,-18.837489841422713],[-63.262497220999933,-18.837490119422664],[-63.238976807999961,-18.837521359422727],[-63.238976964999949,-18.837631649422686],[-63.239254211999935,-19.031829006417645],[-63.248756668999981,-19.031816485417657],[-63.24897221599997,-19.176414322413912],[-63.24876199999995,-19.176414580413912],[-63.225089464890971,-19.176445154746176],[-63.201416886999937,-19.176472676413901],[-63.201296551999967,-19.077061852416495],[-63.191791849999966,-19.077071679416481],[-63.191441585999932,-18.769908111424449]]]},"properties":{"FID":3,"pais":"Bolivia","codigo":"Bolivia-1385","nombre":"San Isidro - Tacobo - Tajibo","cia":"PLUSPETROL","situacion":"en explotación","fuente":"VMEEH, 2017","fecha_atua":"mayo/2023","area_sig_h":23717.199806299999,"area_ofici":0,"leyenda":"en explotación","institucio":"FAN","pressiones":"P","limraisg":"s","amzbiog":"n","globalid":"{5A25BF9B-C957-4182-A4DD-04F2D682764A}","shape_Leng":0.97483758419099997,"shape_Area":0.0202822036267}},{"type":"Feature","id":4,"geometry":{"type":"Polygon","coordinates":[[[-63.168289839999943,-19.334773257409797],[-63.168289721999933,-19.33465879140984],[-63.19207279799997,-19.334635262409808],[-63.192090634999936,-19.334635243409842],[-63.192116811999945,-19.357194439409234],[-63.19211685099998,-19.357228039409211],[-63.215920572999948,-19.357201537409257],[-63.215920722999961,-19.357314925409256],[-63.216099619999966,-19.492757637405759],[-63.192276623999987,-19.492784429405784],[-63.192436555999969,-19.628338812402326],[-63.192420227999946,-19.628338829402306],[-63.168584907315292,-19.628362757911194],[-63.144749553999986,-19.628383530402285],[-63.144749527999977,-19.628354782402322],[-63.144669459999939,-19.53801388840461],[-63.168499290999932,-19.537993288404586],[-63.168289839999943,-19.334773257409797]]]},"properties":{"FID":4,"pais":"Bolivia","codigo":"Bolivia-1386","nombre":"San Isidro - Tajibo - Curiche","cia":"PLUSPETROL","situacion":"en explotación","fuente":"VMEEH, 2017","fecha_atua":"mayo/2023","area_sig_h":14429.373682699999,"area_ofici":0,"leyenda":"en explotación","institucio":"FAN","pressiones":"P","limraisg":"s","amzbiog":"n","globalid":"{8934D964-F1F4-4547-963D-5DF9E76E15E7}","shape_Leng":0.73035232463099997,"shape_Area":0.0123788013267}},{"type":"Feature","id":5,"geometry":{"type":"Polygon","coordinates":[[[-63.476445217999988,-18.972740553419147],[-63.500297153171054,-18.972621409747333],[-63.524148975999942,-18.972499195419175],[-63.52421964499996,-18.995092169418598],[-63.547970547321555,-18.995023374453336],[-63.571721344999958,-18.994951531418618],[-63.572302864056027,-19.164393353875877],[-63.572890552999979,-19.333832036409863],[-63.57289056999997,-19.333836695409829],[-63.537191484258699,-19.333945366381318],[-63.501492165999935,-19.33404704740984],[-63.502046906999965,-19.514782708405214],[-63.466312245796772,-19.514878344432766],[-63.43057738199996,-19.514966921405168],[-63.430568660999938,-19.514966943405245],[-63.430561572999977,-19.512268740405261],[-63.43023748416676,-19.38936117370077],[-63.429915847999951,-19.266451942411564],[-63.406125715452461,-19.266506322991912],[-63.382335504890115,-19.266557608379781],[-63.358545220882654,-19.266605798532911],[-63.334754867999948,-19.266650893411565],[-63.334482266999935,-19.131205354415091],[-63.358148300494676,-19.131160817825684],[-63.381814265999935,-19.131113236415079],[-63.405585020841002,-19.131062366806383],[-63.429355697999945,-19.131008425415068],[-63.429239124999974,-19.08582247241625],[-63.429180961999968,-19.063229411416835],[-63.452941882999937,-19.063172616416846],[-63.476702717999956,-19.063112761416825],[-63.476638206999944,-19.040519793417445],[-63.476509456999963,-18.99533368941858],[-63.476445217999988,-18.972740553419147]],[[-63.553350944999977,-19.184786250413669],[-63.55305008299996,-19.094416508415996],[-63.529285088622657,-19.094486141044921],[-63.505519992999957,-19.094552708416032],[-63.505795434999982,-19.184923629413682],[-63.529573240783165,-19.184856480316647],[-63.553350944999977,-19.184786250413669]]]},"properties":{"FID":5,"pais":"Bolivia","codigo":"Bolivia-1409","nombre":"Carohuaicho 8A","cia":"YPFB CHACO S.A.","situacion":"en exploración","fuente":"VMEEH, 2017","fecha_atua":"mayo/2023","area_sig_h":79058.146151499997,"area_ofici":0,"leyenda":"en exploración","institucio":"FAN","pressiones":"P","limraisg":"s","amzbiog":"n","globalid":"{AA8C5B56-4A83-405B-866F-E263952576BA}","shape_Leng":1.8357980383600001,"shape_Area":0.067720156683999999}},{"type":"Feature","id":6,"geometry":{"type":"Polygon","coordinates":[[[-63.382654151999994,-19.492594869405767],[-63.382548136999965,-19.447410458406939],[-63.406364577684741,-19.447358682661058],[-63.430180939999957,-19.447303780406937],[-63.430561572999977,-19.512268740405261],[-63.43057738199996,-19.514966921405168],[-63.430944454345521,-19.653453016621405],[-63.431314661999977,-19.791936974398141],[-63.431719987999934,-19.944203811394285],[-63.410816276693083,-19.944253380775169],[-63.389912504053946,-19.944300490281684],[-63.369008673203147,-19.944345139883922],[-63.348104787261391,-19.944387329553571],[-63.327200849349396,-19.944427059263848],[-63.306296862587942,-19.944464328989557],[-63.285392830097841,-19.944499138707052],[-63.264488754999952,-19.944531488394237],[-63.264413632999947,-19.899348838395447],[-63.288297215999933,-19.899311757395427],[-63.287931410135087,-19.695987358939181],[-63.287570126999981,-19.49265835240579],[-63.311288905286148,-19.492619120424433],[-63.335007623999964,-19.492576781405777],[-63.335007854999958,-19.492689280405788],[-63.358831038135968,-19.49264364211869],[-63.382654151999994,-19.492594869405767]]]},"properties":{"FID":6,"pais":"Bolivia","codigo":"Bolivia-1410","nombre":"Carohuaicho 8B","cia":"YPFB ANDINA S.A.","situacion":"en exploración","fuente":"VMEEH, 2017","fecha_atua":"mayo/2023","area_sig_h":79035.868173499999,"area_ofici":0,"leyenda":"en exploración","institucio":"FAN","pressiones":"P","limraisg":"s","amzbiog":"n","globalid":"{E84F5A93-68DB-415C-8674-3D75484C93FF}","shape_Leng":1.3278685611600001,"shape_Area":0.067899191957999996}},{"type":"Feature","id":7,"geometry":{"type":"Polygon","coordinates":[[[-63.62245187499996,-19.898450407395469],[-63.64654161499994,-19.898370984395417],[-63.646848970900258,-20.079092125741781],[-63.647163436999953,-20.259809576386324],[-63.671754393999947,-20.25971708338632],[-63.67214281299993,-20.349877025384085],[-63.672533413999993,-20.440543181381827],[-63.672746523999933,-20.440542236381834],[-63.673137990999969,-20.530781628379561],[-63.655153904983699,-20.530850492007335],[-63.637169746145865,-20.530917490904038],[-63.619185516485075,-20.530982625038288],[-63.601201217999964,-20.531045894379606],[-63.601024990999981,-20.485868302380716],[-63.577052850999962,-20.485949567380707],[-63.576715817999961,-20.39559327938295],[-63.576505554999983,-20.395593888382937],[-63.576338197999974,-20.350527814384098],[-63.576337795999962,-20.350419233384088],[-63.576548015999947,-20.350415930384045],[-63.600499431081921,-20.350335282684824],[-63.624450727999943,-20.350251351384063],[-63.624088698999969,-20.259894332386381],[-63.600151131999951,-20.259977797386341],[-63.599891048999943,-20.192208982388028],[-63.575964135977486,-20.192289042345035],[-63.552037109999958,-20.19236584638805],[-63.552436250999968,-20.305314400385218],[-63.576380743999941,-20.305237140385213],[-63.576464794999936,-20.327938663384607],[-63.576254480999978,-20.327938478384635],[-63.552306661999978,-20.328015753384658],[-63.528358733999937,-20.328089748384638],[-63.528282078999943,-20.305500171385187],[-63.528205526999955,-20.282910534385756],[-63.50426443899994,-20.282981080385763],[-63.504191455999944,-20.260391298386324],[-63.504118571999975,-20.237801458386915],[-63.480184308999981,-20.237868570386926],[-63.480114978999943,-20.21527859038747],[-63.456290098361855,-20.215342071565175],[-63.432465128999979,-20.215402321387426],[-63.432090172999956,-20.079860311390853],[-63.455895619191544,-20.079800496462681],[-63.479700976999943,-20.07973747339086],[-63.503611149999983,-20.079670930390872],[-63.503610790999971,-20.079558502390849],[-63.503820616999974,-20.079557946390871],[-63.503819463999946,-20.079196502390857],[-63.50353306899995,-19.989308730393123],[-63.526937375999978,-19.989240721393173],[-63.52738834999996,-20.12428958138975],[-63.551305486999979,-20.124216414389775],[-63.551464064999941,-20.169397003388621],[-63.57538797288629,-20.16932040639001],[-63.59931176799995,-20.169240557388626],[-63.598967567271465,-20.078879907494255],[-63.598625240999972,-19.988518328393148],[-63.563026660946583,-19.988634949348054],[-63.527427836999941,-19.98874442339315],[-63.52712954899993,-19.898873228395427],[-63.527131183999984,-19.898873223395412],[-63.550961636904162,-19.898802158663006],[-63.574791983286204,-19.89872790321072],[-63.598622218525094,-19.898650457100135],[-63.62245233799996,-19.898569820395462],[-63.62245187499996,-19.898450407395469]]]},"properties":{"FID":7,"pais":"Bolivia","codigo":"Bolivia-1412","nombre":"Carohuaicho 8D","cia":"YPFB ANDINA S.A.","situacion":"en exploración","fuente":"VMEEH, 2017","fecha_atua":"mayo/2023","area_sig_h":78834.990112700005,"area_ofici":0,"leyenda":"en exploración","institucio":"FAN","pressiones":"P","limraisg":"s","amzbiog":"n","globalid":"{355E1360-326A-44C5-B25F-6E8A5837373E}","shape_Leng":2.6627113688800002,"shape_Area":0.067941741618399998}},{"type":"Feature","id":8,"geometry":{"type":"Polygon","coordinates":[[[-63.143584401999988,-18.270586372437595],[-63.143567610999987,-18.25015225543817],[-63.167216278717987,-18.250133067761585],[-63.190864914999963,-18.25011095943815],[-63.19093907599995,-18.317897442436319],[-63.190731643999989,-18.318010259436317],[-63.190781209999948,-18.363200974435127],[-63.190830919999947,-18.408391472433934],[-63.21450103672899,-18.408366238781294],[-63.238171112999957,-18.408338057433976],[-63.261841142999977,-18.408306928433944],[-63.262082847999984,-18.430789101433348],[-63.261875321999987,-18.430901985433387],[-63.261909548999931,-18.453496988432782],[-63.261943823999957,-18.476091936432201],[-63.261978150999944,-18.498686829431566],[-63.226454509642522,-18.498732655999508],[-63.190930771999945,-18.498771815431553],[-63.190980913999965,-18.543961661430387],[-63.167292155999981,-18.543984124430384],[-63.167336205999959,-18.589173810429209],[-63.143641177999946,-18.58919335342922],[-63.143678990999945,-18.634252434428021],[-63.120081671511862,-18.634277908095584],[-63.096484326999985,-18.63430042142803],[-63.096484390999933,-18.634413674428018],[-63.09627314699997,-18.634413864427998],[-63.096300030999942,-18.679489899426841],[-63.072802254999949,-18.679500494426829],[-63.072735069999972,-18.521336601430995],[-63.096420801614812,-18.521326008490295],[-63.120106514999975,-18.521312448430965],[-63.119981086999985,-18.340550697435756],[-63.143642041999954,-18.340534343435731],[-63.143604771999946,-18.295343407436935],[-63.14360431799998,-18.295343407436938],[-63.143604315999944,-18.29534113043692],[-63.143587347999983,-18.295341142436957],[-63.119949953999942,-18.295357636436925],[-63.119938336999944,-18.278458386437382],[-63.11993830199998,-18.278407413437389],[-63.119934481999969,-18.272764147437552],[-63.143586177999971,-18.272747859437569],[-63.143586175999985,-18.272745702437533],[-63.143586241999969,-18.272745702437518],[-63.143584401999988,-18.270586372437595]]]},"properties":{"FID":8,"pais":"Bolivia","codigo":"Bolivia-1413","nombre":"El Dorado Oeste","cia":"YPFB CHACO S.A.","situacion":"en exploración","fuente":"VMEEH, 2017","fecha_atua":"mayo/2023","area_sig_h":41332.118503899997,"area_ofici":0,"leyenda":"en exploración","institucio":"FAN","pressiones":"P","limraisg":"s","amzbiog":"n","globalid":"{E583C9F9-65EB-4C8E-BB51-B9FE86EEE4D4}","shape_Leng":1.2848261054000001,"shape_Area":0.035242088792399998}}]
}