{
  "type" : "FeatureCollection",
  "features" : [{"type":"Feature","id":0,"geometry":{"type":"LineString","coordinates":[[-60.74366433137007,-17.844017167732225],[-60.739261178995804,-17.876470084534532],[-60.765120244416863,-17.884416500621626],[-60.77498425517549,-17.894089574878805],[-60.78289999470099,-17.899915990644143],[-60.788724524406639,-17.91336652431103],[-60.794549833657534,-17.926816962372296],[-60.79631030048126,-17.945957339410729],[-60.804276151236429,-17.947959625357026],[-60.808176686492978,-17.95565189882527],[-60.813981017696669,-17.971013797121685],[-60.80967903938528,-17.995821871009046],[-60.815484411895149,-18.011183820904773],[-60.815201393208653,-18.034125179279972],[-60.827779847661994,-18.06772784382991],[-60.840362445598764,-18.101330088448567],[-60.833894601385559,-18.139498485248673],[-60.8435406982749,-18.168287639432069],[-60.857400267319228,-18.179915077958498],[-60.847000722210105,-18.212303598276574],[-60.852603163005732,-18.244871266301896],[-60.864234037549672,-18.275594268777198],[-60.869933972395607,-18.300514602235459],[-60.867651521783742,-18.323433729145187],[-60.859197195213959,-18.359667721817889],[-60.846923427064986,-18.380561544611197],[-60.826684120263529,-18.397539347293421],[-60.830497584009912,-18.412878885537936],[-60.822077396855668,-18.445286248308484],[-60.807740266013354,-18.469976596737261],[-60.813289440948701,-18.50636806497673],[-60.80280647985321,-18.542573567694919],[-60.802463839082769,-18.569336767089005],[-60.818110513629534,-18.600109712707127],[-60.805836131061476,-18.619086446602783],[-60.813685372931673,-18.632561416197927],[-60.81143515119318,-18.651654599188586],[-60.817329345976262,-18.661282874842996],[-60.833228516077078,-18.672938738611904],[-60.83709447369818,-18.684455068439515],[-60.842942696667805,-18.697906129765268],[-60.848888427185067,-18.7037103431073],[-60.850822132092368,-18.709468422729785],[-60.858702589162881,-18.721030478483602],[-60.858461663571617,-18.740147406059851],[-60.856334395852841,-18.749682863723987],[-60.85819630892469,-18.761175977892112],[-60.864000058863489,-18.778450090303817],[-60.865838508576559,-18.791854867992658],[-60.865597409629743,-18.810971740392226],[-60.859357276962221,-18.828107803381677],[-60.865114339176422,-18.849205358825884],[-60.873025409451152,-18.858855709773341],[-60.884641598358066,-18.893403543374106],[-60.896261873273275,-18.927950996493824],[-60.910205076045649,-18.937668496238071],[-60.909943195516639,-18.958697328400017],[-60.919752254110975,-18.977927587303924],[-60.929563388315351,-18.997157503841567],[-60.931289385372004,-19.020120697338989],[-60.945006720128148,-19.04895374945368],[-60.952672673775282,-19.079630966251944],[-60.943364516183422,-19.100559173606815],[-60.934053790860169,-19.121486646111965],[-60.911930315612089,-19.121236828025491],[-60.889734351162552,-19.126719305595753],[-60.881494290921374,-19.141919915843076],[-60.881299009235747,-19.157212996188456],[-60.862997544513135,-19.17229610489677],[-60.868195298436703,-19.237360944155],[-60.85602066092742,-19.244866211571416],[-60.837856946298437,-19.248476144296077],[-60.825680270093045,-19.255979168598365],[-60.806546731472451,-19.256706547415963],[-60.787413243195687,-19.257431905546806],[-60.763170314790301,-19.263828134018926],[-60.738925835298375,-19.27022095035813],[-60.718692242475839,-19.27761637062596],[-60.700603402042908,-19.275477846574148],[-60.682542119269151,-19.27142622678198],[-60.670492859821081,-19.269361316459388],[-60.658579734751093,-19.257739039972304],[-60.642356661991158,-19.266132969608801],[-60.63401804483081,-19.286097414707953],[-60.625677162291744,-19.306061223492883],[-60.617871980095138,-19.323641909695453],[-60.610064942113482,-19.341222051887389],[-60.602256045760534,-19.358801649063619],[-60.594445288448561,-19.376380700218647],[-60.581171627785984,-19.388629803674164],[-60.567895984727663,-19.400877707123623],[-60.590692642422823,-19.426031855472797],[-60.613496208952178,-19.451183826432747],[-60.607002774489999,-19.481683456943486],[-60.607002774489999,-19.481683456943486]]},"properties":{"FID":0,"Name":" "}}]
}