{
  "type" : "FeatureCollection",
  "features" : [{"type":"Feature","id":0,"geometry":{"type":"Polygon","coordinates":[[[-62.313585503274005,-18.694721563685921],[-62.33055777885496,-18.701725886660359],[-62.347531493887203,-18.708728711721847],[-62.364506647660221,-18.715730037009045],[-62.381483239462526,-18.72272986066093],[-62.404077643651981,-18.744403645735982],[-62.426677813586423,-18.766074812657699],[-62.450538720602992,-18.77540386016409],[-62.474402324646896,-18.784729918616915],[-62.498268623471766,-18.794052983120455],[-62.522137614827358,-18.803373048780337],[-62.546009296459523,-18.812690110703631],[-62.569883666110279,-18.822004163998795],[-62.593760721517718,-18.83131520377572],[-62.617640460416084,-18.84062322514573],[-62.63544574321498,-18.849916427973426],[-62.653253008283471,-18.859207952367388],[-62.659592224357453,-18.930193723386335],[-62.664376072061224,-18.970317993288806],[-62.669162048238405,-19.010442001616099],[-62.655346981024408,-19.023531367367912],[-62.641529750474902,-19.036619647632993],[-62.627710354830377,-19.049706840112172],[-62.613888792331323,-19.062792942505883],[-62.588741992283055,-19.06119572414908],[-62.56359574517613,-19.059595087229003],[-62.538450056320059,-19.057991032693533],[-62.513304931023377,-19.056383561493657],[-62.48894800387751,-19.062489159241451],[-62.464589371225749,-19.068591495391441],[-62.43698885426322,-19.073137854321157],[-62.409386946311209,-19.077680040883155],[-62.386759726563973,-19.0529207606805],[-62.368988384666686,-19.032803971822805],[-62.351221299287083,-19.012685553725873],[-62.318805181132483,-19.006397647496737],[-62.286391688300995,-19.000104131608111],[-62.259633437340767,-18.999227573707291],[-62.232875612316818,-18.998347154843387],[-62.206118219686473,-18.997462875636643],[-62.179361265906259,-18.996574736711338],[-62.16159433490175,-18.981838583394545],[-62.143830546555172,-18.967100822384129],[-62.126069898406989,-18.952361457974554],[-62.108312387997081,-18.93762049445958],[-62.101161136070864,-18.910587325265727],[-62.094011995979933,-18.883553898468101],[-62.086864962048502,-18.856520215432656],[-62.079720028605927,-18.829486277524737],[-62.108973114959404,-18.81265759764031],[-62.138220513590689,-18.795824060189798],[-62.16746222520252,-18.778985678334042],[-62.196698250507822,-18.762142465235044],[-62.225928590229543,-18.745294434055946],[-62.255153245100757,-18.728441597960995],[-62.284372215864558,-18.711583970115523],[-62.313585503274005,-18.694721563685921]]]},"properties":{"FID":0,"Name":" "}}]
}