{
  "type" : "FeatureCollection",
  "features" : [{"type":"Feature","id":9,"geometry":{"type":"MultiPolygon","coordinates":[[[[-61.094264440436525,-19.429778661787317],[-61.096195541505431,-19.428226038664544],[-61.097061383979863,-19.430533959663769],[-61.096654860110654,-19.432586553743004],[-61.095102038158743,-19.434506124306466],[-61.093553416249989,-19.436062747856251],[-61.093275766218483,-19.437995691617235],[-61.094016903315868,-19.440060332688752],[-61.094253595826679,-19.441635707145323],[-61.092965602536374,-19.442711092176211],[-61.09217639468617,-19.444759643447139],[-61.091901533998289,-19.446450628642232],[-61.09098617338077,-19.448376852871856],[-61.088799704141231,-19.449926704557875],[-61.086379410030567,-19.449659196207627],[-61.083715427376205,-19.448421156520435],[-61.081949890209508,-19.446708621992119],[-61.078533636750741,-19.444373639355167],[-61.080801177802904,-19.435928304784916],[-61.081859720782646,-19.432672748171935],[-61.085569131953683,-19.43174399290055],[-61.087097942923592,-19.431881106142402],[-61.08901214659366,-19.431780282788093],[-61.09107225100054,-19.430108086880765],[-61.092344605855082,-19.430363448923742],[-61.094264440436525,-19.429778661787317]]],[[[-60.844863222867417,-19.396048113148957],[-60.845284935206706,-19.393392486722373],[-60.846568193881652,-19.391389286474567],[-60.848501566831921,-19.391412181131148],[-60.849250807477993,-19.393255967675369],[-60.848726458228995,-19.396369124405037],[-60.846464376700844,-19.399278198212119],[-60.848777298295701,-19.399856070730923],[-60.850086124210307,-19.403266161748324],[-60.847935119391494,-19.405075610742493],[-60.846767753031642,-19.405612252699601],[-60.845792525887482,-19.406242910487475],[-60.845872286441093,-19.407528295604838],[-60.847222156924481,-19.407819537051239],[-60.849159343433982,-19.407567247942549],[-60.850013769385868,-19.408770060547802],[-60.850584196664954,-19.409510778881852],[-60.850957652706519,-19.410524402767834],[-60.850846502397282,-19.411624038472628],[-60.849868837427231,-19.412438179154879],[-60.847738230080964,-19.412688177818872],[-60.845984674619316,-19.413676589560549],[-60.844130786951489,-19.41493902685048],[-60.842284138160998,-19.415651057189962],[-60.840930582174067,-19.415634967547639],[-60.836970246732072,-19.41531259699099],[-60.834458946660718,-19.415099173824991],[-60.832820222171513,-19.414712643385439],[-60.8316746465553,-19.413598027691826],[-60.830630635989024,-19.412117639186253],[-60.828223391617271,-19.411354908798877],[-60.825418479647396,-19.411413089824467],[-60.824723418799032,-19.412780935600953],[-60.824312282251491,-19.414610902667871],[-60.822278320656253,-19.41486175421338],[-60.819377898570892,-19.414826946024078],[-60.817354955199505,-19.414252175798985],[-60.815821555849318,-19.413224551130863],[-60.815753063910471,-19.411113610398157],[-60.814905027395596,-19.409452012720511],[-60.812756043338318,-19.411077540174457],[-60.810361207127002,-19.409397289556985],[-60.808723849118351,-19.408918822748024],[-60.807266321506702,-19.40945169583831],[-60.807009262539509,-19.409924368397885],[-60.806902937842118,-19.409910452248592],[-60.804894154887741,-19.410833292101767],[-60.802417808762435,-19.412783658237718],[-60.800666108104998,-19.414828863461395],[-60.79855954448707,-19.416267042327348],[-60.796830967155579,-19.416590477318397],[-60.795033717223056,-19.415277156763086],[-60.794340379156971,-19.412857929845092],[-60.795094095690253,-19.410800676786433],[-60.793869171028106,-19.407427892351389],[-60.794435600863572,-19.405798865786807],[-60.796439725771826,-19.40522048555723],[-60.799700119491206,-19.405690509582886],[-60.803359294642448,-19.40349617685396],[-60.806103037142741,-19.401893415858712],[-60.810188018652234,-19.401770496294798],[-60.815031008575836,-19.399245766381213],[-60.816450477134339,-19.394871661429377],[-60.815643702709139,-19.393573979859891],[-60.816819084201178,-19.392823427012718],[-60.819143995140053,-19.392484359734993],[-60.8206662438633,-19.394337510773475],[-60.822193410553467,-19.395823732455469],[-60.824219813873739,-19.396123239027276],[-60.826156869020501,-19.395871186025602],[-60.827329087512545,-19.394967754977827],[-60.828399755756841,-19.39443008120185],[-60.830769975939546,-19.394320769405098],[-60.831709928548548,-19.396350378921461],[-60.833969778676362,-19.393624971183218],[-60.836007107370911,-19.393098768245817],[-60.837645631242331,-19.393485250588398],[-60.840044202533967,-19.394889954420133],[-60.841896663709434,-19.393719268355952],[-60.843482020976246,-19.398141879497182],[-60.844863222867417,-19.396048113148957]]],[[[-60.724917753822467,-19.380367658387314],[-60.726918909443313,-19.379137430781569],[-60.728898281842454,-19.379475974254117],[-60.729829251653044,-19.38388099384478],[-60.727458222055141,-19.387930948968059],[-60.725152476834616,-19.38727448321244],[-60.72181555127402,-19.389429382492445],[-60.719866676481267,-19.386894449790823],[-60.717591604725136,-19.384041595138314],[-60.718953454050343,-19.381234376807111],[-60.721276547055972,-19.380635879177401],[-60.722907844497009,-19.382225378431418],[-60.724917753822467,-19.380367658387314]]],[[[-60.891399308665328,-19.348172032776105],[-60.896119198918363,-19.347863677452253],[-60.896321341197819,-19.351979364599519],[-60.89603852904493,-19.354153753153511],[-60.896392934305787,-19.356335504470994],[-60.898024918175174,-19.358290050170684],[-60.900567666164498,-19.358803318334488],[-60.902861725817949,-19.358829762317114],[-60.904266744424447,-19.358603981741659],[-60.906195451550801,-19.357295380283869],[-60.907979709998656,-19.357315893648483],[-60.910017323116094,-19.357460280309589],[-60.911915173061729,-19.358570895567219],[-60.910629900315172,-19.359403019364571],[-60.910855514655744,-19.361704261687926],[-60.910069221822397,-19.363388977766668],[-60.90802536096664,-19.36372843983985],[-60.906492847470801,-19.363952780509823],[-60.904705426319708,-19.364174172323686],[-60.903048549240722,-19.364155088507992],[-60.901396319746695,-19.363773100200508],[-60.899876199608478,-19.363029678360522],[-60.896940177011409,-19.363358717928019],[-60.896290505177589,-19.364319055499251],[-60.896514362492951,-19.36674125832069],[-60.896884305507733,-19.3677133805007],[-60.896211320749138,-19.370488157595272],[-60.896707172767982,-19.371582717208877],[-60.89987190220053,-19.373313009394597],[-60.900490595912444,-19.374771922654734],[-60.899699471726649,-19.376819464328733],[-60.896391687890834,-19.376297315893137],[-60.894372526729271,-19.37470120573628],[-60.8931088209496,-19.373839709452664],[-60.891796876799503,-19.376728039329087],[-60.893057482717637,-19.377831470239808],[-60.893427422657375,-19.378803598778187],[-60.892884892091395,-19.381337902021873],[-60.891224739018234,-19.381560618251513],[-60.889194661910679,-19.380811185206575],[-60.887924704741813,-19.38043349940563],[-60.88688626813817,-19.381873196998864],[-60.886993442624103,-19.383447182383655],[-60.887089690886341,-19.3858679001473],[-60.886293651641608,-19.388278245266367],[-60.883972624289768,-19.390307899810626],[-60.882435150818111,-19.390894894460391],[-60.880650557169432,-19.390874096288492],[-60.878579666619814,-19.393269527684765],[-60.877396329273331,-19.396038234854082],[-60.875973695769858,-19.397594342433226],[-60.874195321747685,-19.397089631340311],[-60.87280724752226,-19.395984577674827],[-60.872464139232115,-19.392956087121277],[-60.872369687344666,-19.390414422632926],[-60.871752782441057,-19.388834474162987],[-60.872940861808303,-19.385702923071676],[-60.872969145708858,-19.383525629692635],[-60.873253922869168,-19.381230357212374],[-60.87392735108773,-19.378455709117123],[-60.875349816779597,-19.376899600588146],[-60.875511787199372,-19.37423994614667],[-60.876443183380168,-19.371226335101046],[-60.877091429740204,-19.370387043276406],[-60.876103145842208,-19.367955919469864],[-60.876258810119239,-19.36578010484271],[-60.877940729774338,-19.36386405205268],[-60.878843834589631,-19.363027722704611],[-60.881545277423939,-19.361123509026658],[-60.880165245329231,-19.35941372422803],[-60.880575726897156,-19.357240866110434],[-60.881615597737074,-19.355680230298741],[-60.885184024270643,-19.355721717854184],[-60.883580320789434,-19.351589757283069],[-60.88499308584592,-19.350759310445888],[-60.887251176451969,-19.353568072947677],[-60.886640458499222,-19.351504319674422],[-60.886534834431423,-19.349809368764767],[-60.88794289814485,-19.349341783734406],[-60.889840486222568,-19.350452607296535],[-60.891097783713484,-19.351797960047509],[-60.891399308665328,-19.348172032776105]]],[[[-61.079468189060741,-19.308098569859819],[-61.081409616728195,-19.310613783656791],[-61.084693890443496,-19.310648295126558],[-61.08731950135671,-19.310831766834792],[-61.089098680178211,-19.313189283049557],[-61.090536794083512,-19.316634687848108],[-61.089186781944463,-19.319739040910161],[-61.085836939601641,-19.325317184149398],[-61.082368124805875,-19.326995894676958],[-61.082229373694325,-19.324811498446753],[-61.078125508591818,-19.324612360065409],[-61.076319010366667,-19.324593307831673],[-61.073870228459207,-19.32332006552479],[-61.07324805881246,-19.32035094612236],[-61.072936066582542,-19.318944338707279],[-61.070321345089177,-19.317825226440053],[-61.072516526747492,-19.312702966381821],[-61.075844610781182,-19.308995933162425],[-61.077627242396936,-19.311041735833761],[-61.079468189060741,-19.308098569859819]]],[[[-60.8706861018252,-19.293308688307807],[-60.873345128606836,-19.290845145916411],[-60.874998930400281,-19.289928949247837],[-60.877463520863735,-19.289801708698445],[-60.880578778120423,-19.290149717897336],[-60.880206264721274,-19.293575396996829],[-60.878374202680881,-19.295580931557303],[-60.876730413498606,-19.295717726088373],[-60.875256839655748,-19.29538876130114],[-60.873753058125878,-19.297398063660395],[-60.87340052202682,-19.299264859858294],[-60.874525621761961,-19.301148870919938],[-60.876471672032302,-19.303042432640062],[-60.875626586423166,-19.304903501376682],[-60.875598395921685,-19.307085894583569],[-60.876729604929501,-19.308502241944655],[-60.878519612456486,-19.309770338343615],[-60.879326498969462,-19.310871082856877],[-60.878941798580513,-19.315232058234663],[-60.879223931228957,-19.318821242456035],[-60.880671587432317,-19.321176707196287],[-60.881616613610518,-19.324305868151509],[-60.882405498687781,-19.326809577027486],[-60.884029522114353,-19.328231617390458],[-60.885661600730948,-19.329030102600761],[-60.888655490872637,-19.326102529757925],[-60.891258830275163,-19.328003579599915],[-60.893245366201342,-19.326779272845734],[-60.89487548683649,-19.327733565656985],[-60.895334164198118,-19.330389330842554],[-60.896131272822267,-19.332269453261091],[-60.89910113083274,-19.331212343590444],[-60.900873630128359,-19.333883242714894],[-60.902964670381913,-19.337337347060622],[-60.903429465385898,-19.339525442391526],[-60.904559136758714,-19.341097543979281],[-60.903886306603304,-19.342337086809785],[-60.900946167152568,-19.341055949444787],[-60.901883694754069,-19.344808594772246],[-60.903647379898395,-19.347224602626206],[-60.903244968180225,-19.348792728190904],[-60.903481299793526,-19.350247225519333],[-60.904855345585972,-19.352440706145103],[-60.905989980022134,-19.353421610358062],[-60.908543487218424,-19.353088015539992],[-60.911351875761738,-19.352757307032483],[-60.913131473923883,-19.353140658779964],[-60.910553313170489,-19.355409743698953],[-60.908901145164521,-19.355027829838772],[-60.907245899458864,-19.35488782881912],[-60.905455489120193,-19.355351165344349],[-60.903161474282733,-19.355324758589688],[-60.901136285059771,-19.35421259158641],[-60.900402586935087,-19.35178450917892],[-60.899682844583147,-19.348267755460466],[-60.898104423587533,-19.344920931629147],[-60.896181632642865,-19.341156897176393],[-60.893584035957545,-19.338788235476702],[-60.889652718145378,-19.337963193341206],[-60.886696735895015,-19.337928930318231],[-60.884742152648585,-19.336658976369293],[-60.882996033570976,-19.33196143073928],[-60.880684958639634,-19.332870022128603],[-60.875752457218297,-19.333280317218072],[-60.871338859604066,-19.331669734945716],[-60.866298890028787,-19.327713106209782],[-60.863397877523461,-19.323469623029311],[-60.861812633709206,-19.319085630634341],[-60.861048438861346,-19.314711261034812],[-60.859130879249278,-19.310635171489182],[-60.858358652290356,-19.306884332001559],[-60.859266828426691,-19.300190970941554],[-60.859666161501465,-19.294738890465606],[-60.861107681437254,-19.292688982140103],[-60.861840943280932,-19.291646222268142],[-60.863017264087041,-19.291863561843474],[-60.863642791226809,-19.291979132497762],[-60.864307573590992,-19.291363279133193],[-60.865945253972072,-19.291694246156403],[-60.868385638025138,-19.29343774888569],[-60.8706861018252,-19.293308688307807]],[[-60.877246283552054,-19.327196938844839],[-60.877283910117995,-19.324284995191629],[-60.877310465964676,-19.322229504686788],[-60.876265507367137,-19.319304952858001],[-60.876118281349548,-19.316733488011977],[-60.876879810620814,-19.313658654809785],[-60.875469631919728,-19.311072483180478],[-60.87348501528043,-19.311049357099694],[-60.871502618985765,-19.310854919077826],[-60.871175046282943,-19.308281350758584],[-60.871038979381105,-19.304853435274591],[-60.868335014210587,-19.304650548275376],[-60.867644455403713,-19.302244053577365],[-60.866965016400457,-19.298981106232887],[-60.864872710477364,-19.297072164255958],[-60.863922587473169,-19.297061047026144],[-60.862278931195767,-19.2985836450856],[-60.861808626489378,-19.299327893356711],[-60.862031743468954,-19.30372021992839],[-60.863027398305938,-19.310413194770138],[-60.864379505463624,-19.317452972662142],[-60.867010297926257,-19.323308500811955],[-60.870743879880457,-19.32763504676387],[-60.874684696408401,-19.329908151330283],[-60.876489101705566,-19.32992918376317],[-60.877246283552054,-19.327196938844839]]],[[[-60.920003072312063,-19.282339760811571],[-60.917556307850717,-19.281064580238528],[-60.909189725162371,-19.280501263037443],[-60.906749028760508,-19.278758281858966],[-60.904970981477319,-19.276555137213492],[-60.902714393808417,-19.273255107908479],[-60.901432894618537,-19.270745813196271],[-60.9011542160885,-19.266844830858588],[-60.902000768681326,-19.26482770271371],[-60.900238803798253,-19.261377421702683],[-60.903070922553489,-19.258135788472664],[-60.904390011978499,-19.257683177408392],[-60.906357748697751,-19.257861631844047],[-60.905997788719482,-19.260352098533932],[-60.904821035739083,-19.262521378771122],[-60.907101294455515,-19.263950707351515],[-60.909225352864851,-19.264754575425219],[-60.913649529166413,-19.265428778126712],[-60.918241843252858,-19.265792966554493],[-60.922177576098505,-19.266149578703875],[-60.924131708882904,-19.267419088002555],[-60.926715041294081,-19.270878504928611],[-60.926529305039622,-19.272591442135006],[-60.924176070840304,-19.276930286043449],[-60.923468316960367,-19.280975977122758],[-60.922299474094331,-19.282521812182335],[-60.920003072312063,-19.282339760811571]]],[[[-60.846796639314093,-19.26808338510379],[-60.844186600927785,-19.266805359692967],[-60.842879557467732,-19.266322217801392],[-60.840936363817036,-19.264272487063259],[-60.83981596279245,-19.262076557831211],[-60.839838429050197,-19.260361852458072],[-60.841034342118959,-19.256790127503244],[-60.841229083343798,-19.254453826643982],[-60.839279910420821,-19.252871738997765],[-60.838477638711574,-19.251459099552164],[-60.838502147849304,-19.249588510031995],[-60.839363613758586,-19.24648055613287],[-60.841499276960342,-19.246349863730813],[-60.842168006877912,-19.245422311873178],[-60.844642085624493,-19.244516037378801],[-60.845460667744995,-19.244681586776721],[-60.846102920725734,-19.245780500326305],[-60.845736001689502,-19.248738416397135],[-60.847205016466695,-19.249379341619459],[-60.848493650100288,-19.251265393007944],[-60.8486293174157,-19.253449692178634],[-60.848272581362757,-19.255628196302574],[-60.849909866368286,-19.255959271000449],[-60.850394145368931,-19.256588595261082],[-60.850529834846533,-19.258772893800959],[-60.848855914381083,-19.261247721700649],[-60.850440408029556,-19.265631765530575],[-60.850411946064945,-19.26781413211285],[-60.848758266498429,-19.268730116265047],[-60.846796639314093,-19.26808338510379]]],[[[-60.695553328256764,-19.219545057851366],[-60.70028885414844,-19.216677349540028],[-60.7038215192458,-19.215885317461439],[-60.703794411191161,-19.217836475199999],[-60.70346225224921,-19.220620162193427],[-60.70551818394059,-19.220506542540665],[-60.705631998308995,-19.222877644844303],[-60.704292187634856,-19.224254777489836],[-60.701768913244457,-19.226314006114169],[-60.697911495425842,-19.229332165775123],[-60.695878788845754,-19.227773278848371],[-60.694159010712248,-19.224824396767094],[-60.691997201102325,-19.222009323567832],[-60.695553328256764,-19.219545057851366]]],[[[-61.132433221782101,-19.19934244164369],[-61.128785828139179,-19.202579760444628],[-61.126297683184838,-19.204893277342411],[-61.122819472932591,-19.207664401921658],[-61.121155297237124,-19.209674418405655],[-61.118504593907637,-19.211830216080617],[-61.116510305594758,-19.213992720390639],[-61.1146871989096,-19.215533247995147],[-61.114510629558445,-19.216622926304222],[-61.114480395481628,-19.219273389819804],[-61.114459050781655,-19.2211443047008],[-61.112482398114246,-19.221747655093196],[-61.111799163115066,-19.224079527127799],[-61.111126601643228,-19.225475938920031],[-61.109463877989882,-19.227329908662629],[-61.109269408530146,-19.229978666260269],[-61.109413914775701,-19.231695360190479],[-61.107082037006521,-19.234633878355091],[-61.106735881300196,-19.236189569367806],[-61.104414629325909,-19.238192592889792],[-61.101434946612621,-19.240344679139803],[-61.10012178349421,-19.240331049950921],[-61.098141264249435,-19.24124603455979],[-61.097632655025713,-19.24264408543689],[-61.095491545971505,-19.243245515944338],[-61.093999813086796,-19.244477391099991],[-61.09397820610517,-19.246348278585462],[-61.092805727395309,-19.248363096509081],[-61.093778035677829,-19.249464713169811],[-61.093927780043984,-19.250713681743438],[-61.092753462140344,-19.252884402243055],[-61.0923963009703,-19.25537549069761],[-61.093202679673666,-19.256631307715434],[-61.091371651092118,-19.258795164322038],[-61.094615278049353,-19.262259364254206],[-61.094276132793745,-19.263191384460374],[-61.08984000489405,-19.263456935304067],[-61.08901013282199,-19.26422788899049],[-61.08915080735715,-19.266256390201658],[-61.08847604806239,-19.267808588221456],[-61.08682528553858,-19.268570941884523],[-61.0846982960296,-19.2679249631136],[-61.08287427939694,-19.269465088412872],[-61.0807436675967,-19.26913087614259],[-61.080752744880527,-19.268351347647837],[-61.085109941937183,-19.260756720440714],[-61.085146148886977,-19.25763859519224],[-61.085676631419446,-19.254369717937667],[-61.087505867224607,-19.252361825661936],[-61.088507061812365,-19.250968962565864],[-61.088535960716975,-19.248474454464631],[-61.089703075631462,-19.246927389363442],[-61.091555609687127,-19.242892652230537],[-61.090592369826972,-19.241011492302796],[-61.090444455188759,-19.239606615226435],[-61.091609680590771,-19.238215437162907],[-61.094391105790301,-19.239024051911315],[-61.097679367567011,-19.238590484340591],[-61.099501097321358,-19.237206073472173],[-61.099849117036442,-19.235494493964417],[-61.099212296013874,-19.233772688561221],[-61.100216855897685,-19.232067924503205],[-61.101510239027405,-19.233796537069622],[-61.103306815482412,-19.234594796692718],[-61.103979484831363,-19.233198423779182],[-61.104489794535262,-19.231644438846892],[-61.105653059395436,-19.230409063278636],[-61.106652172399585,-19.229171981313417],[-61.106174066907499,-19.22791961948813],[-61.10453988769121,-19.227278999761289],[-61.103569408381482,-19.226021533975633],[-61.103601618145767,-19.223215181149886],[-61.105110956154824,-19.220424115133177],[-61.107105467537195,-19.218261755782311],[-61.108075934594403,-19.219519202216489],[-61.109074957091295,-19.218282098458207],[-61.109920536710156,-19.216107839497774],[-61.110263038712553,-19.214863951512736],[-61.112246733273359,-19.213636980712899],[-61.11342047950761,-19.211466080524509],[-61.113613053633912,-19.208973215083148],[-61.114781411543724,-19.207270030434458],[-61.115457408414926,-19.205561773091848],[-61.117765625699448,-19.204649924128852],[-61.11907497312805,-19.204975223053435],[-61.120396727759029,-19.204209140542488],[-61.122059080971347,-19.202355036868365],[-61.124676000615736,-19.203161474053303],[-61.125671264237639,-19.202236080297901],[-61.125861865016979,-19.199899094320187],[-61.126867690572631,-19.198038225710569],[-61.128348170402816,-19.19774148788408],[-61.129840980449046,-19.196353357386254],[-61.131174943242726,-19.194495806044703],[-61.132477209515478,-19.195444651944399],[-61.131804954892168,-19.19684116849837],[-61.131129166324271,-19.198549505054157],[-61.132433221782101,-19.19934244164369]]],[[[-61.132433221782101,-19.19934244164369],[-61.135097602456952,-19.195939111537527],[-61.136092765798999,-19.195013652782816],[-61.137424895066083,-19.193311960388357],[-61.139092208826909,-19.190989937716175],[-61.140405009663745,-19.191003254473205],[-61.141894160922135,-19.189926836967498],[-61.141588713792864,-19.187896648255514],[-61.145895399243173,-19.184353831026417],[-61.146371975068284,-19.185762022953572],[-61.145694640822704,-19.18762634402113],[-61.145675432894649,-19.189341386448859],[-61.146970774398049,-19.190913785018406],[-61.148611781973301,-19.190930358957615],[-61.149130230810229,-19.188596630325311],[-61.150617567340092,-19.187676047912515],[-61.150275437323224,-19.188920045207841],[-61.150418634597436,-19.190792659701529],[-61.151057623727759,-19.192358412042033],[-61.146406885737676,-19.197301237793468],[-61.14572599909291,-19.199477379044225],[-61.144891469637855,-19.200716378820417],[-61.141745359332432,-19.203179393983881],[-61.135650371412986,-19.205144585179902],[-61.134185659142119,-19.204038173111794],[-61.133230892542407,-19.201377649167345],[-61.132433221782101,-19.19934244164369]]],[[[-60.730391441749397,-19.181594986224916],[-60.730416975683831,-19.179731777438459],[-60.731486597423341,-19.178741570345405],[-60.732419102114235,-19.176746223196215],[-60.732137048390577,-19.175309254904498],[-60.732462261296334,-19.173593094843152],[-60.734871697567002,-19.173909550527029],[-60.734848181825193,-19.175629441848113],[-60.7348266235186,-19.17720600843473],[-60.735862899788565,-19.178652284550122],[-60.735535745873577,-19.180511776777447],[-60.733410240284634,-19.181488964570089],[-60.733698193348864,-19.182495960555592],[-60.735339823941025,-19.183806372297759],[-60.734585603392262,-19.183797058236856],[-60.733512038172869,-19.185073928831795],[-60.7345542271227,-19.186090243365314],[-60.732887069833637,-19.186643034195654],[-60.732115167130125,-19.187923623466716],[-60.731944682512228,-19.189354995277572],[-60.730581148824761,-19.18976816927367],[-60.731004224665156,-19.191923623829407],[-60.728122316960778,-19.193034718737294],[-60.725702781377251,-19.193434763784431],[-60.72387481787829,-19.194702204434726],[-60.72279715184667,-19.19626564088081],[-60.723088848551591,-19.198517479978758],[-60.722916446746758,-19.198560679149217],[-60.720657552527626,-19.198245908449646],[-60.719107064328632,-19.197417212781232],[-60.718880875282125,-19.195786908893073],[-60.718890754031143,-19.195070297243316],[-60.720403231485356,-19.194802416534422],[-60.721786555445,-19.192956098922824],[-60.721355708563543,-19.19137392578709],[-60.722447153117201,-19.188807235334309],[-60.724719716041541,-19.188118708940181],[-60.725963897838149,-19.185410538004955],[-60.727027680390329,-19.18485033354321],[-60.729742880935888,-19.184883963293732],[-60.731417881674176,-19.183757905376321],[-60.730391441749397,-19.181594986224916]]],[[[-60.885224476403899,-19.183872643926193],[-60.889191908547708,-19.181579668769608],[-60.891838790216731,-19.179895075436242],[-60.894307684957219,-19.17929978148851],[-60.894999598506956,-19.176501303238481],[-60.898644542665025,-19.173736658346808],[-60.899490528112665,-19.171719480402828],[-60.90098481433099,-19.170333363001351],[-60.902299235263172,-19.170192477424383],[-60.903257928435579,-19.172230299467138],[-60.902068072485896,-19.175490869294681],[-60.903860911426143,-19.176446834821228],[-60.90185662468636,-19.179230355294802],[-60.903149408305907,-19.180804262518222],[-60.901645159421165,-19.182969838735417],[-60.897211359861664,-19.183230891181289],[-60.895074511333746,-19.18351820682139],[-60.892921788848689,-19.185052609588521],[-60.89208159536863,-19.186602073356237],[-60.892544043302713,-19.188946064478227],[-60.895429977813286,-19.19428021255694],[-60.898549461063233,-19.194160082417593],[-60.903323564501406,-19.192967439263214],[-60.905595020192578,-19.195020264943761],[-60.903444196454103,-19.196398894284314],[-60.905559505004447,-19.197826286692422],[-60.903242581391396,-19.199358925116332],[-60.904873560316929,-19.200157137062732],[-60.904851843579969,-19.201871927290775],[-60.903195161691059,-19.203100281330496],[-60.901870590624902,-19.204020595449254],[-60.902337156108842,-19.206052796408876],[-60.902651501068775,-19.207147780372647],[-60.901143011845996,-19.209625103012471],[-60.899986429577808,-19.210235498092555],[-60.899179817379526,-19.209134867251944],[-60.899195660797915,-19.207887752735413],[-60.897108043994947,-19.204277833751206],[-60.893638354985512,-19.206108926376665],[-60.895755664974516,-19.207380545958635],[-60.895903889720707,-19.208629541317158],[-60.895223705986659,-19.210492669949424],[-60.894879637047183,-19.211736009158869],[-60.896338652626923,-19.21315597436892],[-60.899290435450411,-19.213345758462523],[-60.901587813132636,-19.213372088913399],[-60.904393299370732,-19.21215690573613],[-60.905889923088203,-19.210614894495386],[-60.90900972793883,-19.210494613985727],[-60.911457393512627,-19.211613922705229],[-60.911601799319136,-19.213174698033239],[-60.908618430986486,-19.21547935313146],[-60.908270500302073,-19.217034506294947],[-60.910225940131852,-19.21814821620119],[-60.909709967330464,-19.220013280968526],[-60.911175099142881,-19.22096547382289],[-60.911647719353674,-19.222529991846724],[-60.910485159318142,-19.223608118327345],[-60.907827821531519,-19.226072374630437],[-60.906979610702848,-19.228245452425227],[-60.906801668926043,-19.229334804771945],[-60.907594595095922,-19.231526641988577],[-60.907574843595938,-19.23308553927582],[-60.904304341729734,-19.232112649055342],[-60.90351145875055,-19.229920801568451],[-60.902872810884396,-19.22851027876688],[-60.903052756551908,-19.227265043710567],[-60.905710178468489,-19.224800865596581],[-60.900302472862336,-19.224115285180837],[-60.897204242478523,-19.222520614539171],[-60.8890526739848,-19.218217228042427],[-60.886158646623052,-19.213506523448189],[-60.885380032011064,-19.210223408813366],[-60.885433852956091,-19.206014435387772],[-60.885463747395825,-19.203676115820716],[-60.884180958497865,-19.201322646991386],[-60.882698211162392,-19.201773257009489],[-60.882654311869395,-19.205202786536166],[-60.882614395293288,-19.20832053961961],[-60.881273699861467,-19.210487789353056],[-60.879442679983342,-19.212493440949871],[-60.878119914773109,-19.213257676017257],[-60.876134741896884,-19.214481951976552],[-60.875778502484245,-19.216660561456035],[-60.874771860072954,-19.218363893772555],[-60.873284924324366,-19.219126182496062],[-60.871960070652278,-19.220046250511263],[-60.870787254058214,-19.221903533105586],[-60.870122802127646,-19.22251944452718],[-60.868487792822208,-19.222032691492846],[-60.867363210127323,-19.220148686480677],[-60.866728937735296,-19.218426296812183],[-60.867399418073376,-19.217342740053283],[-60.872010249125204,-19.216149090960194],[-60.871536020872973,-19.214740393843169],[-60.871073843099332,-19.212396377435283],[-60.873207071568309,-19.212421155363732],[-60.874367759376142,-19.211499166323474],[-60.874876069975535,-19.210257783749586],[-60.872582785683626,-19.209919348718497],[-60.872270648879045,-19.208668445046197],[-60.873603420739563,-19.207124817340699],[-60.874291835787389,-19.204638244277632],[-60.873495450262396,-19.202758084635686],[-60.872693067287116,-19.201345582418462],[-60.871352316712908,-19.203512754902043],[-60.870347732071401,-19.205060181655544],[-60.868870950219119,-19.205043013630231],[-60.868080654750408,-19.202695177328412],[-60.866411660916881,-19.204858487446465],[-60.864932871409685,-19.204997174127797],[-60.863974524563609,-19.20295918541715],[-60.860692843756269,-19.202920908047702],[-60.86004659113798,-19.202133818382343],[-60.857587367308071,-19.201949178767549],[-60.856610952016446,-19.201314127998486],[-60.855646666687427,-19.199743762228998],[-60.85322591817414,-19.196597256478363],[-60.856855800606105,-19.195080639853007],[-60.858954497840678,-19.197755613695275],[-60.861247569896456,-19.198094199951996],[-60.863058480640674,-19.197647591588456],[-60.865225696005609,-19.195022381615491],[-60.866708413400787,-19.194571911486747],[-60.86833913670786,-19.195370427720846],[-60.870322106744219,-19.194302104358194],[-60.872299041459975,-19.193701417637456],[-60.873597628424761,-19.194807853978862],[-60.875234398315136,-19.1951386508198],[-60.875580563420968,-19.193739469718615],[-60.876579022307993,-19.192659663206115],[-60.878219777041231,-19.192678657307265],[-60.878719995657889,-19.192060802132939],[-60.87742738603351,-19.190486738182937],[-60.879270137531911,-19.187545755995806],[-60.880910844470129,-19.187564721172969],[-60.885224476403899,-19.183872643926193]]],[[[-61.164837156264028,-19.1781510903424],[-61.167795945614699,-19.177712861031868],[-61.169654324973799,-19.172897502675013],[-61.171150016490209,-19.17119715385191],[-61.173141359557739,-19.169189858432897],[-61.173329496221932,-19.16700867200419],[-61.177125615443465,-19.165019274008603],[-61.179612462794637,-19.162704948492372],[-61.183061473808671,-19.162427242328899],[-61.183856235420471,-19.164774108390553],[-61.185320993957184,-19.165880126813263],[-61.186628512637348,-19.166360847245883],[-61.187105406857533,-19.167768960364263],[-61.184962105683404,-19.168683384042833],[-61.181841127494366,-19.168964365874668],[-61.180357542430315,-19.169573398387517],[-61.179034603805007,-19.170495878808385],[-61.179008906217923,-19.172834620706592],[-61.178331995663193,-19.174699099762705],[-61.177820871669674,-19.176409288735439],[-61.176820894821049,-19.177802752237643],[-61.17598155913609,-19.179509672176788],[-61.174815735814647,-19.181057406022067],[-61.171663540366367,-19.184144669736348],[-61.168863561913717,-19.185052334890297],[-61.166897852305368,-19.184720838070881],[-61.165761266254314,-19.183617952809897],[-61.165947806857375,-19.181592700895365],[-61.164465784648776,-19.182045675706302],[-61.164837156264028,-19.1781510903424]]],[[[-61.034491138258957,-19.168381346844381],[-61.036636944186831,-19.167312849212308],[-61.038228789146245,-19.164523249449218],[-61.043003218324998,-19.163170891615493],[-61.044337791553289,-19.161314027018015],[-61.045674171096678,-19.159301245037845],[-61.047644723862682,-19.159166281271098],[-61.053213613895167,-19.160005024446608],[-61.064526595211206,-19.160748312278095],[-61.066480808174823,-19.162016301797873],[-61.06808875349936,-19.164839884733968],[-61.066189249563529,-19.165911363723044],[-61.067972195254619,-19.167801241073224],[-61.067144572040391,-19.168416229553344],[-61.064519442080041,-19.168388569469275],[-61.065810174236653,-19.170273276187437],[-61.066286019011805,-19.171681617140951],[-61.065133861417301,-19.171981324752846],[-61.063476723595066,-19.173367171846216],[-61.06329624861538,-19.174768592339294],[-61.064091128906583,-19.176959928434801],[-61.064082019675851,-19.17773945702314],[-61.065870514740176,-19.179161642986003],[-61.067336333715623,-19.180112640173125],[-61.067305406951292,-19.182763041094166],[-61.068446729000783,-19.183398762910873],[-61.069582608138369,-19.18450219594871],[-61.069558980363425,-19.186528975241842],[-61.070209884863701,-19.187003599683074],[-61.071684875950289,-19.187175038429931],[-61.072485359942895,-19.188898632128797],[-61.073129024125372,-19.189996873521746],[-61.073267712896239,-19.192181285848484],[-61.073918649969286,-19.192655900613325],[-61.076066389264675,-19.191431042555767],[-61.076248600832464,-19.189873697949139],[-61.077579448585546,-19.188328396037928],[-61.079205894344305,-19.18959284394769],[-61.078365522793383,-19.191299224263393],[-61.077847893203185,-19.19347675890257],[-61.076026520798273,-19.194860986524073],[-61.076012021061743,-19.196108238784998],[-61.074850632342866,-19.197187525369653],[-61.072890510098716,-19.196387305652824],[-61.072389133701968,-19.197161661182939],[-61.071714566544024,-19.198713819219272],[-61.0707281421384,-19.198859366212666],[-61.070547678222937,-19.200260792204897],[-61.069552148561563,-19.201185861122529],[-61.067090598170019,-19.201159920636151],[-61.068374298005693,-19.203668251058716],[-61.065898129299086,-19.204889534248942],[-61.068830211478193,-19.206791552690429],[-61.068979758390043,-19.208040526575303],[-61.066660344491659,-19.20988716676867],[-61.064040033471422,-19.209391726605457],[-61.065143203576028,-19.213301491386176],[-61.064309850822177,-19.21438415890557],[-61.062338632101316,-19.214519244416948],[-61.061682167608055,-19.214512299726],[-61.062316703209092,-19.21639010313601],[-61.062141618642336,-19.217323795663862],[-61.059665197615701,-19.218544971828834],[-61.059486434755804,-19.219790469982875],[-61.060120958160716,-19.221668279565979],[-61.059938531198398,-19.22322558669546],[-61.059278371837351,-19.223530439194512],[-61.057174080210373,-19.2210133460894],[-61.056668880680867,-19.222099452009349],[-61.055828088698668,-19.2238056884358],[-61.055000126069217,-19.224420589996395],[-61.05545763684372,-19.227387996713105],[-61.053316624907879,-19.227988939230276],[-61.053774108661351,-19.230956347280493],[-61.048011091376019,-19.232454216033076],[-61.047575823246746,-19.227615963184029],[-61.045112066752083,-19.22774559557411],[-61.044793036976174,-19.22696257497083],[-61.045628424737536,-19.225724110986473],[-61.046135550934018,-19.224482140606163],[-61.047931710169507,-19.225280912629895],[-61.048272851965024,-19.224193086939483],[-61.049607929270451,-19.222336233852783],[-61.050271776973752,-19.221719610169924],[-61.051416954396508,-19.222043645147345],[-61.052569487061099,-19.221744058152961],[-61.054889219498897,-19.21989762800489],[-61.054413374867529,-19.218489260757977],[-61.053777091374542,-19.216767341995268],[-61.054936920315853,-19.215844118970775],[-61.05706494061593,-19.216334474053966],[-61.058222918649825,-19.215567133166786],[-61.05742798273053,-19.213375769939645],[-61.059736563297854,-19.212464690287284],[-61.060907299873783,-19.21060599496796],[-61.060929237597627,-19.208735135732841],[-61.05666970858784,-19.208066315897263],[-61.058832405383782,-19.205594452573258],[-61.060792548909255,-19.206394825544454],[-61.060825448683985,-19.203588537250528],[-61.063456606115565,-19.20314858317078],[-61.063821308532795,-19.200033945063474],[-61.065958277358774,-19.199744654649617],[-61.067610220065141,-19.198826526499847],[-61.066972029295059,-19.197260549808956],[-61.06879167878801,-19.196032326748071],[-61.06978536018233,-19.195263165439748],[-61.070133552305201,-19.193551654933898],[-61.069830812535926,-19.191365516060944],[-61.068868075037955,-19.18948427936493],[-61.067737627715509,-19.187913122086073],[-61.067084907773165,-19.187594394497296],[-61.063932565217918,-19.190523715658777],[-61.062461208077515,-19.190040402156907],[-61.062151273754338,-19.188477881218496],[-61.062658138738612,-19.187235839388944],[-61.060891500477702,-19.183942753785285],[-61.060047329498808,-19.185960847346688],[-61.058550435126101,-19.187660177331161],[-61.058528496482488,-19.18953103821293],[-61.059151958089267,-19.192344275356767],[-61.059618651851281,-19.194532156106856],[-61.057802620892978,-19.195448473371872],[-61.055871918426107,-19.192153605775587],[-61.055173412002375,-19.195732451978184],[-61.053030985543288,-19.196489332896295],[-61.052571715136239,-19.193677825875685],[-61.052604730750922,-19.190871546528722],[-61.052612066766628,-19.190247929173552],[-61.049798645345916,-19.192245039288355],[-61.048296075392543,-19.194411983177552],[-61.048259302575779,-19.197530061857886],[-61.048217005015573,-19.201115851127675],[-61.047219515389564,-19.20219669036284],[-61.044593881220536,-19.202168698151635],[-61.041464870913586,-19.203070827178408],[-61.040454400291644,-19.205242946603715],[-61.039137866874547,-19.205540710272988],[-61.037150108496363,-19.207078656508052],[-61.03645110816408,-19.210657384446222],[-61.036436297155582,-19.211904605167575],[-61.035112295021513,-19.212825943735425],[-61.03475997914299,-19.214849154169183],[-61.032759076181641,-19.217478352561354],[-61.031481423748161,-19.214502108832466],[-61.028348404844756,-19.215715789773615],[-61.027880240741979,-19.213683767518013],[-61.027400926867891,-19.212587155262081],[-61.029383262783746,-19.211517034667821],[-61.033716856797255,-19.205950394187063],[-61.041664037803315,-19.200110419868516],[-61.043989080002376,-19.197796397068384],[-61.043850783509974,-19.19561199741559],[-61.046170207316415,-19.193765648114415],[-61.047009072171583,-19.192215350335275],[-61.052661577464491,-19.186038507686973],[-61.055330908841832,-19.182324647346295],[-61.057343795667059,-19.178603788443251],[-61.055892691556956,-19.17640547756319],[-61.052107912687447,-19.177300885215043],[-61.049797973729717,-19.178367816257484],[-61.048481669171586,-19.17866566827206],[-61.047152494786438,-19.180054839894712],[-61.046971870389591,-19.181456229642588],[-61.045152250868739,-19.182684237758508],[-61.043179574893038,-19.182975052604021],[-61.044269233547432,-19.18797622043218],[-61.041800540851668,-19.188573572296516],[-61.039840711887024,-19.187773021410134],[-61.039656318356904,-19.189486202907595],[-61.038819251264904,-19.190880559994092],[-61.036356049882549,-19.191010122899119],[-61.034895895518311,-19.18959117861661],[-61.033277234522473,-19.187702757022901],[-61.031798603156695,-19.187842817205389],[-61.031274826565074,-19.190487875538377],[-61.031414812568592,-19.192516368835552],[-61.030896573428642,-19.19469371670235],[-61.028907029676226,-19.196387481556219],[-61.027424603021451,-19.196839303762705],[-61.026952763827346,-19.195119084716577],[-61.025494524581887,-19.193544167859653],[-61.025028292194612,-19.191356241132844],[-61.024390541002234,-19.189790153154153],[-61.022583714126043,-19.189926601859483],[-61.019576045872462,-19.194415868190244],[-61.01711093421882,-19.194701067725145],[-61.014136705544622,-19.196384009223319],[-61.009023561888597,-19.198511441038299],[-61.008997297877542,-19.200694043126592],[-61.006369869607838,-19.200821406011713],[-61.006337930493032,-19.203471703774028],[-61.003859507775744,-19.204848008671398],[-61.001563983612726,-19.204667071198017],[-60.995971364724809,-19.205697437782423],[-60.99478863740508,-19.208491049200532],[-60.992002669360289,-19.208148702295322],[-60.989010905359557,-19.211234271163551],[-60.986602900774592,-19.213546604893452],[-60.98263959432402,-19.215529942303135],[-60.983122411272021,-19.216314850766171],[-60.983099583931299,-19.21818561934214],[-60.982754234626853,-19.219585080359437],[-60.981435618542363,-19.22003830659882],[-60.980111278674642,-19.220959213972549],[-60.979651334664723,-19.21830353294796],[-60.980008135680315,-19.215968696719056],[-60.980027185426273,-19.214409725387465],[-60.983501974445289,-19.212109231659873],[-60.98647296827933,-19.210738640542292],[-60.986652257944947,-19.209493260896053],[-60.985354624453095,-19.208231648365512],[-60.979738975155961,-19.211132266427782],[-60.976122957515265,-19.211560111689941],[-60.971879192512219,-19.209642171058803],[-60.968108679695298,-19.209288562122982],[-60.962544607428029,-19.207979440022854],[-60.955185204717665,-19.205870548977138],[-60.954026884942103,-19.206637201891532],[-60.94943989858141,-19.205962267340642],[-60.948264148686548,-19.20813192862078],[-60.947422372539521,-19.209837574690667],[-60.946906845506398,-19.211702786658481],[-60.948368284705722,-19.212966484615947],[-60.950171486836986,-19.213142586115385],[-60.951820247062848,-19.212537362468634],[-60.952824167158511,-19.210989422319336],[-60.954488325490722,-19.209137014519563],[-60.957090813978375,-19.211037046945343],[-60.957069625324252,-19.212751891905242],[-60.955569557807294,-19.214606153360457],[-60.95489770747281,-19.215845983940287],[-60.956332261136225,-19.219292153233674],[-60.955505925013505,-19.21975067940722],[-60.953212241481339,-19.21941322794483],[-60.951262248331261,-19.217832265995121],[-60.949291017578872,-19.217966121185519],[-60.947130504304077,-19.220124736944708],[-60.945018398026832,-19.218385979650488],[-60.94487948904866,-19.216357520332011],[-60.943238429487259,-19.216339100684252],[-60.938284149182678,-19.218778042455291],[-60.933497740736541,-19.220906902119125],[-60.928248204633228,-19.220691676484737],[-60.923680590371362,-19.218457153985543],[-60.920131072562725,-19.213583560233506],[-60.923104472621176,-19.212058157768368],[-60.926407972821224,-19.210380523145414],[-60.927752016775308,-19.207901101813604],[-60.92845331007571,-19.204323002827081],[-60.92982457630562,-19.19966106319584],[-60.931496638843313,-19.197185304304011],[-60.935778429700022,-19.195986246952828],[-60.938712541308874,-19.197578412371779],[-60.938364944029473,-19.199133655636899],[-60.936036593371874,-19.201602094528955],[-60.936851213476672,-19.202079011261816],[-60.946391747630578,-19.200315166553118],[-60.9439536424346,-19.198416847524918],[-60.943969139004331,-19.197169695994965],[-60.945801189035109,-19.195007412795356],[-60.947934295444917,-19.195031300154294],[-60.949897525572553,-19.195521011838387],[-60.950712163849929,-19.195997868154958],[-60.955835438131452,-19.193092647927536],[-60.958931892055205,-19.194842228286692],[-60.962387301785377,-19.194101077357626],[-60.964012817695888,-19.195366472867708],[-60.966144037136189,-19.195546044437762],[-60.968448919882178,-19.19494792911204],[-60.970919787267633,-19.194195702243341],[-60.972226751743193,-19.194677915109509],[-60.976903248833842,-19.194729576557503],[-60.985313503554046,-19.191391969934873],[-60.989104516887174,-19.190030308475126],[-60.992233470065244,-19.189129075949541],[-60.994690953659273,-19.189467802871171],[-60.996642988653441,-19.190892414846996],[-60.998121649052202,-19.190752643468631],[-61.000611185480935,-19.188441002652798],[-61.001950197833587,-19.186272712066792],[-61.003626730101274,-19.183328481073829],[-61.005944489583904,-19.181638563789051],[-61.00825845457652,-19.180260414240511],[-61.014730323760638,-19.174249628467223],[-61.018220574732254,-19.170545233914968],[-61.020539874535643,-19.168699199225323],[-61.024154917115695,-19.168270380658626],[-61.027928450009057,-19.168310959481772],[-61.032194193529776,-19.168356737911623],[-61.034491138258957,-19.168381346844381]]],[[[-60.749024981866221,-19.153728058118386],[-60.749197193839606,-19.152153319361148],[-60.751784391934493,-19.150464804724397],[-60.750898929269802,-19.149020464849674],[-60.750757830181819,-19.148301987150216],[-60.752136511985221,-19.146742010643241],[-60.753954020162858,-19.146190837900498],[-60.755001947596135,-19.146777048391414],[-60.75497091862696,-19.149070275099312],[-60.754346318873615,-19.150639493886384],[-60.754626611275086,-19.152219773708072],[-60.755314068783342,-19.15243536200461],[-60.752946177821535,-19.154139558347069],[-60.750967394455564,-19.159895480588563],[-60.750942562499446,-19.161726087183048],[-60.748616324369145,-19.161607286286266],[-60.748481069807369,-19.160458829662268],[-60.74805974223613,-19.15816006759739],[-60.746853165036818,-19.158145266281192],[-60.745934595054621,-19.15913743874539],[-60.74575844027602,-19.16099881997873],[-60.744238495862852,-19.161840248076235],[-60.742262155484291,-19.162962748641441],[-60.742683406704423,-19.165261516858116],[-60.741909740958206,-19.16668549244735],[-60.740407310100878,-19.166236955822207],[-60.7386149651796,-19.164924743798],[-60.737686527007206,-19.166633489642649],[-60.738711040667631,-19.168939695451197],[-60.736863879193514,-19.171640552928395],[-60.734456428270022,-19.171180802811069],[-60.733733626452064,-19.168878302601907],[-60.734221387890869,-19.166304051523916],[-60.735177271715145,-19.162588783605354],[-60.734615098402514,-19.159571526701711],[-60.73479920403966,-19.157136870698594],[-60.736605132220603,-19.157445836174425],[-60.739163218150004,-19.157907396781383],[-60.741278618006952,-19.157646731291642],[-60.744766997900179,-19.156256112875127],[-60.746878480458236,-19.156282031493159],[-60.749024981866221,-19.153728058118386]]],[[[-60.841297831251417,-19.132321540174388],[-60.84044556421545,-19.130650148076157],[-60.84061640301573,-19.128713874477096],[-60.841367994316485,-19.126922867515873],[-60.844593625727597,-19.125299318999069],[-60.847204361216022,-19.126160593764915],[-60.849371037266046,-19.127570438555956],[-60.849495173433098,-19.129233281268093],[-60.84946649602135,-19.13144813325933],[-60.848574696336691,-19.132822189790012],[-60.844484047035351,-19.13374341408305],[-60.841297831251417,-19.132321540174388]]],[[[-60.932145311672599,-19.105670274178674],[-60.93428112411862,-19.105382423989209],[-60.936553850705643,-19.107278912788015],[-60.937022636097751,-19.109155164815888],[-60.93863364098884,-19.111511964316609],[-60.941730378592084,-19.113105795243243],[-60.941066641405087,-19.11372203582447],[-60.93940727835836,-19.115262625528164],[-60.937275208584595,-19.11523873474798],[-60.93563515817204,-19.115220340451494],[-60.933794285938902,-19.118162081967924],[-60.932277487326758,-19.121419272781001],[-60.930942108508845,-19.123275246002933],[-60.929799848334319,-19.122794645258598],[-60.927650196459489,-19.124173675881238],[-60.925178322584912,-19.125081298055463],[-60.923206262673013,-19.125370868833048],[-60.921894152994064,-19.125356046725514],[-60.92008805245375,-19.125491544213411],[-60.917299824946276,-19.125459988622648],[-60.915997496464954,-19.124665662397916],[-60.914374985455424,-19.123244038977884],[-60.91275054531728,-19.121978296149912],[-60.911461981661311,-19.120092698182098],[-60.910493617182858,-19.118834386989626],[-60.909523307217228,-19.117731964166815],[-60.909384790893846,-19.115703505982534],[-60.909732397834055,-19.114148313560779],[-60.912541952953632,-19.112465151755625],[-60.91435573108231,-19.111706145995335],[-60.916034800228609,-19.108606873830912],[-60.917020731489139,-19.108462120113487],[-60.921308027673973,-19.106639611488482],[-60.923937789643048,-19.106201546204964],[-60.924921759018439,-19.106212642038386],[-60.927061468094948,-19.105613090141727],[-60.92821137292772,-19.105470120630095],[-60.930171550058169,-19.106115837582813],[-60.932145311672599,-19.105670274178674]]]]},"properties":{"FID":9,"sitios":"Salinas de Charagua","num":11}}]
}