{
  "type" : "FeatureCollection",
  "features" : [{"type":"Feature","id":11,"geometry":{"type":"Polygon","coordinates":[[[-62.331237674924566,-18.974671836722184],[-62.33742257735917,-18.935958077979876],[-62.328491342213766,-18.907232582338967],[-62.3120274057746,-18.878478946007114],[-62.301566712987587,-18.856919897030533],[-62.288815308995098,-18.843242257833559],[-62.276065961831762,-18.829563794153156],[-62.261796472928033,-18.81946516205609],[-62.247528706746898,-18.809365485831407],[-62.228029554813325,-18.790635220826687],[-62.214592466445033,-18.764755273296814],[-62.20568357882776,-18.737459026524753],[-62.190707302603428,-18.720178926817674],[-62.183282244583232,-18.698626750283609],[-62.20148242251377,-18.670011679440066],[-62.219206651018425,-18.661836803588965],[-62.236929232877202,-18.653660186070841],[-62.254650167514555,-18.645481829230722],[-62.272369454356202,-18.637301735414013],[-62.292100269651343,-18.650229584953429],[-62.305138335892224,-18.682559042055338],[-62.323696701494882,-18.708331921919697],[-62.34226061648922,-18.734103071367223],[-62.360830092487284,-18.759872482155313],[-62.379405141108172,-18.785640146037544],[-62.402913800527195,-18.811318272964066],[-62.426429567715978,-18.836993564549765],[-62.435249294593838,-18.903016704115252],[-62.431602773982632,-18.941264022846497],[-62.427954342361978,-18.97951106961354],[-62.4218412264674,-19.002925172705329],[-62.415726309779949,-19.026338969457264],[-62.394154676967517,-19.050046686496778],[-62.372576889738873,-19.073751651633923],[-62.362237640360782,-19.048982528659614],[-62.35190135925226,-19.024212850180817],[-62.341568039682123,-18.999442618700943],[-62.331237674924566,-18.974671836722184]]]},"properties":{"FID":11,"sitios":"Sitio de valor cultural La Madre","num":8}}]
}