{"type":"FeatureCollection","features":[{"type":"Feature","id":0,"geometry":{"type":"MultiPolygon","coordinates":[[[[-58.467593045082936,-19.66342637742531],[-58.472993639444837,-19.661882526557292],[-58.482226902449554,-19.653869967325079],[-58.483950806584403,-19.647839694646166],[-58.49104919416493,-19.63966030577842],[-58.492469279433635,-19.629901800927314],[-58.499999999900012,-19.62916666540923],[-58.503159925290277,-19.629977755868708],[-58.504733955607549,-19.634079996294759],[-58.500567288649393,-19.639456176761087],[-58.499838949308014,-19.650794400141422],[-58.461465317370482,-19.669480242918837],[-58.461932712124906,-19.668877156655412],[-58.462499999974966,-19.666666665334276],[-58.466666666933065,-19.666666665334276],[-58.467593045082936,-19.66342637742531]]],[[[-58.52535332549553,-19.635075547598376],[-58.539215087905916,-19.62118801511474],[-58.545833334640633,-19.620833332392351],[-58.549149238446546,-19.621684095544538],[-58.550000000699413,-19.62499999935045],[-58.555735019655401,-19.625510115499367],[-58.524658685549866,-19.639842034482285],[-58.52535332549553,-19.635075547598376]]],[[[-57.996400620891905,-19.322789509528207],[-58.007766045166818,-19.31054382253933],[-58.008333333016878,-19.304166666958054],[-58.010543823438638,-19.304733954808114],[-58.015962388953028,-19.309252928479793],[-58.017233955682457,-19.318877155556265],[-58.020266045141852,-19.322789509528207],[-58.021400620841916,-19.340451727764957],[-58.013350932199728,-19.342517429136024],[-58.011932712124917,-19.348043822464376],[-58.008900620866939,-19.351956175536998],[-58.007766045166818,-19.356377155481312],[-58.000567287850004,-19.364456175512032],[-57.999432712149883,-19.367603894404169],[-58.007766045166818,-19.376956175487067],[-58.008333333016878,-19.379166666808203],[-58.012499999974978,-19.379166666808203],[-58.012499999974978,-19.391666666783181],[-58.023257786517604,-19.391313341137732],[-58.02674221428174,-19.387853324571211],[-58.039213054638708,-19.387146673280313],[-58.043408881214873,-19.391313341137732],[-58.047546387655643,-19.392019991529367],[-58.051742214231751,-19.387853324571211],[-58.056591119484551,-19.387146673280313],[-58.060075548148006,-19.383686658512431],[-58.06492445250143,-19.382980006322214],[-58.07674221418182,-19.371186658537397],[-58.081591119434563,-19.370480006347179],[-58.089582655215338,-19.362513901595264],[-58.093408881114954,-19.3663133402884],[-58.101713054513823,-19.367019991579298],[-58.105908881089931,-19.362853325520518],[-58.129166667607592,-19.36249999987507],[-58.128523762961265,-19.364634873500563],[-58.12564290349718,-19.368698458367135],[-58.124357096003109,-19.372968206517498],[-58.121476237438344,-19.377031791384013],[-58.120061916823943,-19.390895249915786],[-58.104668171898595,-19.392465548945893],[-58.096476237488332,-19.402031791334082],[-58.095190429994318,-19.406301539484389],[-58.091023763036219,-19.412178208857199],[-58.092309571429553,-19.414634873400644],[-58.095190429994318,-19.418698459166535],[-58.096476237488332,-19.422968206417522],[-58.100642904446431,-19.428844875790332],[-58.098012289435587,-19.433871799144185],[-58.09380154040872,-19.436857095978155],[-58.091666667682546,-19.437499999725162],[-58.092443169316766,-19.445113457819787],[-58.104166667657523,-19.445833333641417],[-58.104166667657523,-19.449999999700196],[-58.108333334615679,-19.449999999700196],[-58.108333334615679,-19.454166666658296],[-58.105017429011127,-19.455017428911162],[-58.103198921592934,-19.462103949937273],[-58.098043823263765,-19.466099378783269],[-58.0914021815654,-19.467803954688691],[-58.096400622490705,-19.474253336622155],[-58.095266045891265,-19.481377156130804],[-58.092233955532606,-19.485289510102746],[-58.091666667682546,-19.495833333541441],[-58.092517429036093,-19.499149236448034],[-58.098043823263765,-19.500567286550961],[-58.106122843294543,-19.507766045666415],[-58.111649238421592,-19.509184095769342],[-58.113067288524519,-19.514710489997071],[-58.116099378883177,-19.518622843069693],[-58.117881604952061,-19.525567287400349],[-58.123043823213834,-19.524432711700229],[-58.126956177185775,-19.52140062044225],[-58.140767077538555,-19.520172119547624],[-58.142517428936173,-19.513350761828178],[-58.149149237447318,-19.511649236423068],[-58.150567288449565,-19.506122843094715],[-58.153599378808224,-19.502210490022037],[-58.155017428911151,-19.496684095794365],[-58.161649237422353,-19.494982570389254],[-58.163350761928086,-19.48835076187811],[-58.168877156155816,-19.486932711775182],[-58.176956177085856,-19.479733953559048],[-58.182482571313585,-19.478315903456121],[-58.184184095819319,-19.471684095844296],[-58.189710490047048,-19.470266045741369],[-58.197789510077769,-19.463067287525234],[-58.203315904305498,-19.461649236522987],[-58.205017428811232,-19.455017428911162],[-58.211649237322376,-19.453315903506109],[-58.213350761828167,-19.446684095894284],[-58.220437282854277,-19.444865586677452],[-58.224432712599594,-19.439710490146979],[-58.225919595912558,-19.433916218458648],[-58.235289510002872,-19.425567287600188],[-58.239710489947129,-19.424432711900067],[-58.247789509977849,-19.41723395458331],[-58.254166666458445,-19.416666666733249],[-58.253813340812997,-19.42325778451908],[-58.250353326045115,-19.426742214981175],[-58.249646673854897,-19.435757784494115],[-58.246186659087016,-19.439242214956209],[-58.245480008695381,-19.452424451427248],[-58.242019992128917,-19.455908880990023],[-58.241308933260598,-19.46078762484899],[-58.227424452176706,-19.474646674004759],[-58.225000000449597,-19.474999999650208],[-58.224432712599594,-19.502210490022037],[-58.220568847374352,-19.507196044561738],[-58.228458319995411,-19.509220717062419],[-58.229733954358494,-19.51887715695517],[-58.232766046515792,-19.522789510027792],[-58.233900621316593,-19.535543822988984],[-58.236932713473891,-19.539456176960925],[-58.238067288274692,-19.543877156905239],[-58.242233954333472,-19.549253335572928],[-58.24109937953267,-19.556377156880217],[-58.229626465588865,-19.568738471503195],[-58.232864719231372,-19.57291666687064],[-58.229179891039109,-19.577670966142136],[-58.235289510002872,-19.582766045516564],[-58.24127061764483,-19.584301078531894],[-58.245266046490826,-19.589456176861006],[-58.245833333441567,-19.591666665484183],[-58.24651760510335,-19.607567003014708],[-58.258914184841728,-19.608830769924054],[-58.266270278550451,-19.603536309053368],[-58.268814087400187,-19.60479702456297],[-58.277019246341126,-19.611869642070303],[-58.281314086475845,-19.613130357579905],[-58.285352579358005,-19.616036309028402],[-58.295833333341648,-19.616666665434195],[-58.29914923804688,-19.615815904080648],[-58.300000000299747,-19.612499999375416],[-58.299646675553618,-19.610075547648364],[-58.279519992053963,-19.589924452051775],[-58.278813341662328,-19.573286946535291],[-58.282980008620484,-19.569091119059863],[-58.283686659012062,-19.555908881689504],[-58.299986437623943,-19.539584350137602],[-58.295847575005553,-19.535416327901146],[-58.301713053214769,-19.529521686476585],[-58.308333333316625,-19.529166666508388],[-58.308333333316625,-19.537499999525323],[-58.314924452001833,-19.537853326070092],[-58.318408882463928,-19.541313340837974],[-58.322549099461355,-19.542019992128871],[-58.330908882438905,-19.533686659111993],[-58.333333333266694,-19.533333332567224],[-58.336649237971926,-19.534184095719411],[-58.337500000224793,-19.537499999525323],[-58.341666666283572,-19.537499999525323],[-58.342566257226963,-19.541005452539537],[-58.356377157579743,-19.542233953434163],[-58.361753336247432,-19.546400620392262],[-58.364710490596622,-19.545266045591461],[-58.36875000061201,-19.542135280718583],[-58.372789510627399,-19.545266045591461],[-58.379166667107938,-19.545833332542202],[-58.379519993652764,-19.560757785143608],[-58.383686658812223,-19.564953613518412],[-58.382980008420589,-19.577424452076741],[-58.379519993652764,-19.580908881639516],[-58.378813341462489,-19.589924452051775],[-58.37464667540371,-19.59412027952726],[-58.375353326694608,-19.610757785043688],[-58.383320109535362,-19.618749999812621],[-58.375353326694608,-19.626742214581498],[-58.37464667540371,-19.631591118934921],[-58.371186658837189,-19.635075547598376],[-58.37083333319174,-19.637499999325485],[-58.371400621041801,-19.639710489747245],[-58.374432712299779,-19.643622843719243],[-58.375887384595103,-19.649291652787497],[-58.386612617478249,-19.650708346712804],[-58.388467746189519,-19.657937282579496],[-58.393750000562022,-19.662031385939656],[-58.399253336172478,-19.657766044467337],[-58.418877157454801,-19.658900621066778],[-58.431122844443678,-19.670266044442371],[-58.433333333066855,-19.670833332292432],[-58.437500000024954,-19.670833332292432],[-58.437853326569723,-19.677424451876902],[-58.439842904826151,-19.679428068550465],[-58.439333160996568,-19.679670512284247],[-58.436391831118044,-19.68103404728339],[-58.433450447280279,-19.682397536417113],[-58.430509103012639,-19.683770980146562],[-58.427568326217227,-19.685214375842747],[-58.42461661906168,-19.686657811109058],[-58.421610463352181,-19.688101632184555],[-58.418593377282491,-19.689545492830177],[-58.415304885711862,-19.691061445829007],[-58.412287945332366,-19.692535208932725],[-58.409151101042426,-19.693989862342221],[-58.406057713792393,-19.695444121848709],[-58.402975152581178,-19.69689824735616],[-58.399914723685526,-19.698402149439573],[-58.396766412140153,-19.699816688589237],[-58.393618215708045,-19.701251169305976],[-58.390459432456794,-19.70272568694088],[-58.387322604354665,-19.704229974833424],[-58.384185715098624,-19.70573421326327],[-58.381048850124273,-19.707248399993603],[-58.377845875087019,-19.708673037630547],[-58.374664855198887,-19.710127458115664],[-58.371473490409187,-19.711651905211227],[-58.368282399013481,-19.713216293896778],[-58.365036339255596,-19.714721045839553],[-58.361790381121125,-19.716245745644585],[-58.358533730047554,-19.717800465718881],[-58.355277013323473,-19.719355129135863],[-58.351998470053331,-19.720909903169456],[-58.348719859333983,-19.722464618747097],[-58.34544118206486,-19.7240192785668],[-58.342118914656169,-19.725574207283785],[-58.338796577999631,-19.727129079343513],[-58.335474176591958,-19.728683892947231],[-58.332151706835759,-19.73023864809511],[-58.32882916963041,-19.731793344786979],[-58.325506564975967,-19.733347982123632],[-58.322183893771637,-19.734902561903652],[-58.318861154218837,-19.736457085026416],[-58.315538349914902,-19.738011547894587],[-58.312193956485885,-19.739596117366887],[-58.308838780185511,-19.741200708445888],[-58.305483778353675,-19.742835235257871],[-58.302128705475354,-19.744469702714582],[-58.298707053087981,-19.745954593129909],[-58.295275170912362,-19.747529493091577],[-58.291843540546893,-19.749144327448732],[-58.288444492619192,-19.750758864130205],[-58.285046092203345,-19.752463342009605],[-58.281581519671363,-19.754068230764176],[-58.278116873394936,-19.755673058364891],[-58.274652156971399,-19.757277820315096],[-58.271187367702794,-19.758882519312749],[-58.26772266476911,-19.76050714998496],[-58.264247550384084,-19.762201791979066],[-58.260728431272071,-19.763846679880317],[-58.257209233918957,-19.765491504829015],[-58.253689963720831,-19.7671362614293],[-58.251406925888887,-19.768192282247981],[-58.251125275311153,-19.768002833763717],[-58.249298931200656,-19.768919801407662],[-58.248192524065701,-19.769424020701933],[-58.245201086660757,-19.770820320701205],[-58.241947780165901,-19.772365994495033],[-58.238694512341851,-19.773925029516477],[-58.235441177967971,-19.775484009679246],[-58.234082785292287,-19.776479690485303],[-58.232615584541577,-19.77757675546286],[-58.229717068687705,-19.779696797469171],[-58.226774650629579,-19.781817093983648],[-58.223861674576597,-19.783977405832559],[-58.220919402208608,-19.786137874163501],[-58.217962541038389,-19.788311811640767],[-58.215005392984438,-19.790458863885419],[-58.2120481621929,-19.792605870264651],[-58.209076240076399,-19.794752928804598],[-58.206104641715797,-19.796953619314024],[-58.203001654202922,-19.799181990956072],[-58.199899282725653,-19.801504237430549],[-58.196795816773488,-19.803692248398477],[-58.193663746084951,-19.805974332049743],[-58.190473829203825,-19.808350689832423],[-58.187239377894912,-19.810646776827241],[-58.184093009784533,-19.813009321023287],[-58.180945654218533,-19.815251043101114],[-58.177755164469204,-19.817600356471246],[-58.174491507676919,-19.81995009791865],[-58.17124256649123,-19.822326519553201],[-58.168037662408153,-19.824742861194068],[-58.164758995930868,-19.827079107414818],[-58.16440411355893,-19.827517547596699],[-58.165491764433341,-19.828355863232446],[-58.16609526888152,-19.828942369594643],[-58.166691332339099,-19.82950878959889],[-58.167120058044191,-19.830176957100832],[-58.167416861299046,-19.830792298425763],[-58.167835292464758,-19.83133104539138],[-58.169625671787287,-19.832606513379858],[-58.170830608645645,-19.83329401270845],[-58.171780828722206,-19.833693424112198],[-58.17288892478399,-19.834091802194848],[-58.173870516810837,-19.834462018007684],[-58.174347340956956,-19.834893511826067],[-58.174794714104735,-19.835614943474809],[-58.174798547914634,-19.836136470221902],[-58.174590364753499,-19.837011360385929],[-58.176018651839286,-19.841241967342853],[-58.178115494934104,-19.844561760716658],[-58.182903560151146,-19.847471503706913],[-58.187894653615331,-19.84979147309798],[-58.192065720056917,-19.85329334591114],[-58.195211025168646,-19.858174654636571],[-58.197521631717905,-19.862277129785639],[-58.201893108480135,-19.864796928535384],[-58.2021313937488,-19.86891329371349],[-58.203832394849087,-19.874588527538492],[-58.204069279873352,-19.878508798242422],[-58.203676945234804,-19.881452853066662],[-58.205145667638419,-19.883796042053632],[-58.204756309755851,-19.887132263343233],[-58.204384733268796,-19.892821481626015],[-58.204836397082033,-19.897720756107958],[-58.202384372141012,-19.902443571913295],[-58.200332037393594,-19.90520273331947],[-58.199747067972794,-19.910109007224833],[-58.198318025456445,-19.913060037190917],[-58.198374152145391,-19.920511195535198],[-58.197165618898168,-19.925225566706501],[-58.195943742409725,-19.928175185636235],[-58.199289239306893,-19.931878407662339],[-58.200346680155121,-19.93461656450279],[-58.20203213917182,-19.938134837352834],[-58.204542632636333,-19.941059217708698],[-58.207469422275949,-19.944176821902772],[-58.211239231904983,-19.949053449656958],[-58.213123476167425,-19.951393686169638],[-58.21314145631311,-19.953746661579146],[-58.210051839920425,-19.956513023856928],[-58.204886858941336,-19.959097344466841],[-58.200760089506502,-19.961870593752849],[-58.197239053039823,-19.962482653451673],[-58.194323900627467,-19.960933554140183],[-58.192047138264797,-19.96153713503071],[-58.190408682314796,-19.964293425800918],[-58.187736166990476,-19.967448809614837],[-58.185482730343665,-19.971189637691566],[-58.18285827568883,-19.98081569219039],[-58.181868027687301,-19.987097257032758],[-58.179821614975538,-19.990836641697626],[-58.177601214924096,-19.999087290146292],[-58.176486824507322,-20.004774716979568],[-58.177483814726202,-20.010015916401358],[-58.177417113808701,-20.013587809529724],[-58.176169442066055,-20.016507042166211],[-58.174296189317658,-20.018576677171893],[-58.173670003967459,-20.021554059072514],[-58.174648755036003,-20.025573083431027],[-58.175089158437856,-20.028361022243359],[-58.173571914012598,-20.031002363468247],[-58.171153703580501,-20.033047333667469],[-58.16785831061253,-20.035901146920367],[-58.165006463277621,-20.038023919268426],[-58.162974127653854,-20.039704226968468],[-58.161715295324598,-20.040485691961067],[-58.159217057820911,-20.041377209690438],[-58.156785940318855,-20.043864095051902],[-58.158527516131926,-20.046485353516232],[-58.161733333026859,-20.049013801945364],[-58.163857789805093,-20.049571757530543],[-58.1661865006065,-20.050137805215513],[-58.16684522792491,-20.050793102519606],[-58.166397585879849,-20.051769375955871],[-58.164924252652099,-20.053773650033861],[-58.163350023584655,-20.056939515446231],[-58.163369939970721,-20.059642305547925],[-58.164561715250898,-20.063057729230763],[-58.164873416674823,-20.065052776264565],[-58.163416467296088,-20.067282015752369],[-58.162512851886561,-20.068861561611754],[-58.161117401746651,-20.07087800171837],[-58.160406529038028,-20.07301462092795],[-58.161907068556332,-20.074935580012948],[-58.16209930583824,-20.076662541842779],[-58.161444238760566,-20.077454632325384],[-58.159657164446514,-20.077094517697788],[-58.158072547310155,-20.075111586330593],[-58.152822619068559,-20.075426290590769],[-58.154001504365908,-20.080038625582063],[-58.154577280017406,-20.082786013063981],[-58.15449038931996,-20.085295981324407],[-58.153758262034103,-20.086760262875771],[-58.152881681144606,-20.088705762660766],[-58.151467230128503,-20.090527508537662],[-58.149895185514367,-20.092302346675922],[-58.144600056447416,-20.097837177443751],[-58.143151719875902,-20.10087972961577],[-58.142480500074953,-20.104507883432007],[-58.141143623679227,-20.108374646272864],[-58.140253839842785,-20.111089999903527],[-58.139248962569525,-20.113279829300609],[-58.138462344461573,-20.115064888233974],[-58.137422452983799,-20.117112685002382],[-58.13694274291322,-20.118691512303428],[-58.136554099092336,-20.120950221675344],[-58.137613346678563,-20.124032651585537],[-58.140717129192126,-20.12673097745261],[-58.141962709111681,-20.128325345038604],[-58.142408198179737,-20.130583931203432],[-58.143001872138655,-20.133618903889271],[-58.143383345664802,-20.136376960927976],[-58.145441610541866,-20.139742208735925],[-58.151711440130839,-20.142565151860197],[-58.156761119030364,-20.144001593998325],[-58.15935713262553,-20.145367056244595],[-58.162446389289414,-20.14846928023303],[-58.164299257104972,-20.149829292587754],[-58.167215901492625,-20.152722636440501],[-58.168789880548502,-20.157249572709588],[-58.169495293472949,-20.161268652826038],[-58.169829658711762,-20.16586296180617],[-58.16614717775002,-20.163903917331879],[-58.162284889935677,-20.160213973795805],[-58.155630820505905,-20.155151389624905],[-58.151869289136357,-20.152741082434943],[-58.148345400020162,-20.152319022504855],[-58.143918722870751,-20.151814465964776],[-58.140406710201489,-20.151837243094235],[-58.136759319886664,-20.151965311949539],[-58.134332247535156,-20.151778866301584],[-58.123941816061915,-20.149381280921318],[-58.117655703347964,-20.146345537516481],[-58.114561642505748,-20.143547598243003],[-58.111964218773664,-20.139672344902749],[-58.109897922051402,-20.135434066728749],[-58.108276318497246,-20.131172102210712],[-58.107183234818365,-20.127590026058783],[-58.104506505270933,-20.124290051044966],[-58.102726628231267,-20.122680033456732],[-58.100927655886551,-20.118622532503821],[-58.09750761148706,-20.113508891122365],[-58.093745455987971,-20.108680833953258],[-58.088966661881898,-20.107253135024109],[-58.082467506070486,-20.106124194475967],[-58.076338373617034,-20.105102724710946],[-58.071617365449015,-20.10459085128673],[-58.066961789255117,-20.105166706078592],[-58.063629533975757,-20.106280315883851],[-58.062018843694659,-20.107030629260066],[-58.061203359147669,-20.10731654082565],[-58.055320577082909,-20.108285575618766],[-58.050540383631756,-20.106890130874774],[-58.045853484051008,-20.102026299573993],[-58.043471419170601,-20.097522084676427],[-58.041296006805226,-20.092368633905267],[-58.040356291709429,-20.08640899667779],[-58.039019146416422,-20.0769595096736],[-58.036512136026204,-20.070411562943207],[-58.033176816756622,-20.064813735565394],[-58.030164020453128,-20.061866624844811],[-58.025190761444435,-20.058572916307014],[-58.021573974159537,-20.058372818051055],[-58.018210634713,-20.05775484530983],[-58.013534830967615,-20.057781709857977],[-58.00979473943562,-20.057803111924045],[-58.006759918735213,-20.057408464229184],[-58.005582707975577,-20.057199496859255],[-58.000955577338004,-20.056901942670493],[-57.998862405275759,-20.056600617624383],[-57.997134024315756,-20.056599638262639],[-57.995197808232206,-20.056975489227398],[-57.992400031736054,-20.057774769789773],[-57.987594954943177,-20.058799905191449],[-57.985611706115321,-20.059132978104401],[-57.983013218485212,-20.058192150547256],[-57.98195779481631,-20.057489596567564],[-57.978231363086877,-20.05543864947407],[-57.975769203685786,-20.053863668573399],[-57.973326547881811,-20.051655253786862],[-57.971741614184111,-20.048390185058963],[-57.970704247103299,-20.046807285627665],[-57.970015040861426,-20.044868266357355],[-57.969611697621701,-20.04384003908649],[-57.969059482409136,-20.041385040087505],[-57.968384199471188,-20.037900274178241],[-57.967382012969495,-20.034417288027385],[-57.966930178285054,-20.033088777125329],[-57.96549053995642,-20.030617139769163],[-57.96290265443389,-20.027486239997927],[-57.961986713815747,-20.02663252527077],[-57.959029126892631,-20.024126131815478],[-57.956895088737326,-20.022634945246466],[-57.954272722308247,-20.021479116767807],[-57.951580790620937,-20.020398762093123],[-57.949896517810032,-20.019903312088161],[-57.94821206153739,-20.019375651964708],[-57.946412143105874,-20.019063269754042],[-57.944614865083906,-20.019190934813764],[-57.939827942005877,-20.019205667507492],[-57.9376564578792,-20.019238648344924],[-57.934510151821996,-20.020274991997212],[-57.933066210237371,-20.020926638953199],[-57.930415892879125,-20.022926342676556],[-57.926274156027432,-20.025470516650955],[-57.924901936275319,-20.02642227546761],[-57.921532004798166,-20.029198445751604],[-57.920276106956749,-20.030085159302587],[-57.918209664544349,-20.032146058293904],[-57.917187877318668,-20.033138870262633],[-57.91570542766334,-20.035239653287306],[-57.91461342137228,-20.036211353670978],[-57.911474287408396,-20.038578263176248],[-57.910754156179337,-20.039247473891749],[-57.909708549509901,-20.040175960951785],[-57.907826569740337,-20.04187084756154],[-57.907106540134691,-20.042561503510512],[-57.90615283428582,-20.043231893237248],[-57.905524356563774,-20.043600059495077],[-57.904802094840761,-20.043904308237188],[-57.903704252848968,-20.043877727874815],[-57.902884638615149,-20.043495492622867],[-57.902226797128947,-20.042811877466136],[-57.901778527357123,-20.042019854432681],[-57.901607645376487,-20.040721933070699],[-57.901246027981756,-20.039765776569311],[-57.901092576661028,-20.039476748852849],[-57.900901911394044,-20.038804163881025],[-57.90068939260135,-20.038397350157538],[-57.900570208148565,-20.037971933058202],[-57.899139764488496,-20.035786403319833],[-57.898223848152043,-20.034705644849566],[-57.897286000048837,-20.033171254849492],[-57.896428080991086,-20.032072402019708],[-57.895563665230952,-20.029825879360772],[-57.894637580260053,-20.026939098760351],[-57.893443591748337,-20.024587469635946],[-57.89217231549992,-20.02225401581012],[-57.891411470163177,-20.021190224848965],[-57.890104538493631,-20.019390752481172],[-57.888846503863022,-20.01767553309935],[-57.887792509216865,-20.016101631385141],[-57.886496559168847,-20.01452004046746],[-57.885007614609663,-20.013028370962502],[-57.883518687137666,-20.011536686169109],[-57.882126755145578,-20.010080095619855],[-57.880811464277599,-20.008480757480925],[-57.879603142371082,-20.006969849678796],[-57.879125980079891,-20.006429513611124],[-57.878550851940247,-20.005672749397831],[-57.877985235030508,-20.004884165371891],[-57.87709886771853,-20.003839306938403],[-57.877598686630051,-20.003760010116309],[-57.875946598756514,-20.000913899556792],[-57.872051607995274,-19.995948151685809],[-57.867859922797152,-19.99108426552641],[-57.865157969964287,-19.986594922717472],[-57.863601364911005,-19.981697937909473],[-57.862069712447237,-19.977464139258586],[-57.861255555299579,-19.976221847260376],[-57.859966343871633,-19.973574801635721],[-57.859535967011254,-19.972571843515709],[-57.85910657670712,-19.971749792119169],[-57.862832167570446,-19.969199025214778],[-57.868565858227726,-19.964789100636438],[-57.874299226927747,-19.960379001589615],[-57.880032273670452,-19.955968725376351],[-57.885765000254537,-19.951558272895909],[-57.891497406679946,-19.947147646846361],[-57.8972294893494,-19.942736844529691],[-57.902961253658873,-19.938325870442497],[-57.908692696910407,-19.93391471918892],[-57.914423818204625,-19.929503393466803],[-57.920154617541527,-19.925091893276203],[-57.925885098518449,-19.920680219516498],[-57.931572430023607,-19.916208290280338],[-57.937154432930697,-19.911937753424525],[-57.94273613186698,-19.907667048395524],[-57.94831752863098,-19.903396182387837],[-57.953898624122189,-19.899125150005602],[-57.959479417441116,-19.894853953047459],[-57.965059909487195,-19.890582589714711],[-57.97064009576377,-19.886311061805998],[-57.976219983465398,-19.882039372019335],[-57.981693030808685,-19.877707799075608],[-57.986469707011338,-19.874123640993218],[-57.988054811580241,-19.872928937520385],[-57.992154671500828,-19.869814406309786],[-57.994436708387354,-19.868033962697154],[-57.99650737941198,-19.866415379965758],[-57.998366831164276,-19.864978742674793],[-58.001174568551448,-19.862793645510294],[-58.033549015574579,-19.836924699015583],[-58.034563029959827,-19.836147381696264],[-58.036970283052085,-19.834146366761388],[-58.038110276268185,-19.83315790571271],[-58.03956767980452,-19.832012239573146],[-58.041341749022479,-19.83059849182689],[-58.042329903402276,-19.829774063522166],[-58.046194575319362,-19.826675644565285],[-58.050059402819159,-19.823623932798228],[-58.053898299267075,-19.820525510244067],[-58.05778784643195,-19.817403324004147],[-58.061778657259197,-19.814210287374806],[-58.066301233614979,-19.810569579022797],[-58.070672034986387,-19.807116790307589],[-58.075092801791357,-19.803546651756506],[-58.079615240550879,-19.799975798244475],[-58.084567746804055,-19.796004593537134],[-58.089595932805992,-19.791962627473254],[-58.09500362821484,-19.787590748714024],[-58.100386042781622,-19.783289044054072],[-58.105768165068696,-19.778987186509426],[-58.111149996874815,-19.774685180576569],[-58.116531211746008,-19.770336248918682],[-58.121912622669356,-19.766057334878042],[-58.127293744011013,-19.761778269751289],[-58.13138212138773,-19.758372652276023],[-58.129949797245331,-19.755656777937929],[-58.128942970241837,-19.753698387270731],[-58.126990998036092,-19.749488810060484],[-58.125014820577462,-19.745443089327068],[-58.123038746540885,-19.741397338915988],[-58.121140622141979,-19.737561582900696],[-58.119267405366429,-19.733632082454619],[-58.117394612171552,-19.729749340459648],[-58.11552191250621,-19.725866572384348],[-58.113649306370348,-19.721983778228719],[-58.111776795562605,-19.71810095889208],[-58.109802712625026,-19.7142421370649],[-58.107827761841691,-19.710242942757532],[-58.105852430645143,-19.706173553666531],[-58.103877366547181,-19.702127528062931],[-58.101876312042123,-19.697988071891984],[-58.099849751864497,-19.693825358353536],[-58.097823303202858,-19.689662615137536],[-58.095822732533065,-19.685546462199397],[-58.093821949623248,-19.681383504045414],[-58.091821273732762,-19.677220516213822],[-58.089820708458888,-19.673057503201164],[-58.088543223291083,-19.670433836352402],[-58.088986085439444,-19.670416162875597],[-58.008836991134217,-19.50375595247516],[-58.008576048345901,-19.503754327400259],[-58.001431508457301,-19.489059558052134],[-58.000298228680265,-19.486745507998762],[-57.999458922890938,-19.484975623326307],[-57.998619635088062,-19.483205733257932],[-57.997744101009403,-19.481427705224348],[-57.996868586715891,-19.479649672694222],[-57.995993092207414,-19.477871633868745],[-57.995117619282667,-19.476093590546725],[-57.994269224045411,-19.474298731701083],[-57.993420800029867,-19.472495535240739],[-57.992472706849924,-19.470676215734727],[-57.991642422159998,-19.468872910456412],[-57.990812156355901,-19.467069599782178],[-57.989981910336837,-19.465266282812649],[-57.989151682304282,-19.463462963145162],[-57.988285367175934,-19.461676495873519],[-57.987419070034036,-19.459890025903917],[-57.98655279357655,-19.458103547840437],[-57.985686536004778,-19.456317065280302],[-57.984820297318834,-19.454530577324249],[-57.983954080216563,-19.452744084871597],[-57.983087880201481,-19.45095758522433],[-57.982221703568712,-19.449171081979785],[-57.981355544023074,-19.447384572440001],[-57.980498464032848,-19.445598009840239],[-57.979632395318731,-19.443819819928706],[-57.978766344591065,-19.442041629117853],[-57.97790031454781,-19.440263426615786],[-57.977034303390326,-19.438485223214457],[-57.976177370888934,-19.436706965853773],[-57.975320456373936,-19.434928701298475],[-57.974463562543349,-19.433150432246578],[-57.973615587289487,-19.431347116176426],[-57.972740527153576,-19.429552270820579],[-57.971829334056508,-19.427765946541172],[-57.971053772213793,-19.425953897154557],[-57.970214922380706,-19.424150513635254],[-57.9692677366167,-19.422389356883286],[-57.968410831094957,-19.420586058799529],[-57.967553944458928,-19.418782755319853],[-57.966697079406629,-19.416979444645619],[-57.965840232340781,-19.41517613037405],[-57.964983405959401,-19.413372811605939],[-57.964126499538281,-19.411552823903662],[-57.963251657937633,-19.40975792099124],[-57.962376837021395,-19.407963013582162],[-57.961502034990872,-19.406168098978526],[-57.960627250946857,-19.404373179878291],[-57.959752489385835,-19.402578255382139],[-57.958877746710584,-19.400783324590691],[-57.958003023820424,-19.398988390202021],[-57.957128321614732,-19.397193449518056],[-57.956253638294754,-19.395398501639477],[-57.955415268699653,-19.393620023944891],[-57.954576915292364,-19.391841539955067],[-57.953738583468805,-19.390063049669948],[-57.952900267833058,-19.38828455578755],[-57.952061972881722,-19.386506056509234],[-57.951196696470333,-19.384752686087552],[-57.950322438529668,-19.383007691052057],[-57.949448201273412,-19.381262689721325],[-57.948774054179239,-19.37969160018713],[-57.947935948984821,-19.377929738366674],[-57.947079771014558,-19.37616796647842],[-57.946205656066127,-19.374431274883364],[-57.945431036712932,-19.372685733060109],[-57.944593243583256,-19.370965507152391],[-57.943755471138047,-19.369245274949435],[-57.942917713981274,-19.36752504004852],[-57.942115927008388,-19.365762958793482],[-57.941242114232125,-19.364059562798559],[-57.94063568968528,-19.362764484193519],[-57.943877157504801,-19.361932712025009],[-57.949295722119814,-19.357413736554633],[-57.950567287949923,-19.347789509478218],[-57.953599379207958,-19.343877155506277],[-57.954733954908079,-19.335289509503241],[-57.957766045266737,-19.331377155531243],[-57.958900620966858,-19.326956175586986],[-57.963481479686493,-19.321463352151909],[-57.982118394847987,-19.320266045141807],[-57.984223768012441,-19.328469848804446],[-57.994618394823021,-19.329733954758183],[-57.996400620891905,-19.322789509528207]]],[[[-57.880107310404014,-19.237399336310261],[-57.877846075735761,-19.232944015753674],[-57.875584957080036,-19.228488662821462],[-57.874791920510688,-19.226922069897569],[-57.876956177685429,-19.228599377459261],[-57.881377157629686,-19.229733954958022],[-57.885289509802988,-19.23276604441736],[-57.889710490646564,-19.233900621016801],[-57.893622844618562,-19.236932711375459],[-57.896579997169113,-19.2380672879749],[-57.901956177635441,-19.233900621016801],[-57.917413330161025,-19.23276604441736],[-57.922789510627354,-19.236932711375459],[-57.931377157529766,-19.2380672879749],[-57.935289510602388,-19.241099378333615],[-57.941005452239779,-19.24256625712701],[-57.941666667082984,-19.250000000099874],[-57.949710761042752,-19.250820583802863],[-57.953523932383519,-19.256198458591939],[-57.954911634864004,-19.269803195660927],[-57.96153581442627,-19.271797688712297],[-57.96314273385002,-19.277134874574756],[-57.966843329855749,-19.282354058592887],[-57.954386053973167,-19.284252250440943],[-57.950642733875043,-19.289531791558886],[-57.948738437428915,-19.2958567298042],[-57.943801711579681,-19.299357095353628],[-57.932690599391606,-19.301050482793528],[-57.93411424417701,-19.311480712864579],[-57.942309400858107,-19.313947889583403],[-57.940854560389596,-19.32887132415226],[-57.93365512408468,-19.333976236713909],[-57.927031623510572,-19.332690430119214],[-57.925855080947201,-19.331856226183845],[-57.924854171482764,-19.329796160864078],[-57.922743759416903,-19.325452273503572],[-57.920621591413294,-19.321086114432603],[-57.918499541220797,-19.316719922086691],[-57.916377607040886,-19.312353698264531],[-57.914255790672144,-19.307987445664025],[-57.912134089416668,-19.303621157989994],[-57.910024250218953,-19.299254782182402],[-57.907914536926285,-19.294888375797882],[-57.905804938746883,-19.290521938836378],[-57.90369545658001,-19.286155468599929],[-57.901621268306826,-19.281777645322052],[-57.899547030570943,-19.277366339385026],[-57.897472888163236,-19.272955001971695],[-57.895328269484025,-19.268521679731691],[-57.893172001886342,-19.264088380874057],[-57.891015853898523,-19.259655052338758],[-57.888848092965077,-19.255221747185828],[-57.886680335628967,-19.25076610916858],[-57.884536187295168,-19.246310324561762],[-57.882392161269195,-19.241854506680113],[-57.880107310404014,-19.237399336310261]]],[[[-57.709006611066229,-18.717042295165754],[-57.708134404479154,-18.714070946816719],[-57.707160278623917,-18.711148607921871],[-57.706271314969172,-18.708225940774525],[-57.7034519835222,-18.699604374142496],[-57.70164081906853,-18.693888794032546],[-57.699898021076763,-18.688205361088478],[-57.699060710883032,-18.685363508818853],[-57.698206475448444,-18.682537927083615],[-57.697335317470902,-18.679728606889626],[-57.696881124764047,-18.678309714121951],[-57.699432711850136,-18.68112284384415],[-57.700567288449577,-18.689710489847187],[-57.703599378808235,-18.693622843819128],[-57.704733955407676,-18.698043822864065],[-57.707766046665654,-18.701956176836063],[-57.708900621466455,-18.710543822839099],[-57.71193271182517,-18.714456176811041],[-57.713350931899924,-18.719982401966206],[-57.71666666753265,-18.720833332392317],[-57.719091118360382,-18.720480007646188],[-57.722575547923157,-18.717019991978987],[-57.725000000549528,-18.716666665434218],[-57.725000000549528,-18.720833332392317],[-57.727160136131317,-18.721450975082405],[-57.735418531340088,-18.728617350510262],[-57.747839864018488,-18.717284308124249],[-57.756326802140165,-18.716049024542826],[-57.761638556973764,-18.712168883387221],[-57.763294135116212,-18.700794134941304],[-57.772993469073299,-18.699382358509013],[-57.782226901150523,-18.691369967449987],[-57.783950975257255,-18.685339863843581],[-57.787613931937358,-18.680325486931622],[-57.791666666483422,-18.679166665509172],[-57.792284308274191,-18.68549346894838],[-57.800617642190389,-18.695096672573356],[-57.799382358608909,-18.706326802839612],[-57.79645097523229,-18.710339863793649],[-57.79521569255013,-18.714660135856548],[-57.788117642215354,-18.722839863768627],[-57.78657362227483,-18.728240289058022],[-57.779280598920479,-18.730325486831703],[-57.775617642240377,-18.735339863743661],[-57.774382358658897,-18.743826802764715],[-57.770215692600118,-18.74953087694837],[-57.771450975282221,-18.756326802739693],[-57.775617642240377,-18.762030876923404],[-57.774382358658897,-18.764660135756628],[-57.771450975282221,-18.768673197609928],[-57.769674512968379,-18.774886067737782],[-57.76466013605642,-18.778549023518565],[-57.754901801177141,-18.779969278759154],[-57.754166667457696,-18.787500000124851],[-57.756377156980193,-18.788067287974911],[-57.761795722494583,-18.792586092574084],[-57.763067287425315,-18.802210489622325],[-57.76609937958267,-18.806122843594324],[-57.767233954383471,-18.81054382353858],[-57.775582886141251,-18.819913567656954],[-57.78273484993332,-18.821749029993669],[-57.783333333466544,-18.841666666983031],[-57.785543822988984,-18.84109937913297],[-57.795130412538469,-18.832404072589839],[-57.796541849926371,-18.821720716637742],[-57.803315735133026,-18.819982401766367],[-57.805066257401791,-18.813161214018749],[-57.812500000374655,-18.81250000007492],[-57.824090745291642,-18.811876424557283],[-57.825000000349689,-18.808333333116764],[-57.825000000349689,-18.804166667057984],[-57.829166666408469,-18.804166667057984],[-57.829166666408469,-18.800000000099885],[-57.833333333366625,-18.800000000099885],[-57.833994547310454,-18.80743374307275],[-57.837500000324724,-18.808333333116764],[-57.848257785068711,-18.808686658762269],[-57.851742215530805,-18.812146673530094],[-57.854166666358537,-18.81250000007492],[-57.853315735033107,-18.815815734808268],[-57.846684266465672,-18.81751759745913],[-57.845266045491542,-18.823043823513615],[-57.842233954233564,-18.826956176586236],[-57.841099379432762,-18.831377156530493],[-57.833900621216628,-18.839456176561271],[-57.833333333366625,-18.841666666983031],[-57.832482401141874,-18.844982570788943],[-57.829166666408469,-18.845833333041867],[-57.828315735083095,-18.842517597409142],[-57.825000000349689,-18.841666666983031],[-57.820190600515787,-18.843114556591445],[-57.821598986504,-18.857561238959988],[-57.829166666408469,-18.858333333016844],[-57.828599379457728,-18.860543822539341],[-57.82556728819975,-18.864456176511283],[-57.824432712499629,-18.902210489422487],[-57.821400621241651,-18.906122842495165],[-57.820200601876252,-18.924021063521195],[-57.814710489897152,-18.928599378958154],[-57.809184265641306,-18.930017429061081],[-57.808333333416556,-18.933333333766313],[-57.808333333416556,-18.937499999825093],[-57.80909000050309,-18.94071248249503],[-57.81858503547096,-18.949470349476996],[-57.824113633937031,-18.950772433800751],[-57.825482008188089,-18.95516594755037],[-57.820303853040343,-18.961559380860706],[-57.821362814642157,-18.977248128598205],[-57.828637186956598,-18.985251871776427],[-57.829696147659035,-18.98974812857324],[-57.833862814617135,-18.994892713827653],[-57.832803853015378,-19.002248128548274],[-57.828637186956598,-19.007392713802631],[-57.829696147659035,-19.010581461565152],[-57.83293745360055,-19.014583333154235],[-57.829696147659035,-19.018585204743374],[-57.829166666408469,-19.029166666608319],[-57.837500000324724,-19.029166666608319],[-57.838350932549474,-19.032482570414231],[-57.841666666383503,-19.033333333566418],[-57.848043822864099,-19.032766045716414],[-57.852083334678127,-19.029635280843479],[-57.856122844693459,-19.032766045716414],[-57.861649068049985,-19.034184095819342],[-57.863350932499486,-19.040815903431167],[-57.868877157654651,-19.042233953534094],[-57.872789509827953,-19.045266045691392],[-57.879431321498259,-19.04697062159687],[-57.87556728809983,-19.051956177035891],[-57.87443271239971,-19.061285060457124],[-57.881377157629686,-19.063067286526007],[-57.889456177660406,-19.070266045641461],[-57.89387715760472,-19.071400620442262],[-57.897789510677342,-19.07443271170024],[-57.905103896527578,-19.075567287400361],[-57.914456177610475,-19.067233953484106],[-57.917603896502555,-19.066099378683361],[-57.92695617758551,-19.07443271170024],[-57.9480438244629,-19.075567287400361],[-57.951956177535521,-19.078599378658339],[-57.954166667058018,-19.079166666508399],[-57.957482570863931,-19.078315903356213],[-57.958333333116798,-19.0749999995503],[-57.960757786642489,-19.075353326095069],[-57.964242214406624,-19.078813340862951],[-57.970833333091832,-19.079166666508399],[-57.971186659636601,-19.081591119134771],[-57.978813341362581,-19.089242214756382],[-57.97916666700803,-19.091666665584114],[-57.97859937915797,-19.093877156905194],[-57.975468614285091,-19.097916666920582],[-57.97859937915797,-19.101956176935971],[-57.980134413072676,-19.107937282779346],[-57.985289511401788,-19.111932712524606],[-57.993877157404825,-19.113067287325407],[-57.997789510477503,-19.116099378583385],[-58.003583781266457,-19.117586262795726],[-58.011932712124917,-19.126956176885983],[-58.013067287825038,-19.131377156830297],[-58.016099379083016,-19.135289509902918],[-58.017233955682457,-19.139710489847175],[-58.03276604511683,-19.156122843794151],[-58.033971151047751,-19.174094306507016],[-58.040815905529598,-19.175850762502648],[-58.042517429136012,-19.182482571013793],[-58.049149238546477,-19.184184095519527],[-58.050850762152891,-19.190815904030728],[-58.054166666858123,-19.191666665384275],[-58.054166666858123,-19.195833332342374],[-58.049999999900024,-19.195833332342374],[-58.043622843419428,-19.196400621091755],[-58.039710490346806,-19.199432711450413],[-58.014456177410636,-19.200567288049854],[-58.010407850441879,-19.203704833811003],[-58.00221049042176,-19.196400621091755],[-57.993622844418667,-19.195266044492314],[-57.988246663053019,-19.191099377534215],[-57.972789511426754,-19.192233954133656],[-57.968877157454813,-19.195266044492314],[-57.960289510552457,-19.196400621091755],[-57.954913330086072,-19.200567288049854],[-57.951956177535521,-19.199432711450413],[-57.9480438244629,-19.196400621091755],[-57.943622844518643,-19.195266044492314],[-57.938246663152938,-19.191099377534215],[-57.92589636882235,-19.192340426669318],[-57.92410040920646,-19.199338785356588],[-57.916666666233596,-19.199999999300474],[-57.914242215405864,-19.199646674554344],[-57.910757784943769,-19.196186658887143],[-57.889242215455852,-19.195480007596245],[-57.885757784993757,-19.192019992828364],[-57.883333333266648,-19.191666665384275],[-57.881122844643528,-19.192233954133656],[-57.877210490671587,-19.195266044492314],[-57.867554049879459,-19.196541680653979],[-57.866099378483511,-19.20221048972229],[-57.863784644945383,-19.204808268686577],[-57.862219820987889,-19.20160989637958],[-57.860076676297524,-19.197086837087795],[-57.858027567418276,-19.192563305652016],[-57.856002072937258,-19.188039635720543],[-57.85397670526072,-19.183515937010839],[-57.851916149810449,-19.178981220706703],[-57.849820514505097,-19.174446639300925],[-57.847862191287049,-19.170094773155199],[-57.847705086020881,-19.170095633806397],[-57.845708968793815,-19.165593597966108],[-57.843003942977532,-19.159609463206095],[-57.840245296882927,-19.153664037964916],[-57.837406463637365,-19.147847336285508],[-57.834702242714286,-19.141901559409405],[-57.831971276852926,-19.135968694099915],[-57.829173181097417,-19.13007460485909],[-57.826363490382732,-19.124267954902166],[-57.826321798712002,-19.124180648717925],[-57.823470034114735,-19.118273851157255],[-57.820618292000518,-19.112328474479455],[-57.817766761227006,-19.106383042943037],[-57.814915441794142,-19.100437555648625],[-57.812050831280771,-19.094492071951493],[-57.809186436604705,-19.088546534295062],[-57.806349377721574,-19.082626500512561],[-57.803499022361962,-19.07670647302524],[-57.800635379519122,-19.070786449135255],[-57.797798764001698,-19.064827740008127],[-57.794962358026339,-19.058868973324422],[-57.7920857208793,-19.052923159576096],[-57.789249794242551,-19.046977115601351],[-57.786387079500059,-19.041031133679837],[-57.783673771827068,-19.035238558112894],[-57.773712525612552,-19.035254860123644],[-57.763751256914929,-19.035270625239093],[-57.753789964834993,-19.0352858534593],[-57.751544324410986,-19.035285984760321],[-57.751222754726314,-19.035364829223454],[-57.73946910661391,-19.035224723841907],[-57.728592573588344,-19.035044424160787],[-57.710968756402963,-19.034793783106579],[-57.710627248748494,-19.033422069672724],[-57.71024987882879,-19.031507680135292],[-57.709538484513416,-19.029977730987468],[-57.708829405952258,-19.028990601834778],[-57.708455867144494,-19.027970247229064],[-57.708149849435983,-19.027045427604378],[-57.707708774240473,-19.025929537118373],[-57.706192152146059,-19.024466519114526],[-57.705486215816165,-19.024213764653496],[-57.705449287854321,-19.023415641518568],[-57.704472553065841,-19.022621089591553],[-57.704300566717734,-19.021631884803583],[-57.704465424139983,-19.02092878313681],[-57.704193818090175,-19.020195407591928],[-57.703116834074592,-19.0194970318625],[-57.702341517746788,-19.018701702921192],[-57.702303658087317,-19.017680059587008],[-57.701863451636939,-19.016755734589424],[-57.700719239701129,-19.016025664952451],[-57.699506566874504,-19.014976537437235],[-57.698562678924475,-19.013990243754677],[-57.698288978353617,-19.012745974147322],[-57.697411303888543,-19.011535912052636],[-57.696669608715411,-19.010740431125953],[-57.695326077336574,-19.010490044579853],[-57.694319099246968,-19.0104618922025],[-57.693380549672611,-19.010752791408152],[-57.692375543796288,-19.011203590972912],[-57.691202062525122,-19.01149535622568],[-57.691165463715151,-19.010761081358794],[-57.6921691493867,-19.009990987394133],[-57.693475155653857,-19.009283618444215],[-57.694513440043181,-19.008768823122637],[-57.695485921937689,-19.008573584803059],[-57.696391419628299,-19.008410520628956],[-57.697230050026747,-19.008311568224258],[-57.698168179617767,-19.007924858845115],[-57.698904923123678,-19.007538908493814],[-57.699604494951416,-19.006290958860632],[-57.699735545958617,-19.005524124039027],[-57.699463357148147,-19.004007536118877],[-57.699149139421195,-19.003814428293197],[-57.698601628562244,-19.003162550211471],[-57.69787154093882,-19.002214815861009],[-57.697093291921817,-19.000553090852407],[-57.696601634357876,-18.998777690637894],[-57.696657947206461,-18.997769386947596],[-57.696807061996253,-18.997250379201603],[-57.69716807594591,-18.996759375444753],[-57.697952519493128,-18.996237971904861],[-57.698511077624119,-18.995962240664824],[-57.699990036111217,-18.995121377249689],[-57.700834366412835,-18.994455722453608],[-57.701497054345566,-18.993761950353701],[-57.701918187074625,-18.993184296018399],[-57.702157673837519,-18.992578538768498],[-57.702290011774608,-18.99167075410196],[-57.702344840741773,-18.990316822962939],[-57.702311333800992,-18.989539286209038],[-57.702489222399663,-18.988674533203096],[-57.702849955760826,-18.988125917976674],[-57.703181531302562,-18.987836630356185],[-57.70413199959205,-18.987242565192162],[-57.705158034315787,-18.986633810501928],[-57.70630361142247,-18.985678954420166],[-57.70750736567237,-18.984176623452356],[-57.70833496768455,-18.983150973638487],[-57.709237402284259,-18.981937811580678],[-57.709717517049739,-18.981014293274995],[-57.710227271671215,-18.979946646020835],[-57.710708108592314,-18.979195928848981],[-57.711371674263319,-18.978732545970161],[-57.7124735587077,-18.978195460951724],[-57.713591112040149,-18.977787926871258],[-57.714679149623009,-18.977553312635223],[-57.715858430622006,-18.977433546321038],[-57.716100673807034,-18.977490211703866],[-57.716947940395073,-18.977544544245291],[-57.718158945878599,-18.977770270481528],[-57.719672953643851,-18.978110025357353],[-57.719672212602461,-18.97793721343163],[-57.719697199366237,-18.974948850808801],[-57.719723672709279,-18.972306111138096],[-57.719765268152571,-18.969663313910758],[-57.719746427355688,-18.967035154049086],[-57.719727591055459,-18.964406993288037],[-57.719708756553814,-18.961778832527045],[-57.719659673355181,-18.959150786879263],[-57.719610590156549,-18.95652274392944],[-57.719561514152531,-18.953894697382339],[-57.71949707233199,-18.951209106814758],[-57.719524729182865,-18.94883998048067],[-57.719535961715223,-18.946168493081473],[-57.719532015490074,-18.943482665992178],[-57.719482579757198,-18.940768206287657],[-57.71943314852092,-18.93805374478444],[-57.719383720881979,-18.935339281482584],[-57.719334295041619,-18.932624818180784],[-57.719284871899276,-18.929910354878928],[-57.719235453253532,-18.927195887979792],[-57.71920116300322,-18.9244813644234],[-57.719242474260739,-18.92176654768798],[-57.719193801152983,-18.919224891815247],[-57.719145131642449,-18.916683237741211],[-57.719096466628571,-18.914141581868478],[-57.719047801614693,-18.911599924197105],[-57.718999139298774,-18.909058267425053],[-57.71895048237883,-18.90651661155232],[-57.718901828156788,-18.903974950283668],[-57.718792333899046,-18.901347123171149],[-57.718802592465636,-18.900209375562213],[-57.718749500089302,-18.898395011320645],[-57.719604071870378,-18.898485310448677],[-57.723483252550011,-18.898794286926773],[-57.727286862298797,-18.899103479242115],[-57.731060366342774,-18.899441510117526],[-57.735136058782018,-18.899735065021162],[-57.739212079473873,-18.900100534212243],[-57.741631757599521,-18.900263710801539],[-57.742902317987557,-18.90040265156108],[-57.743832692724538,-18.900535743129979],[-57.744619032042635,-18.900575799833234],[-57.747166290691723,-18.900529574680093],[-57.750212723438381,-18.90054398901384],[-57.751229295495534,-18.900580820748246],[-57.751278065730105,-18.900230827090979],[-57.753072456028974,-18.900252212969235],[-57.756905547353085,-18.900322585818628],[-57.760356344069976,-18.900375357136966],[-57.763764500331376,-18.900390040367995],[-57.767183922400079,-18.900547848904068],[-57.767043942024259,-18.900118717604698],[-57.766473988583641,-18.898526386083802],[-57.765904045035597,-18.896934050965626],[-57.765334114078087,-18.895341714948131],[-57.764764193912356,-18.893749375333357],[-57.764194284538576,-18.892157033919943],[-57.763624387755272,-18.890564700600407],[-57.763054412730924,-18.88895326927792],[-57.762484105856743,-18.887265426158422],[-57.761914156912781,-18.885653980446818],[-57.761344131526414,-18.88402343583283],[-57.760752116816718,-18.88222110541966],[-57.760032204122865,-18.880304686112311],[-57.759526338169906,-18.878769376105765],[-57.759203833190327,-18.877873077580432],[-57.758934620236516,-18.877024312721801],[-57.758471239156336,-18.875488816555617],[-57.757964889368111,-18.873838876263108],[-57.75745854947246,-18.872188980037379],[-57.756952221267966,-18.870539073019756],[-57.756445816621124,-18.868870013140565],[-57.755939423665438,-18.867200999126737],[-57.755433040602327,-18.865531981515687],[-57.754926667431732,-18.863862935126292],[-57.754420305952294,-18.862193904924709],[-57.753935444565059,-18.860582088692411],[-57.753450594869037,-18.858970262567539],[-57.753256730713531,-18.858340818074225],[-57.752858589152538,-18.85712969657817],[-57.752620473855757,-18.856099353202524],[-57.752400012250746,-18.855455709313503],[-57.752317232354358,-18.854744634257429],[-57.751884071192876,-18.854006338521685],[-57.751653343826717,-18.853439096537045],[-57.751492605299461,-18.853095964706938],[-57.751349015944299,-18.852906663711508],[-57.751194119413015,-18.852938713750575],[-57.750918113879834,-18.852133346576636],[-57.750741521204191,-18.851507597397642],[-57.750074376231453,-18.849328475328832],[-57.749392074084938,-18.847135004576728],[-57.748709790824137,-18.844941532925361],[-57.748012353986894,-18.842733719785315],[-57.747299822029106,-18.840525964201845],[-57.746754463247839,-18.838524241500522],[-57.746739019190329,-18.838480743991113],[-57.74631820572057,-18.83725856892778],[-57.746274063397266,-18.836996832038096],[-57.746096697304722,-18.836522930688659],[-57.745085987028631,-18.833357861176296],[-57.743132991394418,-18.827059851331001],[-57.742327488422802,-18.824039838867407],[-57.737100533362877,-18.807242328670497],[-57.736072305192693,-18.803882734900242],[-57.734976122450064,-18.800555815298594],[-57.734118678234381,-18.797276587644376],[-57.728896941040944,-18.781289233511245],[-57.727886847699835,-18.77810781612277],[-57.724959014846604,-18.768563125088122],[-57.723966108449133,-18.765381611472151],[-57.723024408549577,-18.762216105788582],[-57.720012054712527,-18.752687844468426],[-57.719190533016672,-18.749716374710886],[-57.716998961632726,-18.742900157516203],[-57.714892726018434,-18.736083575196801],[-57.714324121560935,-18.734497103658384],[-57.713865010461802,-18.732626538084219],[-57.711914665129655,-18.72637667614265],[-57.71097356507795,-18.723243496590044],[-57.709006611066229,-18.717042295165754]]],[[[-61.06471049059661,-18.620266045641472],[-61.069865587127083,-18.616270785868039],[-61.071400621041789,-18.61028951005278],[-61.074432712299767,-18.606377156980159],[-61.075637817331369,-18.588405693368031],[-61.081377157529744,-18.586932711775205],[-61.085289510602365,-18.58390062051717],[-61.093877157504778,-18.582766045716369],[-61.0977895105774,-18.579733953559071],[-61.104166667057996,-18.57916666660833],[-61.104921807095707,-18.582373215551399],[-61.126918538159941,-18.603637187106472],[-61.131414794956754,-18.604696146909589],[-61.139418538134976,-18.61197052012335],[-61.143914794931788,-18.613029479926524],[-61.147751872051231,-18.616137187081449],[-61.156414794906823,-18.617196146884623],[-61.160416666495905,-18.620437452826138],[-61.164418369012481,-18.617196146884623],[-61.168914964853684,-18.616137187081449],[-61.174059211063707,-18.61197052012335],[-61.178400167533653,-18.613411966988622],[-61.179925198289254,-18.61988711899528],[-61.185251702004393,-18.624470520098384],[-61.189748297845654,-18.625529479901559],[-61.193585035920648,-18.628637187056484],[-61.195833332941902,-18.629166666508411],[-61.199999999900058,-18.629166666508411],[-61.200850932124752,-18.63248240034244],[-61.204166666858157,-18.63333333256719],[-61.206591119484528,-18.632980007821061],[-61.210075548147984,-18.62951999215386],[-61.212499999875035,-18.629166666508411],[-61.212499999875035,-18.620833332592156],[-61.212853326419861,-18.618408880865104],[-61.218376498376642,-18.612858072741801],[-61.223257786417662,-18.612146673929828],[-61.226742214181797,-18.608686659161947],[-61.229166666808169,-18.608333333516498],[-61.229166666808169,-18.612499999575277],[-61.232627869580483,-18.613515727169045],[-61.23405643006015,-18.63255293057324],[-61.246229553451087,-18.633963521699116],[-61.252019077618286,-18.629796854741016],[-61.256314257696772,-18.628536477376485],[-61.260416666296067,-18.625583902375126],[-61.26451907759332,-18.628536477376485],[-61.269887966356521,-18.630112033843261],[-61.271849060385762,-18.636794534440185],[-61.289647590663719,-18.638130187757895],[-61.297852411459587,-18.645203144309619],[-61.300000000599482,-18.645833332542225],[-61.300850931924913,-18.642517598708196],[-61.306377156180758,-18.641099378633385],[-61.310289510152757,-18.63806728737535],[-61.314710490097013,-18.636932712574605],[-61.318622843169635,-18.633900620417251],[-61.321579997518825,-18.632766045616449],[-61.32695617708589,-18.636932712574605],[-61.333333334465749,-18.637499999525289],[-61.333333334465749,-18.641666665584125],[-61.347968377138841,-18.641023932708265],[-61.352031622960965,-18.638142733300469],[-61.366988457451328,-18.636857265750166],[-61.374124484357424,-18.641916910936629],[-61.375000000449631,-18.63333333256719],[-61.385543822989007,-18.633900620417251],[-61.39491356710738,-18.642249552175031],[-61.396734280562555,-18.649344040295205],[-61.411285061256535,-18.650567287350384],[-61.412500000374678,-18.645833332542225],[-61.415898471836954,-18.644861687916546],[-61.417469278984015,-18.634068468085275],[-61.425000000349712,-18.63333333256719],[-61.427210489872152,-18.633900620417251],[-61.43528950990293,-18.641099378633385],[-61.469918654422315,-18.642269048577703],[-61.471684266415707,-18.649149068174893],[-61.475000000249793,-18.649999999500324],[-61.477424451976844,-18.650353326045092],[-61.480908882438939,-18.653813340812974],[-61.489924451951879,-18.654519992103928],[-61.493408882413974,-18.657980007771073],[-61.510757784943792,-18.658686659062028],[-61.522575548422765,-18.670480007746107],[-61.525000000149873,-18.670833332492236],[-61.525353326694642,-18.689924452051798],[-61.537853326669676,-18.702450222100026],[-61.537144131196669,-18.710788133565472],[-61.531591118835024,-18.716313340688089],[-61.520833333191717,-18.716666665434218],[-61.521186658837223,-18.735757784993723],[-61.537486437449104,-18.752082315646305],[-61.533686658812201,-18.755908880590312],[-61.533333333166752,-18.758333332317363],[-61.535543824487888,-18.758900621066743],[-61.53945617756051,-18.761932711425459],[-61.543877157504767,-18.763067288024899],[-61.547789510577388,-18.766099377484238],[-61.557445950470196,-18.767375182718467],[-61.558900620966824,-18.773043823613534],[-61.561932712224859,-18.776956176686156],[-61.56306728792498,-18.782118394947929],[-61.554839409411159,-18.784230041782962],[-61.553599379207924,-18.796683416406495],[-61.559252760406537,-18.803462389077936],[-61.569945950445231,-18.804875183542833],[-61.571684265316549,-18.811649067850169],[-61.575000000049897,-18.81250000007492],[-61.574646674404448,-18.81909111876007],[-61.570480007446349,-18.823287115308062],[-61.571186659636567,-18.835757785693204],[-61.575353326594723,-18.839953783140515],[-61.574646674404448,-18.844091118710139],[-61.558346219502369,-18.860416326552183],[-61.56631334048825,-18.868408880365507],[-61.566666667033019,-18.874999999949978],[-61.577160136531063,-18.875617472668182],[-61.585339864443142,-18.882715861148029],[-61.590949504416074,-18.884319729172091],[-61.592284309673119,-18.897993637596244],[-61.595215691251099,-18.902006360405153],[-61.596450974832578,-18.910493637571278],[-61.599382358209198,-18.914506360380187],[-61.600617642689997,-18.918826971487476],[-61.603605142862989,-18.922916665471689],[-61.600617642689997,-18.927006360355222],[-61.599382358209198,-18.93549363752129],[-61.596450974832578,-18.939506360330199],[-61.595215691251099,-18.943826971437545],[-61.592228190178787,-18.947916665421701],[-61.596164449030084,-18.953305052386213],[-61.60759819839808,-18.954969278409408],[-61.608950974807613,-18.968826971387557],[-61.612844849510168,-18.974157374563163],[-61.623632135614514,-18.975617471569024],[-61.624999999949978,-18.97083333369136],[-61.627424452576406,-18.970480007146591],[-61.630908881239861,-18.96701999147939],[-61.635757786492604,-18.966313341087755],[-61.643408881214839,-18.958686658462454],[-61.645833332941947,-18.958333333716325],[-61.654166666858146,-18.958333333716325],[-61.653599379008085,-18.964710489297602],[-61.650567288649427,-18.968622842370223],[-61.649432712049986,-18.981377155331415],[-61.646400621691271,-18.985289509303357],[-61.645129055861219,-18.994913736379772],[-61.639710490346829,-18.999432711850147],[-61.635289510402515,-19.000567287550211],[-61.631377156430574,-19.003599378808246],[-61.625623575467614,-19.005075751744528],[-61.624380832009763,-19.028176201870167],[-61.61887715645554,-19.032766045716414],[-61.596742587200595,-19.033956909084054],[-61.594618394823044,-19.042233953534094],[-61.585289511401811,-19.041099378733293],[-61.581377157429813,-19.038067286575995],[-61.575850931375328,-19.036649236473068],[-61.573836771949402,-19.028800794521032],[-61.56471049049668,-19.036932711775194],[-61.560289510552423,-19.038067286575995],[-61.556377157479801,-19.041099378733293],[-61.545833333141786,-19.041666666583353],[-61.54548000749628,-19.05242445132734],[-61.542019993627775,-19.055908880890115],[-61.541313341437501,-19.073257784319253],[-61.537853326669676,-19.076742214781348],[-61.537146674479402,-19.081591119134771],[-61.529519993652741,-19.089242214756382],[-61.529166667107972,-19.095833332542213],[-61.525000000149873,-19.095833332542213],[-61.525000000149873,-19.099999999500312],[-61.524432712299813,-19.106377156880228],[-61.521400621041778,-19.11028950995285],[-61.520266045341657,-19.118877156855262],[-61.517233954982999,-19.122789509927884],[-61.516099378383558,-19.143877156805274],[-61.513067288024899,-19.147789509877953],[-61.511932712324779,-19.15221048982221],[-61.508900621066743,-19.156122843794151],[-61.507766045366679,-19.173043822814122],[-61.504733954108644,-19.176956176786064],[-61.503198920193995,-19.182937282629439],[-61.498043824562785,-19.186932711475436],[-61.492062547848263,-19.188467745390085],[-61.488067288074831,-19.193622843719197],[-61.486612617578203,-19.199291652787508],[-61.475887384695,-19.200708346712759],[-61.474432712399732,-19.206377156680389],[-61.471400621141697,-19.210289509753011],[-61.470266045441576,-19.214710489697325],[-61.463067288124819,-19.222789509728045],[-61.461932712424698,-19.227210489672302],[-61.45890062116672,-19.2311228436443],[-61.45763041241355,-19.240737575678509],[-61.448043822864122,-19.249432711350494],[-61.445833333341625,-19.250000000099874],[-61.445833333341625,-19.262500000074908],[-61.449392531640001,-19.263413492738437],[-61.450000000299724,-19.279166667008042],[-61.450000000299724,-19.283333333066821],[-61.44256625732686,-19.283994547910027],[-61.440763176879045,-19.291021049981453],[-61.427210489872152,-19.303599379107993],[-61.425000000349712,-19.304166666958054],[-61.417639669035452,-19.304821438158797],[-61.408900621266639,-19.314456176511271],[-61.407766046465838,-19.343877155506277],[-61.404733954308483,-19.347789509478218],[-61.403464254571645,-19.357400173878887],[-61.389710489947106,-19.370266045041888],[-61.383994547410396,-19.371732923835339],[-61.38333333346651,-19.379166666808203],[-61.375986227582302,-19.37988382847584],[-61.373632134315528,-19.388117472543286],[-61.368673197010366,-19.386882528006197],[-61.362969122826712,-19.382715861048098],[-61.360339863993488,-19.383950805585187],[-61.356326802140188,-19.386882528006197],[-61.346804979066462,-19.388268363494149],[-61.345215692650072,-19.393826971437534],[-61.342284308374076,-19.397839693347123],[-61.340852526522838,-19.407676526450473],[-61.320833334490771,-19.408333333716314],[-61.320480007945946,-19.42325778451908],[-61.312853325320646,-19.430908881039954],[-61.312146674029748,-19.439924451452214],[-61.308686659261866,-19.443408881014989],[-61.307980007970968,-19.452424451427248],[-61.300353325345668,-19.460075547948122],[-61.300000000599482,-19.470833333591429],[-61.299432711850159,-19.473043823113926],[-61.288067288474565,-19.485289510102746],[-61.286932711875124,-19.489710490047059],[-61.27973395545763,-19.49778951007778],[-61.278246900374086,-19.503583780866734],[-61.268877156255712,-19.511932711725194],[-61.255066256802252,-19.51316121351914],[-61.254166667657557,-19.516666666533411],[-61.256377156280678,-19.517233953484094],[-61.260289510252676,-19.520266045641449],[-61.264710490196933,-19.52140062044225],[-61.274334547301464,-19.530130004995669],[-61.275567288499531,-19.542603894953743],[-61.267233955482595,-19.55195617693596],[-61.266099378883212,-19.556377156880217],[-61.262427142998206,-19.560498466530987],[-61.253861950368673,-19.559188975390839],[-61.244796517045586,-19.557958343102996],[-61.224800912432102,-19.554906065662351],[-61.207087154948226,-19.552184773808222],[-61.194501438790326,-19.550345328374135],[-61.169749619349432,-19.546545690930827],[-61.162405646703178,-19.545410069319189],[-61.131953428607801,-19.540661870149165],[-61.122205560937857,-19.539132487574193],[-61.105053211536415,-19.536219205751706],[-61.090087569985315,-19.53398039118207],[-61.077808807730264,-19.531932200510596],[-61.067736506034862,-19.530291851487732],[-61.065827275908021,-19.529980855132294],[-61.053924289074644,-19.528026102222782],[-61.04280214760098,-19.526128416693041],[-61.025837777191612,-19.523313730244411],[-61.015078526552713,-19.521614917194654],[-61.00127096718137,-19.519239526183128],[-60.900644532019498,-19.503680233156217],[-60.88262312455754,-19.50077687984907],[-60.869249200290312,-19.498624411887079],[-60.850122735575724,-19.495562509901845],[-60.836225797982138,-19.493293378286751],[-60.82998709213058,-19.492273475140735],[-60.813804124660578,-19.489685557242638],[-60.775609502776319,-19.483456609035215],[-60.75867825889452,-19.48075537655933],[-60.741843640871309,-19.477715359576166],[-60.735644908985307,-19.476753047215311],[-60.721949825124284,-19.474538637548051],[-60.694231645873742,-19.470067659794609],[-60.670144723100464,-19.466263095865145],[-60.667940762656031,-19.465881920913887],[-60.66438075946445,-19.465308428641038],[-60.656744593488156,-19.464084467524117],[-60.645710636836384,-19.462300356476248],[-60.639001394898401,-19.461242448879887],[-60.632888735326844,-19.46025997911471],[-60.618731778548693,-19.457959030384927],[-60.612158323447829,-19.456909186110011],[-60.60695291344615,-19.45607999139844],[-60.604168053912531,-19.455941797975527],[-60.600998482394004,-19.455933679795464],[-60.593714938793369,-19.454147037156019],[-60.588535057846627,-19.452810640098903],[-60.579079594847371,-19.450411549253545],[-60.570778306473642,-19.448255526271453],[-60.556702151083357,-19.444652442855897],[-60.551315334335186,-19.443267068720218],[-60.549655246992018,-19.442841726264589],[-60.550715129499565,-19.413619994766918],[-60.55626390245709,-19.411819457601837],[-60.561074829339873,-19.408558145342113],[-60.563180542448038,-19.402069430659651],[-60.565986125059567,-19.397930568940581],[-60.567347209406137,-19.391577486411848],[-60.563180542448038,-19.385430568965546],[-60.561819458101468,-19.374524264782963],[-60.570757717394713,-19.363876682063164],[-60.575000000249759,-19.36249999987507],[-60.578458320694892,-19.363387382521637],[-60.579733954158598,-19.373043822414445],[-60.586932712374733,-19.381122842445166],[-60.588067288074853,-19.385543822389423],[-60.591198052048412,-19.389583332404811],[-60.588067288074853,-19.3936228424202],[-60.586932712374733,-19.39657999676939],[-60.591099378433512,-19.401956175437078],[-60.592233954133633,-19.404913329786268],[-60.588067288074853,-19.410289509353333],[-60.586932712374733,-19.421579996719402],[-60.591099378433512,-19.426956176286467],[-60.591666666283572,-19.429166666708284],[-60.606591118884978,-19.429519991454413],[-60.614242215405852,-19.437146674079713],[-60.616666666233641,-19.437499999725162],[-60.619091118860013,-19.437146674079713],[-60.622575548422788,-19.433686658412512],[-60.625000000149839,-19.433333333666383],[-60.631377157529755,-19.432766045816322],[-60.636684502088087,-19.428339978407223],[-60.638067287974934,-19.422048271910171],[-60.629758029809182,-19.419915771595527],[-60.628599378358558,-19.370086669863895],[-60.632766045316714,-19.36471048939751],[-60.633900621016778,-19.347789509478218],[-60.637896051661414,-19.342634412947746],[-60.641666667082973,-19.3416666668831],[-60.641099379232912,-19.33945617556202],[-60.638067287974934,-19.335543822489399],[-60.636932712274813,-19.328420002980693],[-60.641204834635346,-19.322907849517605],[-60.633900621016778,-19.314710488598109],[-60.632766045316714,-19.305381604277557],[-60.640927802076362,-19.303287081433609],[-60.642233954933033,-19.295086670013745],[-60.638067287974934,-19.289710489547417],[-60.636932712274813,-19.282586670038768],[-60.641099379232912,-19.277210489572383],[-60.641666667082973,-19.275000000049943],[-60.642019993627741,-19.272575547423514],[-60.645480007496303,-19.269091118760059],[-60.646186659686578,-19.248286945386155],[-60.642019993627741,-19.244091118810047],[-60.641313341437524,-19.230908880540369],[-60.633686658812223,-19.223257785818134],[-60.632980008420589,-19.218408880565335],[-60.625353326694608,-19.21075778494378],[-60.62464667540371,-19.2059088805903],[-60.621186658837189,-19.202424451926845],[-60.620480008445611,-19.198286945486075],[-60.62464667540371,-19.194091118909967],[-60.625000000149839,-19.191666665384275],[-60.627424451876891,-19.191313340638089],[-60.660075548347834,-19.158686658962097],[-60.676715766219615,-19.157980007671199],[-60.685075548297903,-19.166313340688077],[-60.689924452651326,-19.167019991978975],[-60.69757554827288,-19.174646674604332],[-60.70242445262636,-19.17535332589523],[-60.710075548247914,-19.182980007621211],[-60.716666666933065,-19.18333333236734],[-60.720833332991901,-19.18333333236734],[-60.72118665953667,-19.180908881539608],[-60.724646674304552,-19.177424451976833],[-60.724999999950001,-19.174999999350462],[-60.72443271209994,-19.172789509827965],[-60.696400620891893,-19.143877156805274],[-60.695266045191772,-19.132586669439206],[-60.699432712149928,-19.127210489872141],[-60.700567287849992,-19.111753335547974],[-60.696301947276993,-19.106249999937518],[-60.699432712149928,-19.102210489922129],[-60.700567287849992,-19.089456176960937],[-60.707766045166807,-19.081377156930216],[-60.708900620866928,-19.072789510027803],[-60.720266045141841,-19.060543823038984],[-60.721684095244768,-19.055017428811254],[-60.728315905554553,-19.053315903406144],[-60.72973395565748,-19.047789510077791],[-60.741099379033074,-19.035543823088915],[-60.742233955632514,-19.031122843144658],[-60.753599379008108,-19.018877156155781],[-60.754733955607549,-19.014456177110844],[-60.757766045066887,-19.010543823138903],[-60.758900621666328,-19.006122842295269],[-60.766099378983085,-18.998043823163869],[-60.767233955582526,-18.981122842345258],[-60.775582886441043,-18.97175293005364],[-60.77916666680818,-18.97083333369136],[-60.77916666680818,-18.966666666733261],[-60.779519992453629,-18.960075548048053],[-60.782980007221511,-18.956591117585958],[-60.783333334665599,-18.954166666758226],[-60.780908881139908,-18.953813341112777],[-60.773257786417673,-18.946186658487477],[-60.770833332891982,-18.945833333741291],[-60.766666666833146,-18.945833333741291],[-60.766666666833146,-18.937499999825093],[-60.769091119459574,-18.937146673280324],[-60.775001356027701,-18.931265937173237],[-60.771186659436751,-18.92742445157711],[-60.770833332891982,-18.887499999925012],[-60.774149238496534,-18.886649237672145],[-60.774999999850081,-18.883333332966913],[-60.778315905454633,-18.882482570714046],[-60.780017429061047,-18.875850761303525],[-60.783333334665599,-18.874999999949978],[-60.794091119409586,-18.874646673405209],[-60.805908881089977,-18.862853325620449],[-60.816666667632546,-18.862499999975],[-60.817517428986093,-18.859184094370391],[-60.820833334590702,-18.858333333016844],[-60.82172071633795,-18.854875012571711],[-60.832445950120473,-18.85345831954578],[-60.83333333456568,-18.849999999999966],[-60.849187553962395,-18.849332003369227],[-60.850617472418378,-18.839506530501922],[-60.854280599070364,-18.834492153589963],[-60.860493639170045,-18.832715690376745],[-60.864506361079634,-18.829784308798764],[-60.86882697218698,-18.828549024317965],[-60.877006361054669,-18.821450974882566],[-60.881326972162014,-18.820215690401767],[-60.889506361029703,-18.813117641865631],[-60.893826972136992,-18.811882357384832],[-60.897839694945901,-18.808950974907532],[-60.900000000499574,-18.808333333116764],[-60.900000000499574,-18.804166667057984],[-60.896507093927198,-18.803270296586845],[-60.895266046590734,-18.790920003155577],[-60.899432712649514,-18.785543823588569],[-60.900850761853121,-18.780017597534027],[-60.90637715698017,-18.778599377459273],[-60.911532254409963,-18.77460411858516],[-60.913067287425349,-18.768622843669277],[-60.917062717170609,-18.763467745340108],[-60.923043823013984,-18.761932711425459],[-60.92851087817445,-18.757373555145421],[-60.929733954358483,-18.743622843719209],[-60.94231228348508,-18.730070156712316],[-60.948993258831763,-18.728355746720297],[-60.950567288249715,-18.724253335423043],[-60.946400621291616,-18.718877156755354],[-60.945833333441556,-18.716666665434218],[-60.949362182318794,-18.715760972590772],[-60.950637818480516,-18.696739027084391],[-60.956377156880251,-18.695266044592245],[-60.961896091231608,-18.69066365430416],[-60.962500000374689,-18.674999999450392],[-60.973043822914065,-18.674432711600332],[-60.976956176886006,-18.671400620342297],[-60.982482571113735,-18.669982401166862],[-60.983900621216662,-18.664456176911017],[-60.986932712474641,-18.660543822939019],[-60.988320244983299,-18.655136786733294],[-60.992654757810783,-18.653599378608362],[-61.006122844693493,-18.666099378583397],[-61.009079996344724,-18.667233953384198],[-61.014456176811052,-18.663067287325418],[-61.020833333291648,-18.662499999475358],[-61.021450806009852,-18.660339863893569],[-61.025330946266138,-18.655028109959289],[-61.036764866505337,-18.653364054807241],[-61.038117472043666,-18.639506530901656],[-61.045215861422832,-18.63132680298952],[-61.045833333241717,-18.624999999550312],[-61.050000000199816,-18.624999999550312],[-61.056377157579732,-18.624432711700251],[-61.060289510652353,-18.621400620442216],[-61.06471049059661,-18.620266045641472]]],[[[-57.510932862161837,-18.238379379005096],[-57.503774077911316,-18.237783132985157],[-57.502683680507403,-18.237712019993694],[-57.501956872711446,-18.237703134691856],[-57.457107088721102,-18.236102263208807],[-57.454433528384584,-18.231024371677393],[-57.457929382934651,-18.226856212743996],[-57.464694403523879,-18.224413363585825],[-57.469760218059548,-18.219663426925592],[-57.472165413502978,-18.214804376420773],[-57.476267573889402,-18.211558806793448],[-57.478673425837883,-18.20704632712625],[-57.478921217839911,-18.203774231095849],[-57.489710490546656,-18.204733953409175],[-57.501956177535533,-18.216099378583408],[-57.516666667033007,-18.216666665534149],[-57.516313340488239,-18.235757785093654],[-57.513523112001963,-18.238567703336798],[-57.510932862161837,-18.238379379005096]]]]},"properties":{"FID":0,"Id":0,"sci_name":"Acanthochelys macrocephala"}}]}